Name,Address,City,State,Zip,Services
Bay Pines VA Healthcare System Veterans Affairs Medical Center,10000 Bay Pines Boulevard,Bay Pines,Florida 33744,33744,"? MH SUMH ? HI OP RES TELE ? AT BMT CBT CFT DBT GT IDD IPT PTM TT ? CIT WI ? VAMC 
? VAF ? VET CO PTSD ? ACT CDM CM DEC ES FPSY HS ICM IMR IPC PRS SEMP SH SPS VRS 
PEER ? NRT NSC STU TCC ? SMON ? ADLT SNR YAD ? VO"
Apalachee Center Inc Franklin County Clinic,159 12th Street,Apalachicola,Florida 32320,32320,"? MH SUMH ? OP TELE ? CMHC ? CBT CFT IDD IPT PTM TT ? CIT WI ? PVTN ? MC MD PI SF 
SI SMHA ? SS ? CJ CO SED SMI ? CM COOT IMR SPS PEER ? NSC STU ? SMPD ? ADLT CHLD 
SNR YAD ? AH"
Florida Center for Addictions and Dual Disorders,100 West College Drive,Avon Park,Florida 33825,33825,"? MH ? RES TELE ? RTCA ? AT BMT CBT CFT DBT GT IDD IPT PTM TT ? OSG ? PI SF SI 
SMHA ? SS ? CO ? CM FPSY ? NRT TCC ? SMON ? ADLT SNR YAD ? AH"
Peace River Center Personal Dev/Avon Park CFHC,950 County Road 17-A West,Avon Park,Florida 33825,33825,"? MH SUMH ? OP TELE ? OMH ? AT BMT CBT CFT GT IDD IPT PTM TT ? PVTN ? FQHC ? CLF 
MC MD MI OSF PI SCJJ SF SI SMHA SWFS ? CO TRMA PTSD SED ? CM FPSY IPC ? SMPD ? 
ADLT CHLD SNR YAD ? AH"
Peace River Center Crisis Stabilization Unit,1255 Golfview Avenue,Bartow,Florida 33830,33830,"? MH SUMH ? HI OP ? PSY ? GT PTM ? CIT WI ? PVTN ? CLF MD MI PI SF SMHA SWFS ? CO 
? CM FPSY SPS ? STU TCC ? SMON ? ADLT CHLD SNR YAD ? AH ? SP"
Peace River Center Personal Development/SRT,1255 Golfview Drive,Bartow,Florida 33830,33830,"? MH SUMH ? RES ? RTCA ? AT BMT GT IPT PTM ? PVTN ? SMHA ? SMI ? CM FPSY SPS ? 
STU TCC ? SMON ? ADLT SNR YAD ? AH ? SP"
Life Management Center Calhoun County Facility,16869 NE Pear Street,Blountstown,Florida 32424,32424,"? MH SUMH ? OP ? CMHC ? BMT CBT CFT GT IDD IPT TT ? PVTN ? MC MD MI PI SF ? CM 
COOT FPSY SPS ? SMPD ? ADLT CHLD SNR YAD ? AH"
Faulk Center for Counseling,22455 Boca Rio Road,Boca Raton,Florida 33433,33433,"? MH ? OP ? OMH ? BMT CBT CFT DBT GT IPT TT ? PVTN ? SF ? PA SS ? TAY SE GL TRMA ? 
ACT COOT ES FPSY SPS ? SMPD ? ADLT CHLD SNR YAD ? SP F67"
Ruth and Norman Rales Jewish Family Services,21300 Ruth and Baron Coleman Boulevard,Boca Raton,Florida 33428,33428,"? MH ? OP TELE ? CMHC ? CBT CFT GT IPT PTM ? PVTN ? FQHC ? MC PI SF ? SS ? SE GL ? 
CM VRS ? SMPD ? ADLT CHLD SNR YAD ? F31"
Life Management Center Holmes County,310 East Byrd Avenue,Bonifay,Florida 32425,32425,"? MH SUMH ? OP TELE ? CMHC ? BMT CBT CFT GT IDD IPT TT ? WI ? PVTN ? MC MD MI PI 
SF ? CM COOT FPSY SPS PEER ? SMPD ? ADLT CHLD SNR YAD ? AH"
Compass Health Systems Boynton Beach Clinic,10301 Hagen Ranch Road Suite B-6,Boynton Beach,Florida 33437,33437,"? MH SUMH ? OP ? OMH ? BMT CBT CFT DBT GT IDD IPT PTM TT ? WI ? PVTP ? CLF MC MD 
MI OSF PI SCJJ SEF SF SI SMHA SWFS ? SS ? CJ ? CDM COOT DEC ES FPSY IMR IPC SPS ? 
NSC STU TCC ? SMPD ? ADLT CHLD SNR YAD ? AH ? SP F35 F67 F9"
Centerstone,371 6th Avenue West,Bradenton,Florida 34205,34205,"? MH SUMH ? OP ? CMHC ? AT BMT CBT CFT GT IPT TT ? CIT WI ? PVTN ? CLF CMHG CSBG 
MC MD MI OSF PI SCJJ SEF SF SWFS ? PA SS ? PTSD ? CM FPSY ICM SPS ? STU TCC ? 
SMPD ? ADLT CHLD SNR YAD ? AH ? SP F19"
Centerstone Florida,379 6th Avenue West,Bradenton,Florida 34205,34205,"? MH SUMH ? OP ? CMHC ? AT BMT CBT CFT DBT GT IDD IPT PTM TT ? CIT WI ? PVTN ? CLF 
CMHG MC MD MI PI SF SI SMHA SWFS ? SS ? CO TRMA SMI ? ACT CM FPSY ICM PRS SEMP 
SPS ? STU TCC ? SMON ? ADLT CHLD SNR YAD ? AH ? SP F19"
Centerstone Hospital Inpatient Services,2020 26th Avenue East,Bradenton,Florida 34208,34208,"? MH SUMH ? HI ? PSY ? AT BMT CBT CFT GT IDD IPT PTM TT ? CIT WI ? PVTN ? CLF MC MD 
MI PI SF ? SS ? CO HV TRMA PTSD SED SMI ? CM DEC FPSY SPS PEER ? NRT STU TCC ? 
SMON ? ADLT CHLD SNR YAD ? AH ? SP F19 F28"
Palm Shores Behavioral Health Center,1324 37th Avenue East,Bradenton,Florida 34208,34208,"? MH ? RES ? RTCC ? AT BMT CBT CFT GT IDD IPT PTM TT ? PVTP ? MD MI PI SEF SF SI 
SMHA SWFS ? GL MF CO TRMA PTSD SED ? CM DEC ES FPSY ICM PRS SPS ? TCC ? SMON 
? CHLD"
Suncoast Behavioral Health Center,4480 51st Street West,Bradenton,Florida 34210,34210,"? MH SUMH ? HI PHDT TELE ? PSY ? AT BMT CBT CFT DBT GT IDD IPT PTM TT ? WI ? PVTP 
? CLF CMHG CSBG ITU MC MD MI OSF PI SCJJ SEF SF SI SMHA SWFS VAF ? TAY SE GL VET 
MF CJ CO HV TRMA ALZ PTSD SED SMI ? CM ES FPSY HS PRS SPS PEER ? NRT NSC STU 
TCC ? SMON ? ADLT CHLD SNR YAD ? AH ? SP F66"
Bay Area Behavioral Services,126 Lithia Pincrest Road,Brandon,Florida 33511,33511,"? MH ? OP TELE ? OMH ? CBT CFT GT IPT PTM TT ? PVTP ? MD MI PI SF SWFS ? TAY GL 
VET ADM MF HV TRMA PTSD SED SMI ? SMON ? ADLT CHLD YAD ? AH ? SP"
BayCare Behavioral Health,15311 Cortez Boulevard,Brooksville,Florida 34613,34613,"? MH SUMH ? OP ? OMH ? AT BMT CBT CFT DBT GT IDD IPT PTM TT ? CIT ? PVTN ? CSBG 
MC MD PI SF SI SMHA ? SS ? SED SMI ? CM COOT DEC FPSY IPC PRS SH SPS ? NRT STU 
TCC ? SMPD ? ADLT CHLD SNR YAD ? AH ? SP"
WestBridge,7300 Grove Road,Brooksville,Florida 34613,34613,"? MH SUMH ? OP RES TELE ? RTCA ? AT BMT CBT DBT GT IDD IPT PTM TT ? CIT ? PVTN ? PI 
SF ? CO SMI ? ACT CDM DEC ES FPSY ICM IMR PRS SEMP VRS PEER ? NRT NSC STU TCC ? 
SMON ? ADLT SNR YAD"
SMA Healthcare Flagler Center,301 Justice Lane,Bunnell,Florida 32110,32110,"? MH SUMH ? OP ? OMH ? AT CBT CFT DBT GT IDD IPT PTM TT ? CIT WI ? PVTN ? FQHC ? 
MC MD PI SF ? SS ? TAY GL ADM CO HV TBI SED ? CDM CM COOT IPC SPS ? SMON ? ADLT 
CHLD SNR YAD ? AH ? SP"
Bay Pines VA Healthcare System Lee County Healthcare Center,2489 Diplomat Parkway East,Cape Coral,Florida 33909,33909,"? MH SUMH ? OP TELE ? BMT CBT CFT DBT GT IDD IPT PTM TT ? WI ? VAMC ? VAF ? VET ? 
CDM CM DEC ES FPSY HS IMR IPC SPS PEER ? NRT NSC STU TCC ? SMON ? ADLT SNR 
YAD ? VO"
SalusCare Inc Cape Coral Campus,1105 Cultural Park Boulevard,Cape Coral,Florida 33990,33990,"? MH ? OP ? CMHC ? CBT CFT GT IPT PTM TT ? CIT ? PVTN ? MC MD PI SF ? SS ? SE SMI ? 
CM ? SMON ? ADLT CHLD SNR YAD ? AH ? SP"
Aspire Health Partners,237 Fernwood Boulevard,Casselberry,Florida 32730,32730,"? MH SUMH ? OP ? OMH ? CBT CFT DBT GT IDD IPT PTM TT ? PVTN ? CLF CMHG MC MD MI 
OSF PI SF SI SMHA VAF ? PA SS ? TAY VET CJ CO TRMA ? COOT ? SMPD ? ADLT CHLD SNR 
YAD ? AH ? SP"
La Amistad Foundation Inc Lakewood Center,8400 La Amistad Cove,Casselberry,Florida 32730,32730,"? MH ? RES ? RTCA ? AT BMT CBT GT IPT PTM ? CIT ? PVTN ? PI SF VAF ? SMI ? CM PRS 
SEMP VRS ? SMPD ? ADLT SNR YAD"
Century Clinic,6021 Industrial Bouleard Suite A,Century,Florida 32535,32535,"? MH SUMH ? OP TELE ? OMH ? CBT CFT GT IPT PTM TT ? CIT ? PVTN ? MC MD MI PI SI 
SMHA ? SS ? SMI ? PRS ? SMPD ? ADLT SNR YAD"
Meridian Behavioral Healthcare Inc Levy County Clinic,103 NE 1st Street,Chiefland,Florida 32626,32626,"? MH SUMH ? OP TELE ? OMH ? AT BMT CBT CFT DBT GT IDD IPT PTM TT ? WI ? PVTN ? 
CLF CMHG CSBG MC MD MI OSF PI SCJJ SEF SF SI SMHA SWFS VAF ? SS ? VET MF CJ CO 
HV SMI ? CM COOT FPSY SPS ? STU TCC ? SMON ? ADLT CHLD SNR YAD ? AH"
Senior Enrichment Northwest Florida Community Hospital,1360 Brickyard Road,Chipley,Florida 32428,32428,"? MH SUMH ? OP ? OMH ? BMT CBT CFT DBT GT IPT PTM TT ? LMG ? MC MD MI PI SF ? SE 
GL VET MF CO TRMA TBI ALZ PTSD ? DEC ES FPSY PRS SPS PEER ? SMON ? SNR"
Baycare Life Management,1106 Druid Road South Suite 201,Clearwater,Florida 33756,33756,"? MH SUMH ? OP ? OMH ? BMT CBT CFT GT IDD IPT PTM TT ? PVTN ? MC MD PI SF ? CO ? 
COOT ? SMPD ? ADLT CHLD SNR YAD ? AH ? SP"
Fairwinds Properties Inc Fairwinds Treatment Center,1569 South Fort Harrison Avenue,Clearwater,Florida 33756,33756,"? MH ? PHDT RES ? RTCA ? AT BMT CBT CFT DBT GT IDD IPT PTM ? CIT ? PVTP ? PI SF ? 
TAY SE CJ CO TRMA PED PTSD ? CDM CM DEC FPSY ICM IPC PRS ? SMPD ? ADLT SNR YAD"
Mental Health Resource Center (MHRC) FACT/Clearwater,626 Lakeview Road Suite B,Clearwater,Florida 33756,33756,"? MH SUMH ? OP ? OMH ? CBT IDD PTM ? WI ? PVTN ? CMHG SMHA ? SMI ? ACT IMR SH ? 
SMPD ? ADLT SNR YAD ? AH"
Morton Plant,"300 Pinellas Street, Adler 6",Clearwater,Florida 33756,33756,"? MH SUMH ? HI TELE ? PSY ? AT BMT CBT DBT ECT GT IDD IPT PTM TT ? WI ? PVTN ? MC 
MD MI PI SF ? SE CO ALZ SMI ? CM DEC ES IMR SPS ? NRT NSC STU TCC ? SMON ? ADLT 
SNR YAD ? AH"
NeuroRestorative,2769 Whitney Road,Clearwater,Florida 33760,33760,"? MH SUMH ? OP PHDT RES ? MSNH ? AT BMT CBT CFT DBT GT IDD IPT PTM TT ? CIT ? 
PVTP ? ITU MD MI PI SCJJ SF VAF ? SE GL VET CO TRMA TBI ALZ PED PTSD ? CM COOT 
DEC ES FPSY HS IMR IPC PRS SEMP SH SPS VRS PEER ? NRT NSC STU TCC ? SMPD ? 
ADLT SNR YAD ? SP"
Suncoast Centers Inc Outpatient Services,2188 58th Street North,Clearwater,Florida 33760,33760,"? MH SUMH ? OP TELE ? OMH ? AT CBT CFT GT IDD IPT TT ? PVTN ? CLF MC MD MI OSF PI 
SCJJ SEF SF SI SMHA SWFS VAF ? PA SS ? CJ CO TRMA PTSD ? CM COOT FPSY LAD ? STU 
? SMON ? ADLT CHLD SNR YAD ? AH"
Windmoor Healthcare,11300 U.S. Highway 19 North,Clearwater,Florida 33764,33764,"? MH SUMH ? HI OP PHDT ? PSY ? AT BMT CBT CFT DBT ECT GT IDD IPT PTM TT ? CIT WI ? 
PVTP ? MC MI PI SCJJ SF VAF ? TAY SE VET ADM MF CJ CO TRMA PTSD SMI ? CM COOT 
DEC FPSY IMR PRS SPS PEER ? NRT STU TCC ? SMPD ? ADLT SNR YAD ? AH"
LifeStream Behavioral Center Southlake Outpatient Center,2140 Don Wickham Drive,Clermont,Florida 34711,34711,"? MH SUMH ? OP TELE ? OMH ? CBT CFT DBT GT IDD IPT PTM TT ? PVTN ? CLF CMHG MC 
MD MI PI SF SI SMHA ? SS ? CO TRMA PTSD ? CM COOT IPC ? STU ? SMON ? ADLT CHLD 
SNR YAD ? AH"
Kinder Konsulting and Parents Too Inc,"640 Brevard Avenue, Suite 104",Cocoa,Florida 32922,32922,"? MH ? OP ? OMH ? AT BMT CBT GT IPT PTM TT ? PVTP ? MD MI PI SF ? TRMA PTSD SED ? 
COOT ? SMPD ? CHLD ? AH ? SP F19 F30"
Lifetime Counseling Center,"505 Brevard Avenue, Suite 106",Cocoa,Florida 32922,32922,"? MH SUMH ? OP ? OMH ? BMT CBT CFT GT IDD IPT TT ? PVTN ? CMHG MD MI PI SCJJ SF ? 
SS ? CO ? COOT FPSY IMR TPC ? SMPD ? ADLT CHLD SNR YAD ? SP"
Apalachee Center Inc Wakulla County Clinic,43 Oak Street,Crawfordville,Florida 32327,32327,"? MH SUMH ? OP TELE ? CMHC ? CBT CFT GT IDD IPT PTM TT ? CIT WI ? PVTN ? MC MD PI 
SF SI SMHA ? SS ? CJ CO SED SMI ? CM COOT IMR PRS SPS PEER ? NSC STU TCC ? SMPD 
? ADLT CHLD SNR YAD ? AH"
Bridgeway Center Inc,299 West Railroad Avenue,Crestview,Florida 32536,32536,"? MH SUMH ? OP TELE ? CMHC ? BMT CBT CFT DBT GT IDD IPT PTM TT ? CIT WI ? PVTN ? 
CLF CMHG CSBG MC MD MI OSF PI SCJJ SF SMHA SWFS VAF ? SS ? CO HV PTSD ? CM 
COOT ES FPSY IPC PRS SPS ? SMPD ? ADLT CHLD SNR YAD ? AH ? SP"
Meridian Behavioral Healthcare Inc Dixie County Clinic,41 NE 238th Street,Cross City,Florida 32628,32628,"? MH SUMH ? OP TELE ? OMH ? AT BMT CBT CFT DBT GT IDD IPT PTM TT ? WI ? PVTN ? 
CLF CMHG CSBG MC MD MI OSF PI SCJJ SEF SF SI SMHA SWFS VAF ? SS ? VET MF CJ CO 
HV SMI ? CM COOT FPSY SPS ? STU TCC ? SMON ? ADLT CHLD SNR YAD ? AH"
Childrens Home Society of Florida North Coastal Division,2400 South Ridgewood Avenue Suite 32,Daytona Beach,Florida 32119,32119,"? MH SUMH ? OP TELE ? OMH ? BMT CBT CFT GT IPT PTM TT ? CIT ? PVTN ? FQHC ? CLF 
CMHG CSBG MD MI SF SMHA SWFS ? SS ? TAY TRMA PTSD SED ? COOT FPSY SEMP SPS 
TPC ? STU ? SMPD ? ADLT CHLD SNR YAD"
Chrysalis Health Outpatient Office,412 South Palmetto Avenue,Daytona Beach,Florida 32114,32114,"? MH SUMH ? OP TELE ? OMH ? CBT CFT IDD IPT TT ? PVTP ? MD PI SCJJ SF ? SS ? TAY SE 
CJ CO TRMA PTSD SED SMI ? CM COOT FPSY ICM ? ADLT CHLD SNR YAD ? AH"
Halifax Health Adult Psychiatry,303 North Clyde Morris Boulevard,Daytona Beach,Florida 32114,32114,"? MH SUMH ? HI ? PSY ? AT BMT CBT CFT DBT ECT GT IDD IPT PTM TT ? CIT WI ? LMG ? MC 
MD MI PI SF SI VAF ? PA ? SE CO ALZ SMI ? CDM CM DEC FPSY LAD SPS PEER ? NRT NSC 
STU TCC ? SMON ? ADLT SNR YAD ? AH ? SP"
Halifax Health Behavioral Services,841 Jimmy Ann Drive,Daytona Beach,Florida 32114,32114,"? MH SUMH ? HI OP PHDT ? PSY ? AT BMT CBT CFT DBT GT IDD IPT PTM TT ? CIT WI ? LMG 
? CLF MC MD OSF PI SCJJ SEF SF SI SMHA SWFS ? CO SED ? ACT CM ES FPSY IMR SPS ? 
STU TCC ? SMON ? CHLD ? AH ? SP F4"
House Next Door,1000 Big Tree Road,Daytona Beach,Florida 32119,32119,"? MH ? OP ? OMH ? CBT CFT DBT GT IPT TT ? PVTN ? CLF MD OSF SCJJ SF SMHA SWFS ? 
GL VET CO HV TRMA ALZ ? COOT FPSY ? SMPD ? ADLT CHLD SNR YAD ? AH"
SMA Healthcare,1220 Willis Avenue,Daytona Beach,Florida 32114,32114,"? MH ? OP TELE ? OMH ? BMT CBT GT IPT PTM ? WI ? PVTN ? MC MD PI SF ? SS ? CM 
COOT FPSY ICM IPC PRS SPS PEER ? SMON ? ADLT SNR YAD ? AH ? SP"
SMA Healthcare Enrichment Program,225 Fentress Boulevard,Daytona Beach,Florida 32114,32114,"? MH SUMH ? OP ? CMHC ? GT IPT ? CIT ? PVTN ? MD PI SF ? SMI ? PRS SEMP VRS ? STU 
? SMPD ? ADLT SNR YAD ? AH"
SMA Healthcare Pinegrove Crisis Services,1150 Red John Drive,Daytona Beach,Florida 32124,32124,"? MH SUMH ? HI PHDT ? PSY ? AT CBT GT IPT PTM ? CIT WI ? PVTN ? CLF CMHG CSBG OSF 
PI SF SMHA SWFS ? SS ? SE CO SMI ? CM ICM SPS ? STU ? SMON ? ADLT SNR YAD ? AH"
Lifeskills South Florida,1431 SW 9th Avenue,Deerfield Beach,Florida 33441,33441,"? MH SUMH ? OP PHDT RES ? RTCA ? AT BMT CBT CFT DBT GT IDD IPT PTM TT ? PVTP ? PI 
SF ? GL VET CJ CO TRMA PTSD SMI ? CM COOT DEC ES FPSY HS IPC PRS VRS ? NRT NSC 
STU TCC ? SMPD ? ADLT SNR YAD ? SP"
Miami VA Healthcare System Deerfield Beach CBOC,2100 SW 10th Street,Deerfield Beach,Florida 33442,33442,"? MH ? OP TELE ? CBT GT IDD IPT PTM TT ? CIT WI ? VAMC ? MI PI ? VET ? CDM CM DEC 
FPSY IPC SPS ? NRT NSC STU TCC ? SMPD ? ADLT SNR YAD ? VO ? AH ? SP F35"
AdventHealth Deland,701 West Plymouth Avenue,Deland,Florida 32720,32720,"? MH SUMH ? HI TELE ? PSY ? AT BMT CBT CFT GT IDD IPT PTM TT ? WI ? PVTN ? MC MD 
MI PI SF SI ? SE CO SMI ? DEC ES FPSY IMR SPS ? NRT NSC STU TCC ? SMON ? ADLT SNR 
YAD ? AH ? SP F19"
Devereux Service Center Volusia,120 East New York Avenue Suites B-C,Deland,Florida 32724,32724,"? MH SUMH ? OP TELE ? OMH ? BMT CBT CFT DBT GT IPT PTM TT ? PVTN ? CLF CMHG MD 
PI SF SI SMHA SWFS ? TAY GL CJ CO TRMA TBI PTSD SED SMI ? COOT FPSY IMR SPS TPC ? 
SMPD ? ADLT CHLD YAD ? AH ? SP F19"
House Next Door Deland Center,121 West Pennsylvania Avenue,Deland,Florida 32720,32720,"? MH ? OP ? OMH ? BMT CBT CFT DBT GT IDD IPT TT ? PVTN ? CLF CMHG CSBG MD OSF PI 
SF SMHA SWFS ? TRMA PTSD ? CDM COOT ES FPSY SPS ? TCC ? SMPD ? ADLT CHLD SNR 
YAD ? AH ? SP"
SMA Healthcare Deland Outpatient,105 West Calvin Street,Deland,Florida 32720,32720,"? MH SUMH ? OP ? OMH ? BMT CBT DBT GT IPT PTM ? PVTN ? CLF CMHG CSBG MC MD 
OSF PI SF ? SS ? CJ HV PTSD SMI ? COOT ICM SPS ? STU ? SMPD ? ADLT SNR YAD ? AH ? 
SP"
Delray Center for Healing,403 SE 1st Street,Delray Beach,Florida 33483,33483,"? MH SUMH ? OP TELE ? OMH ? AT BMT CBT CFT DBT GT IDD IPT PTM TT ? PVTP ? MC MI 
PI SF ? TAY SE GL VET MF CO TRMA TBI PED PTSD SED SMI ? CDM CM COOT DEC ES FPSY 
PEER ? NRT NSC STU TCC ? SMPD ? ADLT CHLD SNR YAD ? AH ? SP F35"
Delray Center for Recovery,120 SE 4th Avenue,Delray Beach,Florida 33483,33483,"? MH SUMH ? OP PHDT TELE ? PH ? AT BMT CBT CFT DBT GT IDD IPT PTM TT ? PVTP ? MC 
MI PI SF ? SE GL VET ADM MF CO TRMA TBI PED PTSD SMI ? CM DEC ES FPSY PEER ? 
SMPD ? ADLT SNR YAD ? AH ? SP F35"
Fair Oaks Pavilion at Delray Medical Center,5440 Linton Boulevard,Delray Beach,Florida 33484,33484,"? MH SUMH ? HI ? PSY ? AT CBT CFT GT IPT PTM ? WI ? PVTP ? MC MD PI SF VAF ? SE CO 
SMI ? ES FPSY ? NRT STU TCC ? SMON ? ADLT SNR YAD ? AH ? SP F19"
South County Mental Health Center Inc,16158 South Military Trail,Delray Beach,Florida 33484,33484,"? MH SUMH ? OP ? CMHC ? AT CBT CFT DBT GT IDD IPT PTM TT ? CIT WI ? PVTN ? CLF MC 
MD OSF PI SF SMHA ? SS ? CO SMI ? ACT CM COOT DEC FPSY HS ICM IMR PRS SEMP SH 
SPS PEER ? STU ? SMPD ? ADLT CHLD SNR YAD ? AH ? SP F19 F28 F42 F67 F70"
Circle of Friends Services Inc Deltona,517 Deltona Boulevard Suite A,Deltona,Florida 32725,32725,"? MH ? OP TELE ? OMH ? AT CBT CFT GT IPT TT ? PVTN ? CLF MD OSF PI SCJJ SF SI SMHA 
SWFS ? TAY GL CJ TRMA PTSD SED ? COOT FPSY ? SMON ? ADLT CHLD SNR YAD ? AH ? 
SP F19"
Deltona Counseling Center,840 Deltona Boulevard Suite K,Deltona,Florida 32725,32725,"? MH ? OP ? OMH ? AT BMT CBT CFT GT IPT TT ? CIT ? PVTN ? CLF MD OSF SCJJ SF SWFS 
? TRMA PTSD ? COOT FPSY SPS ? SMPD ? ADLT CHLD SNR YAD ? AH"
FL United Methodist Childrens Home,51 Childrens Way,Deltona,Florida 32725,32725,"? MH ? RES TELE ? RTCC ? AT BMT CBT CFT DBT GT IPT PTM TT ? CIT ? PVTN ? CSBG MD 
PI SF SI SWFS ? GL CJ CO TRMA PTSD SED ? ES HS SH SPS ? SMON ? CHLD"
Mease Dunedin Hospital,601 Main Street,Dunedin,Florida 34698,34698,"? MH SUMH ? HI TELE ? PSY ? AT BMT CBT DBT GT IDD IPT PTM TT ? WI ? PVTN ? MC MD 
MI PI SF ? TAY SE CO ALZ SED SMI ? CM DEC ES IMR SPS ? NRT NSC STU TCC ? SMON ? 
ADLT CHLD SNR YAD ? AH"
Eglin CBOC Gulf Coast VHCS,"100 Veterans Way,",Eglin AFB,Florida 32542,32542,"? MH SUMH ? OP ? OMH ? BMT IDD IPT ? CIT WI ? VAMC ? MI PI SF VAF ? VET PTSD ? CM 
FPSY HS IPC SH SPS ? NRT STU TCC ? SMPD ? ADLT SNR YAD ? VO ? SP"
LifeStream Behavioral Center Childrens Services Center,1217 East Huffstetler Road,Eustis,Florida 32726,32726,"? MH ? OP ? OMH ? BMT CFT IPT PTM TT ? PVTN ? MD ? SS ? TAY TRMA PTSD SED ? STU ? 
SMON ? CHLD YAD ? AH"
LifeStream Behavioral Center Eustis Outpatient/WIN,201 East Magnolia Avenue,Eustis,Florida 32726,32726,"? MH SUMH ? OP ? OMH ? CBT CFT DBT GT IDD IPT PTM TT ? PVTN ? CLF CMHG MC MD MI 
PI SF SMHA ? SS ? CJ CO TRMA PTSD SMI ? CM COOT DEC IPC ? STU ? SMON ? ADLT CHLD 
SNR YAD ? AH"
Florida Psychological Associates LLC,1903 Island Walkway,Fernandina Beach,Florida 32034,32034,"? MH SUMH ? OP TELE ? CMHC ? BMT CBT CFT DBT GT IDD IPT PTM TT ? CIT ? PVTP ? CLF 
CMHG CSBG ITU MC MD MI OSF PI SCJJ SEF SF SI SMHA SWFS VAF ? PA ? SE VET ADM MF 
CJ SED ? ACT CDM COOT DEC ES FPSY IMR SPS VRS ? SMPD ? ADLT CHLD SNR YAD ? AH"
Starting Point Behavioral Healthcare Our Place,2201 Sadler Road,Fernandina Beach,Florida 32034,32034,"? MH ? OP PHDT ? CMHC ? AT CBT GT IDD ? PVTN ? CLF CMHG CSBG MC MD MI PI SCJJ SF 
SI SMHA SWFS ? PA SS ? SE CJ CO SMI ? CM COOT DEC ES ICM IMR PRS PEER ? STU TCC 
? SMPD ? ADLT SNR YAD ? AH"
Academy For Adolescent Wellness,4343 South State Road 7,Fort Lauderdale,Florida 33314,33314,"? MH SUMH ? OP PHDT ? OMH ? AT BMT CBT CFT DBT GT IDD IPT TT ? CIT ? PVTP ? MC MI 
PI SF ? CO TRMA PTSD SED ? CM COOT ES FPSY ICM IPC PRS ? SMON ? CHLD ? SP"
Archways Behav Healthcare Center ATAP House,2617 NW 9th Lane,Fort Lauderdale,Florida 33311,33311,? MH ? RES ? RTCA ? AT ? PVTN ? CLF OSF PI SF ? PA SS ? SMI ? SH ? SMPD ? ADLT YAD
Archways Behav Healthcare Center Avon Manor Group Home,1142 NE 5th Avenue,Fort Lauderdale,Florida 33304,33304,? MH ? RES ? RTCA ? AT ? PVTN ? CLF OSF PI SF ? PA SS ? SMI ? PRS ? SMPD ? ADLT YAD
Archways Behav Healthcare Center Bennett Apartments,1133 NE 5th Terrace,Fort Lauderdale,Florida 33304,33304,? MH ? RES ? RTCA ? AT ? PVTN ? CLF OSF PI SF ? PA SS ? SMI ? PRS ? SMPD ? ADLT YAD
Archways Behav Healthcare Center Main Facility,919 NE 13th Street,Fort Lauderdale,Florida 33304,33304,"? MH SUMH ? OP ? CMHC ? GT IDD IPT PTM ? PVTN ? CLF MC MD OSF PI SF ? PA SS ? CJ 
CO SMI ? CM COOT PRS SEMP SH ? STU ? SMPD ? ADLT YAD ? SP"
Archways Behav Healthcare Center Sunshine Apartments,1720 NE 11th Street,Fort Lauderdale,Florida 33304,33304,? MH ? RES ? RTCA ? AT ? PVTN ? CLF OSF PI SF ? PA SS ? SMI ? PRS ? SMPD ? ADLT YAD
Broward Health Imperial Point Behavioral Health,6401 North Federal Highway,Fort Lauderdale,Florida 33308,33308,"? MH SUMH ? HI ? PSY ? AT CBT CFT GT IDD IPT PTM TT ? WI ? LMG ? MC MD PI SF SI ? SE 
CO SMI ? SPS ? NRT NSC STU TCC ? SMON ? ADLT SNR YAD ? AH"
Broward Health Medical Center Behavioral Health Service,1600 South Andrews Avenue,Fort Lauderdale,Florida 33316,33316,"? MH SUMH ? HI ? PSY ? AT CBT CFT DBT GT IDD IPT PTM TT ? CIT WI ? LMG ? CMHG MC 
MD MI PI SF SI SMHA ? SMI ? CM IMR SPS PEER ? NRT NSC STU TCC ? SMON ? ADLT SNR 
YAD ? AH"
CFB Solutions Inc,"3810 Inverrary Boulevard, Suite 404",Fort Lauderdale,Florida 33319,33319,"? MH SUMH ? OP TELE ? CMHC ? AT BMT CBT CFT DBT GT IDD IPT ? PVTP ? PI SF ? SS ? 
TAY SE GL VET ADM MF CO TRMA PED PTSD SED SMI ? CM DEC ES FPSY ICM PRS SPS 
PEER ? SMON ? ADLT CHLD SNR YAD"
Chrysalis Health,3800 West Broward Boulevard Suite 100,Fort Lauderdale,Florida 33312,33312,"? MH SUMH ? OP TELE ? CMHC ? CBT CFT IDD IPT PTM TT ? PVTP ? MD PI SCJJ SF ? SS ? 
TAY SE CJ CO TRMA PTSD SED SMI ? CM COOT FPSY ICM ? SMPD ? ADLT CHLD SNR YAD ? 
AH ? SP F19"
Chrysalis Health,1061 West Oakland Park Boulevard,Fort Lauderdale,Florida 33311,33311,"? MH SUMH ? OP PHDT TELE ? PH ? CBT CFT GT IDD IPT PTM TT ? PVTP ? CLF MD PI SF ? 
SS ? TAY SE CJ CO TRMA PTSD SMI ? CM COOT FPSY ICM PRS ? TCC ? SMPD ? ADLT SNR 
YAD ? AH ? SP"
CMET,1527 NE 4th Avenue,Fort Lauderdale,Florida 33304,33304,"? MH SUMH ? OP ? OMH ? BMT CBT CFT DBT GT IDD IPT PTM TT ? CIT ? PVTP ? CLF CMHG 
CSBG MD OSF PI SCJJ SEF SF SI SMHA SWFS VAF ? PA SS ? SE CO TRMA PTSD SED SMI ? 
CM COOT FPSY PRS SPS ? SMPD ? ADLT CHLD SNR YAD ? AH ? SP F19 F28 F88"
Compass Health Systems Oakland Park Clinic,7481 West Oakland Park Boulevard Suite 100,Fort Lauderdale,Florida 33319,33319,"? MH SUMH ? OP ? OMH ? BMT CBT CFT DBT GT IDD IPT PTM TT ? WI ? PVTP ? MC MD MI 
PI SCJJ SF SI SWFS ? SS ? CJ ? CDM CM COOT DEC ES FPSY IMR IPC SPS ? NSC STU TCC 
? SMPD ? ADLT CHLD SNR YAD ? AH ? SP F35 F36 F91"
Gulf Coast Jewish Fam/Comm Servs,"5400 South University Drive, Suite 508",Fort Lauderdale,Florida 33328,33328,"? MH SUMH ? OP ? OMH ? BMT CBT CFT IPT TT ? CIT ? PVTN ? MD OSF PI SF SMHA ? PA ? 
SE GL CO TRMA PTSD ? STU ? SMPD ? ADLT SNR ? AH"
Gulf Coast Jewish Fam/Comm Servs Adult Resid Trt and Stabilization,201 NE 40th Court,Fort Lauderdale,Florida 33334,33334,"? MH ? RES ? RTCA ? AT CBT GT IDD IPT PTM ? PVTN ? MD OSF ? CO SMI ? PRS ? SMPD ? 
ADLT SNR ? AH ? F19"
Henderson Behavioral Health Community Support Services,4700 North State Road 7 Building A,Fort Lauderdale,Florida 33319,33319,"? MH SUMH ? OP ? CMHC ? PTM ? PVTN ? MC MD MI OSF PI SF ? PA SS ? CM ? SMON ? 
ADLT SNR YAD ? AH ? SP F19"
Henderson Behavioral Health CRC/Crisis Walk In Center,4720 North State Road 7 Building B,Fort Lauderdale,Florida 33319,33319,"? MH SUMH ? OP ? CMHC ? PTM ? CIT WI ? PVTN ? CLF MC MD MI PI SF SMHA ? PA SS ? 
CM SPS ? SMON ? ADLT SNR YAD ? AH ? SP F19"
Henderson Behavioral Health FACT Program,4720 North State Road 7 Building B,Fort Lauderdale,Florida 33319,33319,"? MH SUMH ? OP ? CMHC ? PTM ? CIT ? PVTN ? CLF MC 
MD PI SF SMHA ? PA SS ? ACT CM ICM SPS ? SMON ? ADLT SNR YAD ? AH ? SP F19"
Henderson Behavioral Health Henderson CSU,2677 NW 19th Street,Fort Lauderdale,Florida 33311,33311,"? MH SUMH ? HI ? PSY ? PTM ? PVTN ? CLF SF SMHA ? PA SS ? SMON ? ADLT SNR YAD ? 
AH ? SP F19"
Henderson Behavioral Health Rainbow,5800 NW 27th Court,Fort Lauderdale,Florida 33313,33313,"? MH ? RES ? RTCA ? PTM ? PVTN ? MD PI SF SMHA ? PA SS ? CM HS ? SMPD ? ADLT SNR 
YAD ? SP F19"
Henderson Behavioral Health,4700 North State Road 7,Fort Lauderdale,Florida 33319,33319,"? MH SUMH ? OP ? CMHC ? IPT PTM ? PVTN ? CLF MC MD MI OSF PI ? PA SS ? SMI ? CM ? 
SMON ? ADLT SNR YAD ? AH ? SP F19"
Henderson Behavioral Health Central Branch,330 SW 27th Avenue,Fort Lauderdale,Florida 33312,33312,"? MH SUMH ? OP ? CMHC ? GT IPT PTM ? CIT ? PVTN ? CLF MC MD MI OSF PI SF SI SMHA ? 
PA SS ? CM IPC PRS ? SMON ? ADLT SNR YAD ? SP F19"
Henderson Behavioral Health New Vistas Adults,2900 West Prospect Road,Fort Lauderdale,Florida 33309,33309,"? MH SUMH ? OP ? CMHC ? CFT GT IDD IPT PTM ? CIT ? PVTN ? CLF MC MD MI PI SF SMHA 
? PA SS ? SMI ? CM IPC PRS SEMP ? SMON ? ADLT SNR YAD ? SP F19"
Henderson Behavioral Health New Vistas Youth and Family,2900 West Prospect Road,Fort Lauderdale,Florida 33309,33309,"? MH SUMH ? OP ? CMHC ? CBT CFT GT IDD IPT PTM ? CIT ? PVTN ? CLF MC MD MI OSF PI 
SF SMHA SWFS ? PA SS ? CM ? SMON ? CHLD YAD ? SP F19"
Henderson Behavioral Health Parkside House,5700 NW 27th Court Building A,Fort Lauderdale,Florida 33313,33313,"? MH ? RES ? RTCA ? PTM ? PVTN ? CLF MD PI SF SMHA ? 
PA SS ? CM HS ? SMPD ? ADLT SNR YAD ? SP F19"
Henderson Behavioral Health West Broward Branch,3501 South University Drive Suite 6,Fort Lauderdale,Florida 33328,33328,"? MH SUMH ? OP ? CMHC ? IPT PTM ? PVTN ? CLF MC MD MI PI SF SMHA ? PA SS ? CM 
PRS ? SMON ? ADLT SNR YAD ? SP F19"
Jewish Adoption and Foster Options,4200 North University Drive,Fort Lauderdale,Florida 33351,33351,"? MH ? OP RES ? MSNH ? BMT CBT CFT DBT GT IPT PTM TT ? PVTN ? FQHC ? CLF CSBG 
MD OSF PI SF SI SMHA SWFS ? TAY SE GL MF CJ HV TRMA PTSD SED SMI ? COOT FPSY ? 
SMON ? ADLT CHLD SNR YAD ? AH ? SP"
North Shore Med Center FMC Campus Behavioral Health,5000 West Oakland Park Boulevard,Fort Lauderdale,Florida 33313,33313,"? MH SUMH ? HI RES ? PSY ? AT BMT CBT CFT ECT GT IDD IPT PTM ? WI ? PVTP ? CLF 
CMHG CSBG ITU MC MD MI OSF PI SCJJ SEF SF SI SMHA SWFS VAF ? CDM CM COOT DEC 
ES FPSY HS ICM IMR SPS PEER ? NRT NSC STU TCC ? SMON ? ADLT SNR ? AH ? SP"
Smith Mental Health Associates Smith Community Mental Health,601 South State Road 7,Fort Lauderdale,Florida 33317,33317,"? MH SUMH ? OP ? OMH ? BMT CBT CFT GT IDD IPT PTM TT ? CIT ? PVTP ? CLF MD OSF PI 
SF SI SMHA SWFS ? PA SS ? TAY CO TRMA PTSD SED SMI ? ACT CM ES FPSY IMR PRS SPS 
PEER ? STU ? SMON ? ADLT CHLD SNR YAD ? AH ? SP F19 F28 F70"
University Pavilion at University Hospital and Medical Center,7425 North University Drive,Fort Lauderdale,Florida 33321,33321,"? MH SUMH ? HI PHDT ? PSY ? AT CBT CFT ECT GT IDD IPT PTM ? WI ? PVTP ? MC MD MI PI 
SF SI SWFS ? SE GL VET ADM MF CO HV TRMA ALZ PTSD SED SMI ? CDM CM DEC FPSY 
PRS SPS ? NRT NSC STU TCC ? SMON ? ADLT CHLD SNR YAD ? AH"
Lee Health Behavioral Health Center,"12550 New Brittany Boulevard, Suite 100",Fort Myers,Florida 33907,33907,"? MH ? OP ? OMH ? CBT DBT GT IPT PTM TT ? LMG ? MC PI SF ? SS ? PTSD ? FPSY IMR 
SPS ? STU TCC ? SMON ? ADLT SNR YAD ? AH ? SP"
Park Royal Hospital,9241 Park Royal Drive,Fort Myers,Florida 33908,33908,"? MH SUMH ? HI PHDT ? PSY ? AT BMT CBT ECT GT IDD PTM ? WI ? PVTP ? MC MD MI PI SF 
VAF ? SE CO SMI ? NRT NSC STU TCC ? SMPD ? ADLT SNR YAD ? AH ? SP"
SalusCare Inc,10140 Deer Run Farms Road,Fort Myers,Florida 33966,33966,"? MH ? HI ? PSY ? PTM ? CIT WI ? PVTN ? CLF PI SF SMHA SWFS ? SS ? CO SMI ? SMON ? 
ADLT CHLD SNR YAD ? AH ? SP"
SalusCare Inc Ortiz Campus,2789 Ortiz Avenue,Fort Myers,Florida 33905,33905,"? MH ? OP TELE ? CMHC ? BMT CBT CFT GT IDD IPT PTM TT ? CIT WI ? PVTN ? CLF MC MD 
MI OSF PI SCJJ SF SI SMHA SWFS ? PA SS ? SE CJ CO TRMA SED SMI ? CDM CM COOT ES 
FPSY HS PRS SPS PEER ? NRT NSC STU TCC ? SMON ? ADLT CHLD SNR YAD ? AH ? SP"
Lawnwood Pavilion Behav Hlth Servs,1860 North Lawnwood Circle,Fort Pierce,Florida 34950,34950,"? MH SUMH ? HI PHDT ? PSY ? AT CBT CFT DBT GT IDD IPT PTM TT ? WI ? PVTP ? ITU MC 
MD MI PI SF VAF ? CO SMI ? DEC FPSY PRS SPS ? NRT NSC STU TCC ? SMON ? ADLT SNR 
YAD ? AH"
New Horizons of the Treasure Coast Inc Fort Pierce Outpatient,709 South 5th Street,Fort Pierce,Florida 34950,34950,"? MH SUMH ? OP ? CMHC ? AT BMT CBT CFT DBT GT IDD IPT PTM TT ? CIT WI ? PVTN ? CLF 
CMHG MC MD MI OSF PI SF SI SMHA ? PA ? CO SMI ? CM COOT DEC FPSY HS ICM IPC PRS 
SH SPS PEER ? NRT NSC STU TCC ? SMON ? ADLT SNR YAD ? AH ? SP F19"
Suncoast Mental Health Center,2814 South U.S. Highway 1 Suite D-4,Fort Pierce,Florida 34982,34982,"? MH SUMH ? OP ? CMHC ? AT BMT CBT CFT DBT GT IPT PTM TT ? PVTN ? MD PI SEF SF SI 
SWFS ? TAY SE CO TRMA PTSD SED SMI ? CM COOT FPSY SPS PEER ? STU ? SMPD ? ADLT 
CHLD SNR YAD ? AH ? SP F19"
Youth and Family Behavioral Health Center Inc,"2011 South 25th Street, Suite 108",Fort Pierce,Florida 34947,34947,"? MH SUMH ? OP TELE ? OMH ? AT BMT CBT CFT DBT ECT GT IDD IPT PTM TT ? CIT WI ? 
PVTP ? MC MD PI SEF SF SI SMHA SWFS ? PA SS ? SE GL VET ADM MF CJ CO HV TRMA ALZ 
PED PTSD SMI ? ACT CM COOT ES FPSY ICM PRS SEMP TPC VRS ? SMPD ? ADLT CHLD 
SNR YAD ? AH ? SP F19 F28"
Bridgeway Center Inc,137 Hospital Drive NE,Fort Walton Beach,Florida 32548,32548,"? MH SUMH ? OP TELE ? CMHC ? BMT CBT CFT DBT GT IDD IPT PTM TT ? CIT WI ? PVTN ? 
CMHG CSBG MC MD MI PI SCJJ SF SI SMHA SWFS VAF ? PA SS ? CJ CO HV SMI ? CDM CM 
COOT FPSY ICM IMR PRS SPS ? STU TCC ? SMPD ? ADLT CHLD SNR YAD ? AH ? SP"
Bridgeway Center Inc Wellness Center,333 Lewis Street,Fort Walton Beach,Florida 32547,32547,"? MH SUMH ? OP ? CMHC ? AT GT IDD PTM ? PVTN ? CMHG CSBG MC MD MI PI SF SI SMHA 
? PA SS ? CO SMI ? CDM IMR PRS SH SPS ? STU ? SMPD ? ADLT SNR YAD ? AH ? SP"
Okaloosa Outpatient Center,2004 Lewis Turner Boulevard Suite B,Fort Walton Beach,Florida 32547,32547,"? MH ? OP PHDT TELE ? PH ? BMT CBT DBT GT IDD PTM TT ? PVTP ? MD MI PI SF VAF ? 
VET ADM MF CO TRMA PTSD ? SMPD ? ADLT CHLD SNR YAD"
Malcolm Randall VAMC Mental Health Service Line (116A),1601 SW Archer Road,Gainesville,Florida 32608,32608,"? MH SUMH ? HI OP PHDT RES TELE ? AT BMT CBT CFT DBT ECT GT IDD IPT PTM TT ? CIT 
WI ? VAMC ? CMHG MC MD MI PI SF SI VAF ? SE VET CO TRMA TBI ALZ PTSD SMI ? CDM CM 
COOT DEC ES FPSY HS ICM IPC PRS SEMP SH SPS VRS PEER ? NRT NSC STU TCC ? SMPD 
? ADLT SNR YAD ? VO ? AH"
Mental Health Resource Center (MHRC) FACT/Gainesville,"825 NW 23rd Avenue Building 1, Suite 10",Gainesville,Florida 32609,32609,"? MH SUMH ? OP ? OMH ? CBT IDD PTM ? WI ? PVTN ? CMHG SMHA ? SMI ? ACT IMR SH ? 
SMPD ? ADLT SNR YAD ? AH"
North Florida Regional Medical Center,6500 West Newberry Road,Gainesville,Florida 32605,32605,"? MH ? HI OP PHDT ? PSY ? AT CBT ECT GT IDD IPT PTM TT ? PVTP ? MC MD MI PI SI ? SPS 
? NRT NSC STU TCC ? SMON ? ADLT SNR YAD ? AH ? SP"
UF Health Shands Psychiatric Hospital,4101 NW 89th Boulevard,Gainesville,Florida 32606,32606,"? MH SUMH ? HI ? PSY ? AT CBT CFT ECT GT IDD IPT PTM TT ? CIT ? PVTN ? MC MD PI SF ? 
SE CO TRMA PTSD SED SMI ? CM ? NRT STU TCC ? SMON ? ADLT CHLD SNR YAD ? AH"
Citrus Health Network Maternal and Child Health Center,551 West 51 Place,Hialeah,Florida 33012,33012,"? MH SUMH ? OP ? CMHC ? BMT CBT IDD IPT PTM TT ? PVTN ? FQHC ? CLF MC MD OSF PI 
SCJJ SF SMHA SWFS ? TAY CO TRMA SED ? CDM IMR IPC SPS TPC ? STU ? CHLD YAD ? AH 
? SP F19"
Southern Winds Hospital,4225 West 20th Avenue,Hialeah,Florida 33012,33012,"? MH SUMH ? HI PHDT ? PSY ? AT BMT CBT CFT GT IDD IPT PTM TT ? CIT WI ? PVTP ? MC 
MD MI PI SF SI SMHA SWFS VAF ? TAY SE CJ CO TRMA ALZ PED PTSD SMI ? CM ES FPSY 
ICM IPC PRS SPS ? NRT NSC STU TCC ? SMPD ? ADLT SNR YAD ? AH ? SP F19"
Trinity CMHC Inc,15325 NW 60th Avenue Suite 105,Hialeah,Florida 33014,33014,"? MH ? OP TELE ? CMHC ? BMT CBT CFT DBT GT IDD IPT PTM TT ? PVTP ? CLF MC MD PI 
SF SI SMHA SWFS ? SS ? TAY SE GL VET ADM MF CJ CO HV TRMA PED PTSD SED SMI ? 
COOT FPSY PRS SPS ? TCC ? SMPD ? ADLT CHLD SNR YAD ? AH ? SP F19 F42"
Northwest Behavioral Health Services,15891 County Road 108,Hilliard,Florida 32046,32046,"? MH ? OP PHDT ? CMHC ? AT BMT CBT GT IPT TT ? PVTN ? MC MD SMHA ? TRMA SMI ? CM 
ES FPSY ICM PRS PEER ? SMPD ? ADLT SNR YAD"
Starting Point Behavioral Healthcare Hilliard/Our Place II,371015 Eastwood Road,Hilliard,Florida 32046,32046,"? MH SUMH ? OP PHDT ? CMHC ? AT BMT CBT CFT DBT GT IDD IPT PTM TT ? PVTN ? CLF 
CMHG CSBG MC MD MI OSF PI SF SI SMHA ? PA SS ? SE VET CJ CO TRMA TBI PTSD SMI ? 
CM COOT DEC FPSY ICM PRS SPS PEER ? NRT NSC STU TCC ? SMPD ? ADLT SNR YAD ? 
AH"
Gulf Coast Jewish Fam/Comm Servs Darlington RTF,3142 Darlington Road,Holiday,Florida 34691,34691,"? MH SUMH ? RES ? RTCA ? AT BMT CBT DBT GT IDD IPT PTM TT ? PVTN ? MC MD OSF PI 
SF ? PA SS ? SE CO SMI ? CM IPC PRS SPS ? STU ? SMPD ? ADLT SNR YAD ? AH"
Springbrook Partial Hospitalization Program,1158 Alternate 19,Holiday,Florida 34691,34691,"? MH SUMH ? PHDT ? PH ? CBT CFT DBT GT IDD IPT PTM TT ? PVTP ? MC MD PI SF SI ? CO 
SMI ? SPS ? STU ? SMPD ? ADLT SNR YAD"
Compass Health Systems Pembroke Pines Clinic,1601 North Palm Avenue Suite 211,Hollywood,Florida 33026,33026,"? MH SUMH ? OP ? OMH ? BMT CBT CFT DBT GT IDD IPT PTM TT ? WI ? PVTP ? MC MD MI 
PI SCJJ SF SI SWFS ? SS ? CJ ? CDM CM COOT DEC ES FPSY IMR SPS ? NSC STU TCC ? 
SMPD ? ADLT CHLD SNR YAD ? AH ? SP"
Enrichment Support Services LLC,"701 Promenade Drive, Suite 204",Hollywood,Florida 33026,33026,"? MH SUMH ? OP TELE ? OMH ? BMT CBT CFT DBT GT IPT TT ? PVTP ? CLF CMHG MD MI PI 
SCJJ SF SWFS VAF ? SS ? COOT FPSY SPS ? SMON ? ADLT CHLD SNR YAD ? SP F19 F28"
Florida Palms Academy Inc,5925 McKinley Street,Hollywood,Florida 33021,33021,"? MH SUMH ? RES ? RTCC ? AT BMT CBT CFT GT IPT PTM TT ? PVTP ? CLF MD SF SWFS ? 
TRMA PTSD SED ? ES FPSY ? SMON ? CHLD ? SP F19 F28"
Henderson Behavioral Health South Branch,1957 Jackson Street,Hollywood,Florida 33020,33020,"? MH SUMH ? OP ? CMHC ? GT IPT PTM ? CIT ? PVTN ? CLF MC MD MI OSF PI SF SMHA ? 
PA SS ? CM IPC PRS SPS ? SMON ? ADLT SNR YAD ? AH ? SP F19"
Infinite Behavioral Health Inc,"2421 Hollywood Boulevard, Suites 1 and 2",Hollywood,Florida 33020,33020,"? MH SUMH ? OP TELE ? OMH ? BMT CBT CFT GT IDD IPT PTM TT ? CIT ? PVTP ? MC MD MI 
OSF PI SF SI VAF ? SE GL VET ADM MF CO HV TRMA TBI PED PTSD SMI ? CDM CM COOT 
FPSY ? SMPD ? ADLT SNR YAD ? SP"
Memorial Regional Hospital Behavioral Health,3501 Johnson Street,Hollywood,Florida 33021,33021,"? MH SUMH ? HI ? PSY ? AT BMT CBT CFT GT IDD IPT PTM TT ? WI ? LMG ? CLF CMHG MC 
MD PI SCJJ SF SI SMHA SWFS ? PA SS ? SE CO SED SMI ? CM DEC FPSY IPC SPS PEER ? 
NRT NSC STU TCC ? SMON ? ADLT CHLD SNR YAD ? AH ? SP F19 F28 F42 F70"
Miami VA Healthcare System Hollywood CBOC,"3702 Washington Street, Suite 201",Hollywood,Florida 33021,33021,"? MH SUMH ? OP TELE ? CBT IDD IPT PTM TT ? CIT WI ? VAMC ? MI PI ? VET ? CDM CM DEC 
FPSY IPC SPS ? NRT NSC STU TCC ? SMPD ? ADLT SNR YAD ? VO ? AH ? SP"
Miami VA Healthcare System Pembroke Pines/Hollywood CBOC,"7369 Sheridan Street, Suite 102",Hollywood,Florida 33024,33024,"? MH SUMH ? OP TELE ? CBT GT IDD IPT PTM TT ? CIT WI ? VAMC ? MI PI ? VET ? CDM CM 
DEC FPSY IPC SPS ? NRT NSC STU TCC ? SMPD ? ADLT SNR YAD ? VO ? AH ? SP"
Milestones in Recovery Inc Milestones Eating Disorders Program,"2525 Embassy Drive, Suite 10",Hollywood,Florida 33026,33026,"? MH SUMH ? OP PHDT RES TELE ? MSNH ? AT BMT CBT CFT DBT GT IDD IPT PTM TT ? 
PVTP ? PI SF ? PED ? CM DEC ES FPSY HS IMR PRS SH ? SMPD ? ADLT SNR YAD"
Our Children Our Future Inc Caring,450 North Park Road Suite 600,Hollywood,Florida 33021,33021,"? MH SUMH ? OP ? CMHC ? BMT CBT CFT GT IPT PTM TT ? PVTN ? MD PI SF SI SMHA ? PA 
SS ? TRMA PTSD SED ? FPSY SPS ? SMON ? CHLD YAD ? AH ? SP F19 F28"
Reflections Wellness Center LLC,6848 Stirling Road,Hollywood,Florida 33024,33024,"? MH SUMH ? OP PHDT ? CMHC ? AT BMT CBT CFT DBT GT IDD IPT PTM TT ? PVTP ? MC MD 
PI SF SI SMHA SWFS ? TAY CO SMI ? COOT FPSY PRS SPS VRS ? SMPD ? ADLT CHLD SNR 
YAD ? SP F70"
Comm Health of South Florida Inc Martin Luther King Jr Clinica,810 West Mowry Drive,Homestead,Florida 33030,33030,"? MH SUMH ? OP PHDT ? OMH ? AT CBT CFT GT IDD IPT PTM TT ? CIT ? PVTN ? FQHC ? 
CLF CMHG CSBG ITU MC MD MI OSF PI SCJJ SEF SF SI SMHA SWFS ? PA SS ? CJ CO SMI ? 
CDM CM COOT IPC ? STU ? SMON ? ADLT CHLD SNR YAD ? AH ? SP"
Homestead Behavioral Clinic,654 NE 9th Place,Homestead,Florida 33030,33030,"? MH SUMH ? OP PHDT ? CMHC ? AT BMT CBT CFT GT IDD IPT PTM ? CIT WI ? PVTP ? MC 
MD PI SF ? TAY SE GL VET ADM MF CO HV TRMA ALZ PTSD SED SMI ? CDM CM COOT ES 
FPSY HS ICM LAD PRS SEMP TPC ? SMPD ? ADLT CHLD SNR YAD ? SP F19"
Homestead Office,2008 NE 8th Street,Homestead,Florida 33033,33033,"? MH SUMH ? OP ? OMH ? CBT CFT IDD IPT TT ? PVTN ? CLF CMHG CSBG MD OSF SI SMHA 
? PA ? TRMA PTSD ? CM COOT FPSY LAD ? SMPD ? CHLD ? AH ? SP"
Kristi House Inc,13955 SW 264th Street,Homestead,Florida 33032,33032,"? MH SUMH ? OP ? OMH ? CBT CFT IDD IPT TT ? PVTN ? CLF CMHG CSBG MD OSF SI SMHA 
SWFS ? PA ? TRMA PTSD ? CM COOT FPSY LAD ? SMPD ? CHLD ? AH ? SP"
Miami VA Healthcare System Homestead CBOC,950 North Krome Avenue Suite 401,Homestead,Florida 33030,33030,"? MH SUMH ? OP TELE ? CBT CFT GT IDD IPT PTM TT ? CIT WI ? VAMC ? MI PI ? VET ? CDM 
CM DEC FPSY IPC SPS ? NRT NSC STU TCC ? SMPD ? ADLT SNR YAD ? VO ? AH ? SP"
David Lawrence Center Immokalee Satellite Services,425 North 1st Street,Immokalee,Florida 34142,34142,"? MH SUMH ? OP TELE ? OMH ? BMT CBT CFT GT IDD IPT PTM TT ? CIT ? PVTN ? FQHC ? 
CLF CMHG CSBG ITU MC MD MI OSF PI SCJJ SEF SF SI SMHA SWFS ? SS ? SE MF CO HV 
TRMA PED PTSD SMI ? CDM CM ES FPSY ICM IMR SPS PEER ? STU ? SMON ? ADLT CHLD 
SNR YAD ? AH ? SP F19"
ACE Agency for Comm Empowerment,"5730 Bowden Road, Suite 206",Jacksonville,Florida 32216,32216,"? MH ? OP ? CMHC ? AT BMT CBT CFT GT IDD IPT PTM TT ? PVTN ? MC MD MI PI SF ? TAY 
SE VET ADM MF CJ CO HV TRMA TBI PED PTSD SMI ? CDM CM COOT DEC ES FPSY PRS 
SPS ? NSC ? SMPD ? ADLT SNR YAD"
Cathedral Foundation of Jacksonville Senior In Home Services,"4250 Lakeside Drive, Suite 300",Jacksonville,Florida 32210,32210,"? MH SUMH ? OP ? OMH ? AT BMT CBT CFT DBT GT IDD IPT ? PVTN ? CLF OSF SMHA SWFS 
? PA SS ? SE GL VET CO ALZ ? CM ES FPSY PEER ? STU TCC ? SMPD ? ADLT SNR ? SP"
Child Guidance Center,4595 Lexington Avenue,Jacksonville,Florida 32210,32210,"? MH ? OP ? OMH ? BMT CBT CFT DBT GT IPT PTM TT ? CIT ? PVTN ? CLF CMHG MD MI PI 
SCJJ SF SI SMHA SWFS ? SS ? TRMA SED ? CM FPSY SPS ? SMON ? ADLT CHLD SNR YAD ? 
AH ? SP"
Child Guidance Center,1110 Edgewood Avenue West,Jacksonville,Florida 32208,32208,"? MH ? OP ? OMH ? BMT CBT CFT DBT GT IPT PTM TT ? CIT ? PVTN ? CLF CMHG MD MI PI 
SCJJ SF SI SMHA SWFS ? SS ? TRMA SED ? CM FPSY SPS ? SMON ? ADLT CHLD SNR YAD ? 
AH"
Child Guidance Center,5776 Saint Augustine Road,Jacksonville,Florida 32207,32207,"? MH ? OP ? OMH ? BMT CBT CFT DBT GT IPT PTM TT ? CIT ? PVTN ? CLF CMHG MD MI PI 
SCJJ SF SI SMHA SWFS ? SS ? TRMA SED ? CM FPSY SPS ? SMON ? ADLT CHLD SNR YAD ? 
AH ? SP"
Childrens Home Society of Florida Buckner Division,3027 San Diego Road,Jacksonville,Florida 32207,32207,"? MH ? OP TELE ? OMH ? BMT CBT CFT DBT GT IPT PTM TT ? PVTN ? CLF CMHG CSBG MD 
MI OSF PI SCJJ SEF SF SMHA SWFS ? TAY SE GL VET ADM MF CJ CO HV TRMA PED PTSD 
SED SMI ? CM COOT SPS TPC ? SMON ? ADLT CHLD SNR YAD ? AH ? SP"
Chrysalis Health Outpatient Office,2121 Corporate Square Boulevard Suite 124,Jacksonville,Florida 32216,32216,"? MH SUMH ? OP TELE ? OMH ? CBT CFT IDD IPT TT ? PVTP ? MD PI SCJJ SF ? SS ? TAY SE 
CJ CO TRMA PTSD SED SMI ? CM COOT FPSY ICM ? SMPD ? ADLT CHLD SNR YAD ? AH"
Community Rehabilitation Center,623 Beechwood Street,Jacksonville,Florida 32206,32206,"? MH SUMH ? OP ? CMHC ? AT BMT CBT CFT GT IDD IPT PTM TT ? PVTN ? CLF CMHG CSBG 
MC MD OSF PI SF ? SS ? TAY SE GL MF CO HV SMI ? ACT CM HS IPC PRS SEMP SH SPS 
TPC VRS PEER ? TCC ? SMPD ? ADLT SNR YAD ? AH"
Daniel Memorial Inc,3725 Belfort Road,Jacksonville,Florida 32216,32216,"? MH SUMH ? OP RES ? MSNH ? AT BMT CBT CFT DBT GT IDD IPT PTM TT ? PVTN ? CLF MD 
SF SMHA SWFS ? PA ? TAY GL CJ CO TRMA PTSD SED SMI ? CM ES FPSY SPS TPC ? STU ? 
SMON ? CHLD YAD ? AH ? SP"
Family Foundations,40 East Adam Street Suite 320,Jacksonville,Florida 32202,32202,"? MH SUMH ? OP ? OMH ? BMT CBT CFT DBT GT IDD IPT TT ? PVTN ? FQHC ? CLF CMHG 
CSBG ITU MD OSF SCJJ SEF SF SMHA SWFS VAF ? PA SS ? TAY SE GL VET ADM MF CJ HV 
TRMA TBI PTSD SED ? CM COOT FPSY ICM SPS ? TCC ? SMPD ? ADLT CHLD SNR YAD ? AH 
? SP"
Florida Counseling and Evalution Servs Southside,"6950 Philips Highway, Suite 11",Jacksonville,Florida 32216,32216,"? MH ? OP ? OMH ? BMT CBT CFT DBT GT IDD IPT TT ? PVTP ? CLF MC MD MI PI SF ? SS ? 
TAY SE GL VET MF CO HV TRMA PTSD ? COOT FPSY PRS SPS VRS ? SMPD ? ADLT CHLD 
SNR YAD ? SP"
Jewish Family and Community Servs,8540 Baycenter Road,Jacksonville,Florida 32256,32256,"? MH SUMH ? OP ? OMH ? BMT CBT CFT DBT GT IPT PTM TT ? PVTN ? CLF MD MI PI SF 
SMHA SWFS ? TAY SED ? CM COOT ES FPSY ? SMPD ? ADLT CHLD SNR YAD ? AH"
Malcolm Randall VAMC VA Outpatient Clinics Jacksonville,6900 Southpoint Drive North,Jacksonville,Florida 32216,32216,"? MH SUMH ? OP TELE ? AT BMT CBT CFT GT IDD IPT PTM TT ? CIT WI ? VAMC ? MC MD MI 
PI SF VAF ? VET CJ CO TBI PTSD ? CDM CM COOT DEC ES FPSY HS ICM IMR IPC PRS SH 
SPS VRS PEER ? NRT NSC STU TCC ? SMPD ? ADLT SNR YAD ? VO ? SP"
Manthers Place Counseling LLC,6108 Arlington Road,Jacksonville,Florida 32211,32211,"? MH SUMH ? OP ? OMH ? BMT CBT CFT DBT GT IDD IPT TT ? PVTP ? FQHC ? CLF CMHG 
CSBG SCJJ SF ? TAY SE GL VET ADM MF CJ CO HV TRMA PTSD ? CM COOT ES FPSY ICM 
LAD ? SMPD ? ADLT SNR YAD ? SP"
Memorial Hospital Jacksonville,3625 University Boulevard South,Jacksonville,Florida 32216,32216,"? MH SUMH ? HI OP PHDT TELE ? PSY ? AT CBT CFT DBT ECT GT IDD PTM TT ? WI ? PVTP ? 
MC MD MI PI SF SI SMHA ? PA ? SE GL VET ADM MF CO HV TRMA ALZ PTSD SMI ? CM SPS ? 
NRT NSC STU TCC ? SMON ? ADLT SNR YAD ? AH"
Mental Health Resource Center (MHRC),"4427 Emerson Street, Building 5",Jacksonville,Florida 32207,32207,? MH ? PHDT ? OMH ? PTM ? PVTN ? MD SF SMHA ? PRS ? SMON ? ADLT SNR YAD ? AH
Mental Health Resource Center (MHRC),"1636 Shadowood Lane, Suite 120",Jacksonville,Florida 32207,32207,"? MH SUMH ? OP ? OMH ? CBT IDD PTM ? WI ? PVTN ? CMHG SMHA ? SMI ? ACT IMR SH ? 
SMPD ? ADLT SNR YAD ? AH"
Mental Health Resource Center (MHRC) North,3333 West 20th Street,Jacksonville,Florida 32254,32254,"? MH SUMH ? HI OP ? CMHC ? CBT DBT IDD IPT PTM TT ? CIT WI ? PVTN ? CLF CMHG MC 
MD MI PI SF SI SMHA VAF ? CM PEER ? SMON ? ADLT CHLD SNR YAD ? AH"
Mental Health Resource Center (MHRC) South,11820 Beach Boulevard,Jacksonville,Florida 32246,32246,"? MH SUMH ? HI OP ? CMHC ? CIT WI ? PVTN ? CLF CMHG MC MD MI PI SF SI SMHA VAF ? 
CM COOT PEER ? SMON ? ADLT SNR YAD ? AH"
National Youth Advocate Program Inc,"921 North Davis Street, Building B, Suite 350",Jacksonville,Florida 32209,32209,"? MH SUMH ? OP ? OMH ? AT BMT CBT CFT DBT GT IDD IPT TT ? PVTN ? SCJJ SWFS ? PA ? 
GL CJ CO TRMA PTSD SED ? CM COOT ES FPSY ICM SPS ? SMON ? CHLD ? AH"
Northwest Behavioral Health Service,2392 Edgewood Avenue North,Jacksonville,Florida 32254,32254,"? MH SUMH ? OP ? OMH ? AT BMT CBT CFT DBT GT IDD IPT PTM TT ? CIT ? PVTN ? CLF 
CMHG CSBG MC MD MI OSF PI SF SMHA SWFS ? PA SS ? TAY SE GL VET ADM MF CJ CO HV 
TRMA ALZ PED PTSD SED SMI ? ACT CDM CM COOT DEC ES FPSY HS ICM PRS SEMP SH 
SPS VRS PEER ? STU TCC ? SMPD ? ADLT CHLD SNR YAD ? AH ? SP"
Northwest Behavioral Health Service Children Services,2400 Edgewood Avenue North,Jacksonville,Florida 32254,32254,"? MH SUMH ? OP ? OMH ? BMT CBT CFT GT IDD PTM TT ? CIT ? PVTN ? FQHC ? CLF CMHG 
MC MD OSF SF SI SMHA ? PA SS ? TAY SE GL VET ADM MF CO HV TRMA PED PTSD SED SMI 
? CM ICM PRS SH SPS ? SMPD ? ADLT CHLD SNR YAD ? AH ? SP F4"
Panama Youth Services,7287 Wilder Avenue,Jacksonville,Florida 32208,32208,"? MH SUMH ? OP ? OMH ? BMT CBT CFT GT IDD IPT PTM TT ? CIT ? PVTN ? CLF CSBG MD 
SF SWFS ? CO TRMA PTSD ? CM COOT FPSY SPS ? SMON ? CHLD"
River Point Behavorial Health,6300 Beach Boulevard,Jacksonville,Florida 32216,32216,"? MH SUMH ? HI OP PHDT ? PSY ? AT BMT CBT CFT DBT ECT GT IDD IPT PTM TT ? CIT WI ? 
PVTP ? MC MD MI PI SF VAF ? TAY GL VET ADM MF CJ CO HV TRMA TBI SED SMI ? CDM CM 
COOT FPSY IMR PRS SPS ? NRT NSC STU TCC ? SMPD ? ADLT CHLD SNR YAD ? AH ? SP 
F28"
River Region Human Services Inc,3901 Carmichael Avenue,Jacksonville,Florida 32207,32207,"? MH SUMH ? OP RES ? RTCA ? BMT CBT GT IPT PTM ? CIT ? PVTN ? CLF MD PI SF SI ? PA 
SS ? SPS ? STU ? SMPD ? ADLT SNR YAD"
UF Health Jacksonville,655 West 8th Street,Jacksonville,Florida 32209,32209,"? MH SUMH ? HI OP ? PSY ? AT CFT GT IPT PTM ? WI ? PVTN ? MC MD MI PI SCJJ SF SI 
SMHA SWFS VAF ? CDM CM SPS ? NRT TCC ? SMON ? ADLT SNR YAD ? AH ? SP"
Wekiva Springs Center,3947 Salisbury Road,Jacksonville,Florida 32216,32216,"? MH SUMH ? HI PHDT RES ? PSY ? AT BMT CBT CFT GT IDD IPT PTM TT ? PVTP ? MC MD MI 
PI SF VAF ? VET ADM MF CO TRMA PTSD ? COOT DEC FPSY ? NRT NSC STU TCC ? SMPD ? 
ADLT SNR YAD ? AH"
Meridian Behavioral Healthcare Inc Hamilton County Clinic,406 10th Avenue NW,Jasper,Florida 32052,32052,"? MH SUMH ? OP TELE ? OMH ? AT BMT CBT CFT DBT GT IDD IPT PTM TT ? WI ? PVTN ? 
CLF CMHG CSBG MC MD MI OSF PI SCJJ SEF SF SI SMHA SWFS VAF ? SS ? VET MF CJ CO 
HV ? CM COOT FPSY SPS ? STU TCC ? SMON ? ADLT CHLD SNR YAD ? AH"
Helping People Succeed Inc,1601 NE Braille Place,Jensen Beach,Florida 34957,34957,"? MH SUMH ? OP ? OMH ? AT BMT CBT CFT GT IDD IPT PTM TT ? PVTN ? MC MD PI SEF SF 
SI SMHA SWFS ? PA SS ? TAY GL MF CJ CO TRMA PTSD SED ? CM COOT FPSY PRS SEMP 
VRS ? SMPD ? CHLD YAD ? AH ? SP F19 F28 F67"
Hibiscus Childrens Center,4001 NW Savannah Road,Jensen Beach,Florida 34957,34957,"? MH ? RES TELE ? RTCC ? AT BMT CBT GT PTM TT ? PVTN ? MD OSF SMHA SWFS ? TRMA 
SED ? ES ? SMON ? CHLD ? AH"
Sandy Pines Hospital,11301 SE Tequesta Terrace,Jupiter,Florida 33469,33469,"? MH SUMH ? RES ? RTCC ? AT BMT CBT DBT GT IPT PTM TT ? CIT ? PVTP ? CLF MD MI PI 
SF ? SED ? CM ES ? SMON ? CHLD ? SP"
Guidance Care Center Inc,"99198 Overseas Highway, Suite 5",Key Largo,Florida 33037,33037,"? MH SUMH ? OP TELE ? OMH ? CBT GT IDD IPT PTM TT ? CIT ? PVTN ? CLF CMHG MC MD 
OSF PI SF SMHA SWFS ? SS ? CO HV TRMA PTSD ? COOT ? STU ? SMPD ? ADLT CHLD SNR 
YAD ? AH ? SP"
Miami VA Healthcare System Key Largo CBOC,105662 Overseas Highway,Key Largo,Florida 33037,33037,"? MH SUMH ? OP TELE ? CBT GT IDD IPT PTM TT ? CIT WI ? VAMC ? MI PI ? VET ? CDM CM 
DEC FPSY IPC SPS ? NRT NSC STU TCC ? SMPD ? ADLT SNR YAD ? VO ? AH"
Guidance Care Center Inc Lower Keys,1205 4th Street,Key West,Florida 33040,33040,"? MH SUMH ? OP TELE ? OMH ? CBT GT IDD IPT PTM TT ? CIT WI ? PVTN ? CLF CMHG MC 
MD OSF PI SCJJ SF SI SWFS ? SS ? CO HV TRMA PTSD SED ? CM COOT SPS ? STU TCC ? 
SMPD ? ADLT CHLD SNR YAD ? AH ? SP"
Miami VA Healthcare System Key West CBOC,1300 Douglas Circle Building L-15,Key West,Florida 33040,33040,"? MH ? OP TELE ? CBT GT IDD IPT PTM TT ? CIT WI ? VAMC ? MI PI ? VET ? CDM CM DEC 
FPSY IPC SPS ? NRT NSC STU TCC ? SMPD ? ADLT SNR YAD ? VO ? AH"
All Family Resource Center LLC,"120 Broadway Avenue, Suite 204",Kissimmee,Florida 34741,34741,"? MH SUMH ? OP TELE ? OMH ? BMT CBT CFT GT IDD IPT TT ? PVTP ? MD SCJJ SF SI SMHA 
SWFS ? TAY SE GL VET ADM MF CJ CO HV TRMA PED PTSD SED SMI ? CM COOT DEC ES 
ICM LAD SPS TPC ? SMON ? ADLT CHLD SNR YAD ? SP"
Changing Tree Wellness Center LLC,"111 East Monument Avenue, Suite 332",Kissimmee,Florida 34741,34741,"? MH SUMH ? OP TELE ? CMHC ? CBT CFT IDD IPT TT ? CIT ? PVTP ? FQHC ? CLF MD PI 
SCJJ SF SI SMHA SWFS ? SS ? TAY SE GL VET ADM MF CJ CO HV TRMA TBI ALZ PED PTSD 
SED SMI ? COOT ES FPSY SPS ? SMON ? ADLT CHLD SNR YAD ? SP"
COFS Kissimmee,111 East Monument Avenue Suite 513,Kissimmee,Florida 34741,34741,"? MH ? OP TELE ? OMH ? AT CBT CFT GT IPT TT ? PVTN ? CLF MD OSF PI SCJJ SF SI SMHA 
SWFS ? TAY GL CJ TRMA PTSD SED ? COOT FPSY ? SMON ? ADLT CHLD SNR YAD ? AH ? 
SP F19"
Mental Health Resource Center (MHRC) FACT/Kissimmee,1964 North John Young Parkway,Kissimmee,Florida 34741,34741,"? MH SUMH ? OP ? OMH ? CBT IDD PTM ? WI ? PVTN ? CMHG SMHA ? SMI ? ACT IMR SH ? 
SMPD ? ADLT SNR YAD ? AH"
Orlando Health The Healing Tree,110 West Neptune Road,Kissimmee,Florida 34741,34741,"? MH ? OP ? OMH ? CBT CFT GT IPT TT ? PVTN ? CLF CMHG CSBG MD OSF SF SMHA ? PA ? 
CM FPSY ? SMPD ? ADLT CHLD SNR YAD ? AH ? SP"
Orlando Psychiatric Associates Kissm,102 Park Place Boulevard Suite D-1,Kissimmee,Florida 34741,34741,"? MH ? OP ? CMHC ? CBT CFT GT IPT PTM ? PVTP ? MC MD PI SF SI ? SPS ? SMPD ? ADLT 
CHLD SNR YAD ? SP F36"
Park Place Behavioral Healthcare AKA Osceola Mental Health Inc,206 Park Place Boulevard,Kissimmee,Florida 34741,34741,"? MH SUMH ? HI OP TELE ? CMHC ? CBT CFT DBT GT IDD IPT PTM TT ? CIT WI ? PVTN ? 
CLF CMHG CSBG MC MD MI OSF PI SCJJ SF SI SMHA SWFS ? PA SS ? CO SMI ? CM COOT 
FPSY IMR IPC PRS SPS PEER ? NRT NSC STU TCC ? SMON ? ADLT CHLD SNR YAD ? AH ? 
SP"
TTHI Counseling Center Kissimmee,3501 West Vine Street Suite 319,Kissimmee,Florida 34741,34741,"? MH SUMH ? OP TELE ? MSNH ? CBT CFT DBT GT IDD IPT PTM TT ? PVTN ? CLF CMHG 
CSBG MC MD MI OSF PI SCJJ SF SI SMHA SWFS VAF ? TAY GL VET ADM MF CJ CO HV TRMA 
TBI PTSD SED ? CM COOT FPSY IPC SPS ? TCC ? SMPD ? ADLT CHLD SNR YAD ? SP"
Meridian Behavioral Healthcare Inc Union County Clinic,10 West Main Street,Lake Butler,Florida 32054,32054,"? MH SUMH ? OP TELE ? OMH ? BMT CBT CFT DBT GT IDD IPT PTM TT ? WI ? PVTN ? CLF 
CMHG CSBG MC MD MI OSF PI SCJJ SEF SF SI SMHA SWFS VAF ? SS ? VET MF CJ CO HV ? 
CM COOT FPSY SPS ? STU TCC ? SMON ? ADLT CHLD SNR YAD ? AH"
Lake City VAMC Mental Hygiene (116A),619 South Marion Street,Lake City,Florida 32025,32025,"? MH SUMH ? OP PHDT RES TELE ? AT BMT CBT CFT DBT GT IDD IPT PTM TT ? CIT WI ? 
VAMC ? CSBG MC MD MI PI SF SI VAF ? SE VET CJ CO TRMA ALZ PTSD SMI ? CDM CM DEC 
ICM IMR IPC PRS SEMP SH SPS VRS PEER ? NRT NSC STU TCC ? SMON ? ADLT SNR YAD ? 
VO ? AH"
Meridian Behavioral Healthcare Inc Columbia County Campus,439 SW Michigan Street,Lake City,Florida 32025,32025,"? MH SUMH ? HI OP PHDT RES TELE ? CMHC ? AT BMT CBT CFT DBT GT IDD IPT PTM TT ? 
CIT WI ? PVTN ? CLF CMHG CSBG MC MD MI OSF PI SCJJ SEF SF SI SMHA SWFS VAF ? SS 
? VET MF CJ CO HV TRMA PTSD SED SMI ? CM COOT FPSY PRS SPS PEER ? STU TCC ? 
SMON ? ADLT CHLD SNR YAD ? AH"
Lakeland Regional Health Systems Behavioral Health Sciences,500 South Florida Avenue Suite 210,Lakeland,Florida 33801,33801,"? MH SUMH ? OP ? OMH ? AT BMT CBT CFT DBT GT IDD IPT PTM TT ? PVTN ? MC MI PI SF ? 
SED SMI ? DEC FPSY IMR PRS SPS ? NRT NSC STU TCC ? SMPD ? ADLT CHLD SNR YAD ? 
AH"
Lakeland Regional Health Systems Mental Health Services,1324 Lakeland Hills Boulevard,Lakeland,Florida 33805,33805,"? MH SUMH ? HI ? PSY ? AT BMT CBT CFT DBT ECT GT IDD IPT PTM ? CIT ? PVTN ? MC MD 
MI PI SF SI SMHA VAF ? TAY SE GL VET ADM MF CO HV TRMA ALZ PED PTSD SED SMI ? CM 
IMR SPS ? NRT NSC STU TCC ? SMON ? ADLT CHLD SNR YAD ? AH"
Peace River Center,1835 Gilmore Avenue,Lakeland,Florida 33805,33805,"? MH SUMH ? OP TELE ? OMH ? AT CBT CFT DBT GT IDD IPT PTM TT ? CIT WI ? PVTN ? CLF 
CMHG MC MD MI OSF PI SCJJ SF SI SMHA SWFS ? CO TRMA PTSD ? FPSY IPC SEMP SPS ? 
STU ? SMPD ? ADLT CHLD SNR YAD ? AH ? SP F30"
Peace River Center Gilmore Annex,1825 Gilmore Avenue,Lakeland,Florida 33805,33805,"? MH SUMH ? OP TELE ? OMH ? AT BMT CBT CFT DBT GT IDD IPT PTM TT ? CIT WI ? PVTN ? 
CLF CSBG MC MD MI OSF PI SF SI SMHA ? CO TRMA PTSD SMI ? ACT CDM CM COOT DEC 
ES FPSY HS IPC LAD PRS SH SPS PEER ? NSC STU TCC ? SMPD ? ADLT CHLD SNR YAD ? 
AH"
Peace River Center Personal Development/Group Home 1,722 East Myrtle Street,Lakeland,Florida 33801,33801,"? MH ? RES ? RTCA ? AT PTM ? PVTN ? PI SF SMHA ? CO SMI ? HS SH PEER ? SMPD ? ADLT 
SNR YAD ? AH"
Peace River Center Success House,728 East Bella Vista Street,Lakeland,Florida 33805,33805,"? MH SUMH ? RES ? RTCA ? AT PTM ? PVTN ? PI SF SMHA ? CO SMI ? HS SH ? SMPD ? 
ADLT YAD ? AH"
Tri County Human Services Inc New Beginning Women,1377 East Lake Parker Drive,Lakeland,Florida 33801,33801,"? MH SUMH ? RES ? RTCA ? BMT CBT GT IDD PTM TT ? PVTN ? CLF ITU MI PI SF SI VAF ? 
SE GL VET ADM CJ CO HV TRMA PTSD SMI ? CM COOT DEC ES FPSY HS SEMP VRS ? NRT 
NSC STU TCC ? SMPD ? ADLT SNR YAD ? AH"
Orlando Psychiatric Associates LK Ma,4106 West Lake Mary Boulevard Suite 205,Lake Mary,Florida 32746,32746,"? MH ? OP ? CMHC ? CBT CFT GT IPT PTM ? PVTP ? MC MD PI SF SI ? SPS ? SMPD ? ADLT 
CHLD SNR YAD ? SP F36"
Lake Wales Medical Center Navarro Center for Behavioral Health,410 South 11th Street,Lake Wales,Florida 33853,33853,"? MH SUMH ? HI ? PSY ? AT CBT GT IDD IPT PTM ? WI ? PVTP ? MC MD MI PI SCJJ SF VAF ? 
SE GL VET ADM MF CJ CO HV TRMA ALZ PTSD SMI ? CDM DEC FPSY IPC SPS ? NRT NSC 
STU TCC ? SMON ? ADLT SNR YAD ? AH"
Chrysalis Health,230 South Dixie Highway Suite 102,Lake Worth,Florida 33460,33460,"? MH SUMH ? OP TELE ? OMH ? CBT CFT IDD IPT PTM TT ? PVTP ? MD PI SCJJ SF ? SS ? 
TAY SE CJ CO TRMA PTSD SED SMI ? CM COOT FPSY ICM ? SMPD ? ADLT CHLD SNR YAD ? 
AH ? SP"
Henderson Behavioral Health,"3199 Lake Worth Road, Suite 1",Lake Worth,Florida 33461,33461,"? MH SUMH ? OP ? CMHC ? PTM ? PVTN ? MC MD MI SWFS ? ACT CM FPSY ? SMON ? ADLT 
CHLD SNR YAD ? AH ? SP F19"
JFK Medical Center,5301 South Congress Avenue,Lake Worth,Florida 33462,33462,"? MH SUMH ? HI ? PSY ? AT CBT GT IDD IPT PTM TT ? WI ? PVTP ? MC MD MI PI SF SI ? CM 
SPS PEER ? NRT NSC STU TCC ? SMON ? ADLT SNR YAD ? AH"
Directions for Living Largo Center,8823 115th Avenue,Largo,Florida 33773,33773,"? MH SUMH ? OP ? CMHC ? BMT CBT CFT DBT GT IDD IPT TT ? PVTN ? MC MD MI PI SF SI ? 
PA SS ? TAY CO TRMA PTSD SED SMI ? CM FPSY HS PRS ? SMPD ? ADLT CHLD YAD ? AH ? 
SP"
Personal Enrichment Through MH Servs/Paces Campus,1614 Palm Way,Largo,Florida 33771,33771,"? MH ? OP ? OMH ? AT BMT CBT CFT GT IPT PTM TT ? CIT ? PVTN ? CLF CMHG MD OSF PI 
SF SI SMHA SWFS ? PA SS ? SED SMI ? ACT CM ? SMON ? ADLT CHLD YAD ? AH ? SP"
Leesburg Regional Medical Center Behavioral Health Center,700 North Palmetto Street,Leesburg,Florida 34748,34748,"? MH SUMH ? HI ? PSY ? AT GT IDD IPT PTM TT ? PVTN ? CLF MC MD MI OSF PI SF SI ? SE 
GL VET CO HV TRMA PTSD SMI ? CDM CM FPSY SPS ? NRT STU TCC ? SMON ? ADLT SNR 
YAD ? AH ? SP"
LifeStream Behavioral Center AIMS Program,404 Webster Street,Leesburg,Florida 34748,34748,"? MH SUMH ? OP PHDT RES ? MSNH ? GT PTM ? PVTN ? CMHG MC MD MI PI SF SMHA ? SS 
? CO TRMA SMI ? FPSY IMR PRS SH ? STU TCC ? SMON ? ADLT SNR YAD"
LifeStream Behavioral Center Hope and Recovery Center,2018 Talley Road,Leesburg,Florida 34748,34748,"? MH SUMH ? HI OP RES ? MSNH ? AT CBT GT IDD IPT PTM TT ? PVTN ? CMHG MC MD PI SF 
SMHA ? SS ? SE CO TRMA PTSD SED SMI ? CM ? STU ? SMON ? ADLT CHLD SNR YAD ? AH"
LifeStream Behavioral Center LifeStream Academy Leesburg,2020 Talley Road,Leesburg,Florida 34748,34748,"? MH ? OP ? OMH ? BMT CBT GT IPT PTM TT ? PVTN ? MD ? SS ? TAY TRMA PTSD SED ? 
STU ? SMON ? CHLD YAD ? AH"
Florida Sheriffs Youth Ranches Inc Boys Ranch,2486 Cecil Webb Place,Live Oak,Florida 32064,32064,"? MH ? RES ? RTCC ? AT BMT CBT CFT DBT GT IDD IPT PTM TT ? CIT ? PVTN ? MD MI PI SF 
? CM ES FPSY PRS ? STU TCC ? SMON ? CHLD ? AH"
Meridian Behavioral Healthcare Inc Suwannee County Clinic,920 NW Nobles Ferry Road,Live Oak,Florida 32060,32060,"? MH SUMH ? OP TELE ? OMH ? AT BMT CBT CFT DBT GT IDD IPT PTM TT ? WI ? PVTN ? 
CLF CMHG CSBG MC MD MI OSF PI SCJJ SEF SF SI SMHA SWFS VAF ? SS ? VET MF CJ CO 
HV SMI ? CM COOT FPSY SPS ? STU TCC ? SMON ? ADLT CHLD SNR YAD ? AH"
IMPOWER Outpatient and Telehealth Services,111 West Magnolia Avenue,Longwood,Florida 32750,32750,"? MH SUMH ? OP TELE ? OMH ? CBT CFT DBT GT IDD IPT PTM TT ? PVTN ? CLF CSBG MD 
OSF PI SCJJ SF SI SMHA SWFS ? PA SS ? TAY SE GL CO TRMA PTSD SED SMI ? COOT ? 
NSC STU TCC ? SMON ? ADLT CHLD SNR YAD ? SP F19 F25 F67"
Orlando Health South Seminole Hosp Behav Health,555 West State Road 434,Longwood,Florida 32750,32750,"? MH SUMH ? HI OP TELE ? PSY ? AT GT IDD IPT PTM ? WI ? PVTN ? CLF CMHG CSBG ITU 
MC MD MI OSF PI SCJJ SEF SF SI SMHA SWFS VAF ? TAY SE GL VET ADM MF CO HV TRMA 
ALZ PED PTSD SED SMI ? CM DEC ES SPS ? NRT STU TCC ? SMON ? ADLT CHLD SNR YAD 
? AH ? SP F17 F19 F28 F42 F81 F92"
South Seminole Behavioral Spec,455 West Warren Avenue,Longwood,Florida 32750,32750,"? MH ? OP TELE ? OMH ? BMT CBT CFT DBT IPT ? PVTN ? MC MD PI SF ? SMON ? ADLT 
CHLD SNR YAD ? AH ? SP"
TTHI Counseling Center Longwood,2767 West State Road 434,Longwood,Florida 32779,32779,"? MH SUMH ? OP TELE ? OMH ? BMT CBT CFT GT IDD IPT PTM TT ? PVTN ? FQHC ? CMHG 
CSBG MC MD OSF PI SCJJ SWFS ? CO PTSD SMI ? COOT ES FPSY ? TCC ? SMPD ? ADLT 
CHLD SNR YAD ? SP"
Morton Plant North Bay Recov Ctr Adult unit,21808 State Road 54,Lutz,Florida 33549,33549,"? MH SUMH ? HI ? PSY ? AT BMT CBT CFT DBT GT IDD IPT PTM ? WI ? PVTN ? MC MD MI 
OSF PI SF SI SMHA SWFS ? SMI ? CM DEC FPSY SPS ? NRT STU TCC ? SMON ? ADLT SNR 
YAD ? AH"
Morton Plant North Bay Recov Ctr Pediatric Unit,21808 State Road 54,Lutz,Florida 33549,33549,"? MH SUMH ? HI ? PSY ? AT BMT CBT CFT GT IDD IPT PTM ? WI ? PVTN ? CLF MC MD MI 
OSF PI SF SI SMHA SWFS VAF ? DEC FPSY IMR SPS ? NRT STU ? SMON ? CHLD ? AH"
Meridian Behavioral Healthcare Inc Baker County Clinic,92 West Lowder Street,Macclenny,Florida 32063,32063,"? MH SUMH ? OP TELE ? OMH ? AT BMT CBT CFT DBT GT IDD IPT PTM TT ? WI ? PVTN ? 
CLF CMHG CSBG MC MD MI OSF PI SCJJ SEF SF SI SMHA SWFS VAF ? SS ? VET MF CJ CO 
HV ? CM COOT FPSY SPS ? STU TCC ? SMON ? ADLT CHLD SNR YAD ? AH"
Northeast Florida State Hospital,7487 South State Road 121,Macclenny,Florida 32063,32063,"? MH SUMH ? HI ? PSY ? AT BMT CBT DBT GT IDD IPT PTM TT ? CIT ? SMA ? MC MD OSF PI 
SF SI SMHA SWFS ? PA ? CJ SMI ? CDM CM DEC ES IMR IPC PRS SPS VRS ? NRT STU TCC ? 
SMON ? ADLT SNR YAD ? AH ? SP F19 F92"
Apalachee Center Inc Madison County Clinic,225 Sumatra Road,Madison,Florida 32340,32340,"? MH SUMH ? OP PHDT RES TELE ? MSNH ? CBT CFT GT IDD IPT PTM TT ? CIT WI ? PVTN ? 
MC MD PI SF SI ? SS ? CJ CO SED SMI ? CM COOT IMR PRS SPS PEER ? NSC STU TCC ? 
SMPD ? ADLT CHLD SNR YAD ? AH"
Adapt Behavioral Services,225 South Swoope Avenue Suite 211,Maitland,Florida 32751,32751,"? MH SUMH ? OP TELE ? CMHC ? BMT CBT CFT DBT GT IPT ? PVTP ? MD PI SF SI SMHA 
SWFS ? SED ? COOT FPSY ? SMPD ? ADLT CHLD SNR YAD ? AH ? SP F19 F28 F67"
Center for Discovery Orlando,151 South Hall Lane Suite 175,Maitland,Florida 32751,32751,"? MH SUMH ? OP ? PH ? AT BMT CBT CFT DBT GT IDD IPT PTM TT ? PVTP ? PI SF ? GL CO 
TRMA PED PTSD ? CM DEC FPSY ? SMPD ? ADLT CHLD YAD"
LaAmistad Behavioral Health Services Youth Services,1650 North Park Avenue,Maitland,Florida 32751,32751,"? MH SUMH ? PHDT RES TELE ? RTCC ? AT BMT CBT CFT DBT GT IDD IPT PTM TT ? CIT ? 
PVTP ? MI PI SEF SF ? GL MF CO TRMA PTSD SED ? CM DEC ES FPSY IPC PRS SPS ? SMON 
? CHLD ? AH"
Guidance Care Center Inc,3000 41st Street Ocean,Marathon,Florida 33050,33050,"? MH SUMH ? HI OP RES TELE ? MSNH ? CBT GT IDD IPT PTM TT ? CIT WI ? PVTN ? CLF 
CMHG MC MD OSF PI SF SI SMHA SWFS ? SS ? CO TRMA PTSD SMI ? CM COOT DEC IPC 
PRS SPS PEER ? STU TCC ? SMPD ? ADLT CHLD SNR YAD ? AH ? SP"
Blue Spring Outpatient Center,2925 Optimist Drive,Marianna,Florida 32448,32448,"? MH ? OP PHDT TELE ? OMH ? CBT DBT GT IPT PTM ? PVTP ? MD MI PI SF VAF ? VET ADM 
MF CO TRMA TBI PTSD ? COOT ES FPSY SPS ? SMPD ? ADLT SNR YAD"
Florida Therapy Services Outpatient Services,2944 Pennsylvania Avenue Suite L,Marianna,Florida 32448,32448,"? MH SUMH ? OP TELE ? OMH ? AT BMT CBT CFT DBT GT IPT PTM TT ? PVTP ? MC MD MI PI 
SF SI SWFS VAF ? TAY SE TRMA PTSD SED SMI ? CM COOT FPSY PRS SPS ? STU ? SMPD ? 
ADLT CHLD SNR YAD ? AH ? SP"
Life Management Center Jackson County Facility,4094 Lafayette Street,Marianna,Florida 32446,32446,"? MH SUMH ? OP TELE ? CMHC ? BMT CBT CFT GT IDD IPT TT ? WI ? PVTN ? MC MD MI PI 
SF ? CM COOT FPSY SPS PEER ? SMPD ? ADLT CHLD SNR YAD ? AH"
Childrens Home Society of Florida,326 Croton Road,Melbourne,Florida 32935,32935,"? MH ? OP TELE ? OMH ? BMT CBT CFT GT IPT PTM TT ? PVTN ? CLF MD PI SCJJ SEF SF SI 
SMHA SWFS ? TRMA PTSD SED ? CM COOT ? SMPD ? ADLT CHLD YAD ? AH ? SP"
Devereux Advanced BH Florida Intensive Residential Treatment Ctr,8000 Devereux Drive,Melbourne,Florida 32940,32940,"? MH SUMH ? RES ? RTCC ? AT BMT CBT DBT GT IPT PTM TT ? PVTN ? CLF CMHG CSBG 
ITU MC MD OSF PI SCJJ SEF SF SI SMHA SWFS ? GL CJ CO HV TRMA TBI PTSD SED ? ACT 
DEC ES IMR PRS SPS ? STU ? SMON ? CHLD ? AH ? SP F19"
Florida Counseling Center,"1299 Bedford Drive, Suite A",Melbourne,Florida 32940,32940,"? MH SUMH ? OP ? OMH ? BMT CBT CFT DBT IPT ? CIT ? PVTP ? MI PI SF ? DEC FPSY PRS 
SPS ? SMPD ? ADLT CHLD SNR YAD"
JourneyPure Melbourne,100 South Harbor City Boulevard,Melbourne,Florida 32901,32901,"? MH SUMH ? OP PHDT ? PH ? BMT CBT CFT DBT GT IDD IPT PTM TT ? CIT ? PVTP ? MI PI 
SF ? VET ADM CO TRMA PTSD ? COOT DEC FPSY HS PRS SPS ? TCC ? SMPD ? ADLT CHLD 
SNR YAD ? SP"
MIAMI Advance Mental Health Clinic,"13055 SW 42nd Street, Suite 104",Miami,Florida 33175,33175,"? MH SUMH ? OP ? CMHC ? CFT GT IPT PTM ? PVTP ? MD SF ? SE CO ? CM PRS ? SMPD ? 
ADLT CHLD SNR YAD ? SP"
Aventura Hospital and Medical Center Behavioral Health Services,20900 Biscayne Boulevard,Miami,Florida 33180,33180,"? MH SUMH ? HI OP ? PSY ? AT CBT CFT ECT GT IDD IPT PTM TT ? WI ? PVTP ? MC MD MI 
PI SF SI ? SE CO SMI ? SMON ? ADLT SNR YAD ? SP"
Banyan Health Systems,"10720 Caribbean Boulevard, Suite 420",Miami,Florida 33189,33189,"? MH SUMH ? OP ? OMH ? BMT CBT IDD IPT PTM TT ? CIT ? PVTN ? FQHC ? MC MD OSF PI 
SF SI SMHA SWFS ? PA ? CM COOT DEC FPSY ? NRT NSC STU TCC ? SMPD ? ADLT CHLD 
SNR YAD ? AH ? SP F19"
Banyan Health Systems Adult Comm Outpt Psychiatric Servs,"3850 West Flagler Street, 1st Floor",Miami,Florida 33134,33134,"? MH SUMH ? OP ? CMHC ? CBT CFT GT IPT PTM TT ? CIT WI ? PVTN ? FQHC ? CMHG 
CSBG MC MD PI SF SMHA ? SS ? CO ? CM COOT FPSY ICM IPC SPS VRS ? NRT TCC ? 
SMPD ? ADLT CHLD SNR YAD ? AH ? SP"
Banyan Health Systems Inpatient Adult CSU,3800 West Flagler Street,Miami,Florida 33134,33134,"? MH SUMH ? HI ? CMHC ? AT BMT CBT GT IDD PTM TT ? CIT WI ? PVTN ? MD OSF PI SCJJ 
SF SI SMHA SWFS ? SE VET CO HV TRMA PTSD SMI ? CM ES HS ICM IPC SH SPS PEER ? 
NRT NSC STU TCC ? SMON ? ADLT SNR YAD ? AH ? SP F19"
Behavioral Aid Solutions Inc,1414 NW 107th Avenue Suite 109,Miami,Florida 33172,33172,"? MH ? OP ? CMHC ? BMT CBT CFT DBT GT IPT TT ? PVTP ? MD PI SF ? PA SS ? SE ? CM 
COOT ES FPSY HS LAD PRS ? SMPD ? ADLT CHLD SNR YAD ? SP"
Center for individual and Fam Csl Inc,"1401 SW 1st Street, Suite 100",Miami,Florida 33135,33135,"? MH SUMH ? OP ? CMHC ? BMT CBT CFT DBT GT IDD IPT PTM TT ? CIT ? PVTP ? MC MD PI 
SF ? SS ? TAY SE GL CJ CO HV TRMA PED PTSD SED SMI ? ACT CDM COOT ES FPSY PRS 
SPS ? STU TCC ? SMPD ? ADLT CHLD SNR YAD ? SP"
Chrysalis Health Outpatient Office,1868 NE 164 Street,Miami,Florida 33162,33162,"? MH SUMH ? OP TELE ? OMH ? CBT CFT IDD IPT PTM TT ? PVTP ? MD PI SCJJ SF ? SS ? 
TAY SE CJ CO TRMA PTSD SED SMI ? CM COOT FPSY ICM ? SMPD ? ADLT CHLD SNR YAD ? 
AH ? SP F19"
Chrysalis Health,2215 NW 36th Street,Miami,Florida 33142,33142,"? MH SUMH ? OP PHDT ? PH ? AT BMT CBT CFT DBT GT IDD IPT PTM TT ? PVTP ? MD ? GL 
CJ CO TRMA PTSD SMI ? CM COOT PRS ? TCC ? SMPD ? ADLT YAD ? AH ? SP"
Community Health of South Florida Coconut Grove,3831 Grand Avenue,Miami,Florida 33133,33133,"? MH SUMH ? OP ? OMH ? CBT CFT IDD IPT TT ? CIT ? PVTN ? FQHC ? CLF CMHG CSBG 
MC MD OSF PI SCJJ SEF SF SI SMHA SWFS ? PA SS ? SMI ? CDM COOT FPSY IPC ? SMON ? 
ADLT CHLD SNR YAD ? AH ? SP"
Community Health of South Florida Doris Ison Health Center,10300 SW 216th Street,Miami,Florida 33190,33190,"? MH SUMH ? HI OP PHDT TELE ? PSY ? AT BMT CBT CFT GT IDD IPT PTM TT ? CIT WI ? 
PVTN ? CLF CMHG CSBG ITU MC MD MI OSF PI SCJJ SEF SF SI SMHA SWFS ? PA SS ? CJ 
CO HV SMI ? CDM CM COOT DEC ES FPSY IMR IPC PRS SPS TPC PEER ? NRT NSC STU 
TCC ? SMON ? ADLT CHLD SNR YAD ? AH ? SP F19 F28"
Compass Health Systems Kendall Clinic,11440 North Kendall Drive Suite 208,Miami,Florida 33176,33176,"? MH SUMH ? OP ? OMH ? BMT CBT CFT DBT GT IDD IPT PTM TT ? WI ? PVTP ? MC MD MI 
PI SCJJ SF SI SWFS ? SS ? CJ ? CDM CM COOT DEC ES FPSY IMR SPS ? NSC STU TCC ? 
SMPD ? ADLT CHLD SNR YAD ? AH ? SP"
Compass Health Systems North Miami Clinic,1065 NE 125th Street Suite 206,Miami,Florida 33161,33161,"? MH SUMH ? OP ? OMH ? BMT CBT CFT DBT GT IDD IPT PTM TT ? WI ? PVTP ? CLF MC MD 
MI OSF PI SCJJ SF SI ? SS ? CJ ? CDM CM COOT DEC FPSY IMR IPC SPS ? NSC STU TCC ? 
SMPD ? ADLT CHLD SNR YAD ? AH ? SP F36"
Dade Family Counseling CMHC Inc,1951 NW 17th Avenue,Miami,Florida 33125,33125,"? MH SUMH ? OP PHDT TELE ? CMHC ? AT CBT CFT GT IDD IPT PTM TT ? PVTP ? MC MD PI 
SF SWFS ? SE CJ CO ? CM COOT FPSY PRS ? SMPD ? ADLT CHLD SNR YAD ? SP F19 F31"
DGCMHC North Miami Office,1150 NE 125th Street,Miami,Florida 33161,33161,"? MH SUMH ? OP ? CMHC ? AT CBT GT IDD IPT PTM ? CIT WI ? PVTN ? CLF ITU MC MD MI PI 
SF SI SMHA SWFS VAF ? PA SS ? SE GL VET CJ CO HV TRMA ALZ SMI ? CM COOT HS IMR 
PRS SEMP SH PEER ? STU TCC ? SMPD ? ADLT SNR YAD ? AH ? SP F19 F28"
Fellowship House,5711 South Dixie Highway,Miami,Florida 33143,33143,"? MH SUMH ? OP ? OMH ? GT IDD IPT PTM TT ? PVTN ? CLF MC MD OSF SF SMHA ? PA ? 
CJ CO SMI ? ACT CM COOT HS ICM IPC PRS SEMP SH SPS PEER ? SMPD ? ADLT SNR YAD ? 
AH ? SP"
Golden Palms Residential Trt Fac,17000 NE 21st Avenue,Miami,Florida 33162,33162,"? MH SUMH ? RES ? RTCA ? AT BMT PTM ? PVTN ? CMHG MC MD SF SMHA ? SE VET CO ? 
CDM CM FPSY IMR ? SMPD ? SNR ? AH ? SP F19"
Healthy Connections CMHC Inc,"2780 SW 37th Avenue, Suite 206",Miami,Florida 33133,33133,"? MH SUMH ? OP PHDT ? CMHC ? BMT CBT CFT DBT GT IDD IPT PTM TT ? PVTP ? MC MD PI 
SF ? TAY SE CO SMI ? CM COOT ES FPSY HS PRS SPS ? SMPD ? ADLT CHLD SNR YAD ? SP"
Improving Lives Community Mental Health Center Inc,11040 SW 88th Street Suite C-100,Miami,Florida 33176,33176,"? MH SUMH ? OP PHDT ? CMHC ? AT CFT GT IPT TT ? PVTP ? SF ? TAY SE GL CJ CO SED 
SMI ? COOT SPS ? SMPD ? ADLT CHLD SNR YAD ? SP F67"
Integrity Behavioral Health LLC,"160 NW 176th Street, Suite 344",Miami,Florida 33169,33169,"? MH SUMH ? OP TELE ? OMH ? AT BMT CBT CFT GT IPT PTM TT ? PVTP ? MC MD OSF PI 
SF SI SMHA SWFS ? SS ? TAY SE GL VET CO TRMA PTSD SED SMI ? COOT FPSY PRS SPS ? 
SMON ? ADLT CHLD SNR YAD ? SP F19 F28 F35 F70"
Jackson Memorial Hospital Behavioral Health Hospital,1695 NW 9th Avenue Suite 2308,Miami,Florida 33136,33136,"? MH SUMH ? HI OP ? PSY ? AT BMT CBT CFT DBT GT IDD IPT PTM TT ? CIT WI ? LMG ? CLF 
CMHG CSBG MC MD MI PI SCJJ SF SI SMHA SWFS VAF ? PA SS ? TAY SE CJ CO HV ALZ SED 
SMI ? CM COOT ES FPSY ICM IPC SPS PEER ? NRT NSC STU TCC ? SMON ? ADLT CHLD 
SNR YAD ? AH ? SP F19 F28"
Jackson South Community Hospital Behavioral Health,9333 SW 152nd Street,Miami,Florida 33157,33157,"? MH ? HI TELE ? PSY ? AT BMT CBT CFT DBT GT IDD IPT PTM TT ? CIT WI ? PVTN ? CLF 
CMHG CSBG ITU MC MD MI OSF PI SCJJ SEF SF SI SMHA SWFS VAF ? SPS ? NRT STU TCC 
? SMON ? ADLT SNR YAD ? AH ? SP F19"
Jewish Community Services of South Florida,"18999 Biscayne Boulevard, Suite 200",Miami,Florida 33180,33180,"? MH ? OP ? OMH ? CBT CFT GT IPT PTM TT ? PVTN ? MC MD PI SF SI SWFS ? GL ? CM ? 
SMPD ? ADLT CHLD SNR YAD ? SP F35"
Kedem Counseling Center Inc,"3550 Biscayne Boulevard, Suite 305",Miami,Florida 33137,33137,"? MH SUMH ? OP ? OMH ? AT BMT CBT CFT DBT IDD IPT TT ? WI ? PVTP ? SF ? TAY SE VET 
CJ CO TRMA PTSD ? CM COOT ES FPSY IPC PRS SPS VRS ? TCC ? SMPD ? ADLT CHLD SNR 
YAD ? SP F35"
Kristi House Inc,1265 NW 12th Avenue,Miami,Florida 33136,33136,"? MH SUMH ? OP ? OMH ? CBT CFT GT IDD IPT PTM TT ? PVTN ? CLF CMHG CSBG MD OSF 
SI SMHA SWFS ? PA ? TRMA PTSD ? CM COOT FPSY LAD ? SMPD ? CHLD ? AH ? SP F19"
Kristi House Inc,18425 NW 2nd Avenue,Miami,Florida 33169,33169,"? MH SUMH ? OP ? OMH ? CBT CFT IDD IPT TT ? PVTN ? CLF CMHG CSBG MD OSF SI SMHA 
SWFS ? PA ? TRMA PTSD ? CM COOT FPSY LAD ? SMPD ? CHLD ? AH ? SP F19"
Kristi House Inc,8925 SW 148th Street,Miami,Florida 33169,33169,"? MH SUMH ? OP ? OMH ? CBT CFT GT IDD IPT TT ? PVTN ? CLF CMHG CSBG MD OSF SI 
SMHA SWFS ? PA ? TRMA PTSD ? CM COOT FPSY LAD ? SMPD ? CHLD ? AH ? SP"
Larkin Community Hospital,7031 SW 62nd Avenue,Miami,Florida 33143,33143,"? MH SUMH ? HI PHDT ? PSY ? AT BMT CBT DBT ECT GT IPT PTM TT ? CIT WI ? PVTP ? CLF 
CMHG CSBG MC MD MI OSF PI SCJJ SF SI SMHA SWFS VAF ? SE CJ CO TRMA ALZ SMI ? 
CDM CM DEC ES ICM IMR IPC LAD PRS SPS PEER ? NRT NSC STU TCC ? SMPD ? ADLT 
CHLD SNR YAD ? AH ? SP"
Mercy Behavioral Center,705 East 8th Avenue Suite 102,Miami,Florida 33155,33155,"? MH SUMH ? OP PHDT ? CMHC ? AT BMT CBT CFT DBT GT IDD IPT PTM TT ? PVTP ? CLF 
MC MD MI OSF PI SCJJ SEF SF SI SWFS VAF ? SS ? TAY GL VET MF CJ CO TRMA PED PTSD 
SMI ? ACT CM COOT ES FPSY ICM PRS SEMP SPS ? TCC ? SMPD ? ADLT CHLD SNR YAD ? 
SP F19 F28"
Miami VA Healthcare System Mental Health Service (116),1201 NW 16th Street,Miami,Florida 33125,33125,"? MH SUMH ? HI OP PHDT RES TELE ? AT BMT CBT CFT DBT ECT GT IDD IPT PTM TT ? CIT 
WI ? VAMC ? MI PI SF ? SE GL VET CJ CO TRMA TBI ALZ PTSD ? ACT CDM CM COOT DEC ES 
FPSY HS ICM IMR IPC LAD PRS SEMP SH SPS VRS PEER ? NRT NSC STU TCC ? SMPD ? 
ADLT SNR YAD ? VO ? AH ? SP"
Morning Star Centers Inc,"7811 Coral Way, Suite 106",Miami,Florida 33155,33155,"? MH SUMH ? OP ? OMH ? BMT CBT CFT DBT GT IDD IPT PTM TT ? PVTP ? MC MD PI SCJJ 
SF SI SWFS ? SS ? TAY SE GL CJ CO TRMA PTSD SED SMI ? COOT FPSY SPS ? SMPD ? 
ADLT CHLD SNR YAD ? SP F19"
Nicklaus Childrens Hospital Inpatient Psychiatry Unit,3100 SW 62nd Avenue,Miami,Florida 33155,33155,"? MH ? HI OP ? PSY ? BMT CBT CFT GT IPT PTM ? WI ? PVTN ? ITU MC MD MI PI SEF SF SI 
? CM ES SPS ? STU ? SMON ? CHLD ? AH ? SP"
North Shore Medical Center,1100 NW 95th Street,Miami,Florida 33150,33150,"? MH SUMH ? HI ? PSY ? AT CFT GT IPT PTM ? CIT WI ? PVTP ? MC MD MI PI SEF SF SI VAF 
? SE CO SMI ? CDM CM DEC FPSY ICM IMR IPC SPS ? NRT NSC STU TCC ? SMON ? ADLT 
SNR YAD ? AH ? SP F19"
PsychSolutions Inc,700 South Royal Poinciana Boulevard Suite 300,Miami,Florida 33166,33166,"? MH SUMH ? OP TELE ? CMHC ? BMT CBT CFT DBT GT IDD IPT PTM TT ? PVTP ? MD MI PI 
SF SI SWFS ? PA SS ? TAY SE CO TRMA PTSD SED SMI ? CM COOT FPSY ? SMON ? ADLT 
CHLD SNR YAD ? SP F19 F28"
PsychSolutions Inc,"10720 Caribbean Boulevard, Suite 320",Miami,Florida 33189,33189,"? MH SUMH ? OP TELE ? CMHC ? BMT CBT CFT DBT GT IDD IPT PTM TT ? PVTP ? MD MI PI 
SF SI SWFS ? PA SS ? TAY SE CO TRMA PTSD SED SMI ? CM COOT FPSY ? SMON ? ADLT 
CHLD SNR YAD ? SP F19 F28"
Sunshine Behavior Center Inc,"9600 SW 8th Street, Suite 1",Miami,Florida 33174,33174,"? MH SUMH ? HI OP PHDT TELE ? MSNH ? AT BMT CBT CFT DBT GT IDD IPT PTM TT ? CIT 
WI ? OSG ? FQHC ? CLF CMHG CSBG ITU MC MD MI OSF PI SEF SF SI SMHA SWFS VAF ? PA 
? TAY SE GL VET ADM MF CJ CO HV TRMA ALZ PED PTSD SED SMI ? ACT CDM CM DEC ES 
FPSY HS ICM IMR IPC LAD PRS SEMP SH SPS VRS PEER ? NRT NSC STU TCC ? SMON ? 
ADLT CHLD SNR YAD ? AH ? SP"
Douglas Gardens CMHC,"1680 Meridian Avenue, Suite 501",Miami Beach,Florida 33139,33139,"? MH SUMH ? OP ? CMHC ? CBT CFT GT IDD IPT PTM TT ? CIT WI ? PVTN ? CLF ITU MC MD 
MI PI SF SI SMHA SWFS VAF ? PA SS ? SE GL VET CJ CO HV TRMA ALZ SMI ? CM COOT HS 
IMR PRS SEMP SH ? STU TCC ? SMPD ? ADLT SNR YAD ? AH ? SP"
Jewish Community Services of South Florida,333 West 41st Street Suites 208-210,Miami Beach,Florida 33140,33140,"? MH ? OP ? OMH ? CBT CFT DBT GT IDD IPT TT ? PVTN ? MC MD MI PI SF ? CJ ? CM FPSY 
? SMPD ? ADLT CHLD SNR YAD ? AH ? SP F28 F35"
Mount Sinai Medical Center Behavioral Health,4300 Alton Road,Miami Beach,Florida 33140,33140,"? MH SUMH ? HI ? PSY ? AT CFT ECT GT IPT PTM TT ? CIT WI ? PVTN ? MC MD MI PI SF SI ? 
SMI ? CDM CM DEC ES FPSY IMR IPC SPS PEER ? NRT NSC STU TCC ? SMON ? ADLT SNR 
YAD ? AH ? SP"
West Florida Community Care Center,5500 Stewart Street,Milton,Florida 32570,32570,"? MH SUMH ? HI ? PSY ? AT BMT CBT CFT DBT GT IDD IPT PTM TT ? CIT ? SMA ? ITU MC MD 
MI OSF PI SF SMHA VAF ? PA SS ? SE GL CO HV TRMA TBI PTSD SMI ? CDM CM DEC ES 
FPSY HS IMR LAD PRS SH SPS PEER ? NRT STU TCC ? SMON ? ADLT SNR YAD ? AH"
Apalachee Center Inc Jefferson County Clinic,1996 South Jefferson Highway,Monticello,Florida 32344,32344,"? MH SUMH ? OP PHDT TELE ? CMHC ? CBT CFT GT IDD IPT PTM TT ? CIT WI ? PVTN ? MC 
MD PI SF SI SMHA ? SS ? CJ CO SED SMI ? CM COOT IMR PRS SPS PEER ? STU TCC ? 
SMPD ? ADLT CHLD SNR YAD ? AH"
Ctr for Family and Child Enrichment,"1825 NW 167th Street, Suite 102",Miami Gardens,Florida 33056,33056,"? MH SUMH ? OP TELE ? CMHC ? AT BMT CBT CFT GT IDD IPT PTM TT ? PVTN ? FQHC ? 
CLF CMHG CSBG MD OSF PI SF SI SMHA SWFS ? SS ? SE CO TRMA SED ? CM COOT DEC 
FPSY IPC PRS TPC ? STU TCC ? SMPD ? ADLT CHLD SNR YAD ? AH ? SP F19"
Clay Behavioral Health Center Inc,3292 County Road 220,Middleburg,Florida 32068,32068,"? MH SUMH ? OP ? CMHC ? BMT CBT CFT DBT GT IPT PTM TT ? CIT ? PVTN ? CLF CMHG 
CSBG MC MD MI OSF PI SCJJ SEF SF SI SMHA SWFS VAF ? SS ? SE CJ PTSD SED SMI ? 
CDM CM COOT FPSY IMR IPC SH SPS PEER ? NRT NSC STU TCC ? SMPD ? ADLT CHLD SNR 
YAD ? AH ? F19"
Center for Discovery Orlando,14915 Fosgate Road,Montverde,Florida 34756,34756,"? MH SUMH ? RES ? RTCC ? CBT CFT DBT GT IPT PTM ? PVTP ? MI PI SF ? PED ? CM DEC 
FPSY HS ? SMON ? CHLD ? SP"
Recovery Solutions of Central Florida,4820 Highway 19-A,Mount Dora,Florida 32757,32757,"? MH SUMH ? OP PHDT RES ? PH ? AT BMT CBT CFT DBT GT IDD IPT PTM TT ? PVTP ? PI SF 
? CO TRMA PTSD ? CM COOT DEC FPSY PRS SH ? SMPD ? ADLT SNR YAD"
Bay Pines VA Healthcare System Naples VA CBOC,"800 Goodlette-Frank Road, Suite 120",Naples,Florida 34102,34102,"? MH ? OP TELE ? CBT CFT GT IPT PTM TT ? WI ? VAMC ? VAF ? VET ? CDM CM DEC ES IMR 
IPC SPS PEER ? NRT NSC STU TCC ? SMON ? ADLT SNR YAD ? VO"
David Lawrence Center Community Services,2806 South Horseshoe Drive,Naples,Florida 34104,34104,"? MH SUMH ? OP ? OMH ? BMT CBT CFT DBT GT IPT PTM TT ? CIT ? PVTN ? CLF CMHG MC 
MD MI OSF PI SCJJ SF SI SMHA SWFS ? SS ? CJ SED SMI ? ACT CM COOT FPSY SEMP SPS 
? STU ? SMON ? ADLT CHLD SNR YAD ? AH ? SP F19 F28"
David Lawrence Center Main Campus,6075 Bathey Lane,Naples,Florida 34116,34116,"? MH SUMH ? OP PHDT RES TELE ? MSNH ? AT BMT CBT CFT DBT GT IDD IPT PTM TT ? CIT 
WI ? PVTN ? CLF CMHG CSBG ITU MC MD MI OSF PI SCJJ SF SI SMHA SWFS VAF ? PA SS ? 
TAY VET CJ CO TRMA PED PTSD SED SMI ? CM COOT DEC ES FPSY HS IMR IPC PRS SEMP 
SH SPS VRS PEER ? NRT NSC STU ? SMON ? ADLT CHLD SNR YAD ? AH ? SP F19 F28"
Willough at Naples,9001 Tamiami Trail East,Naples,Florida 34113,34113,"? MH SUMH ? HI PHDT ? PSY ? AT CBT CFT GT IDD IPT PTM ? PVTP ? MC MI PI SF VAF ? 
VET ? CDM CM DEC ES FPSY PRS ? NRT STU ? SMPD ? ADLT SNR YAD ? AH ? SP F19 F28 
F70"
Harbor Behavioral Healthcare Institute Outpatient Center West,8002 King Helie Boulevard,New Port Richey,Florida 34653,34653,"? MH SUMH ? OP ? CMHC ? CBT CFT DBT GT IDD IPT PTM TT ? PVTN ? CLF CMHG CSBG 
MC MD PI SF SI SMHA SWFS VAF ? PA SS ? GL CJ ? CM COOT PRS SH PEER ? SMON ? ADLT 
SNR YAD ? AH ? SP"
J A Haley VAMC New Port Richey OPC,9912 Little Road,New Port Richey,Florida 34654,34654,"? MH SUMH ? OP TELE ? BMT CBT CFT DBT GT IPT PTM TT ? CIT ? VAMC ? MC MI PI VAF ? 
SE GL VET ADM MF CO HV TRMA TBI ALZ PED PTSD SMI ? ACT CM ES FPSY IPC SPS ? NRT 
NSC STU TCC ? SMON ? ADLT SNR YAD ? VO ? AH ? SP"
Medical Center of Trinity Behavioral Health West Pasco Campus,5637 Marine Parkway,New Port Richey,Florida 34652,34652,"? MH SUMH ? HI PHDT ? PSY ? AT CBT DBT ECT GT IPT PTM ? CIT WI ? PVTP ? MC MD MI PI 
SF SI VAF ? SE ? CDM CM FPSY SPS ? NRT NSC STU TCC ? SMON ? ADLT SNR YAD ? AH"
Center for Discovery Palm Beach,"11300 U.S. Highway 1, Suite 150",North Palm Beach,Florida 33408,33408,"? MH SUMH ? PHDT ? PH ? AT BMT CBT CFT DBT GT IDD IPT PTM TT ? PVTP ? PI SF ? GL 
TRMA PED PTSD ? CM DEC FPSY IPC ? SMPD ? ADLT CHLD YAD"
Coastal Behavioral Healthcare Inc,"12497 Tamiami Trail South, Suite 4",North Port,Florida 34287,34287,"? MH SUMH ? OP TELE ? CMHC ? BMT CBT CFT DBT GT IDD IPT PTM TT ? CIT ? PVTN ? 
CMHG MC MD MI OSF PI SF SMHA SWFS ? PA ? CO PTSD ? CDM CM COOT FPSY SPS ? STU 
TCC ? SMPD ? ADLT CHLD SNR YAD ? AH ? SP"
Florida Center for Early Childhood,6929 Outreach Way,North Port,Florida 34287,34287,"? MH ? OP ? OMH ? AT CBT CFT DBT GT IPT TT ? CIT ? PVTN ? CLF MD MI OSF PI SEF SF SI 
SMHA SWFS ? PA SS ? CM ? SMON ? CHLD ? SP"
Centers Inc,5664 SW 60th Avenue,Ocala,Florida 34474,34474,"? MH SUMH ? HI OP TELE ? CMHC ? BMT CBT CFT GT IDD IPT PTM TT ? CIT WI ? PVTN ? 
CLF CMHG CSBG MC MD MI OSF PI SF SI SMHA SWFS ? SS ? SE GL VET MF CJ CO TRMA 
PTSD SED SMI ? CM COOT ES FPSY PRS SPS PEER ? STU TCC ? SMPD ? ADLT CHLD SNR 
YAD ? AH ? SP"
Guest House Ocala Outpatient Recovery,2233 East Fort King Street Suite A,Ocala,Florida 34470,34470,"? MH SUMH ? OP PHDT TELE ? OMH ? AT CBT CFT DBT GT IDD IPT PTM TT ? PVTP ? PI SF ? 
VET ADM CJ TRMA PTSD ? CM ? SMPD ? ADLT CHLD YAD"
Vines Hospital,3130 SW 27th Avenue,Ocala,Florida 34471,34471,"? MH SUMH ? HI OP PHDT ? PSY ? BMT CBT DBT GT IDD PTM TT ? CIT WI ? PVTP ? ITU MC 
MD MI PI SF SMHA VAF ? SE VET ADM MF CO TRMA PTSD ? SPS ? NRT STU TCC ? SMPD ? 
ADLT SNR YAD ? AH"
Orlando Psychiatric Associates Ocoee,1551 Boren Drive Suite C,Ocoee,Florida 34761,34761,"? MH ? OP ? CMHC ? CBT CFT GT IPT PTM ? PVTP ? MC MD PI SF SI ? SPS ? SMPD ? ADLT 
CHLD SNR YAD ? SP F36"
New Horizons of the Treasure Coast Inc,1600 SW 2nd Avenue,Okeechobee,Florida 34974,34974,"? MH SUMH ? OP TELE ? OMH ? BMT CBT CFT DBT IDD IPT PTM TT ? CIT ? PVTN ? CLF 
CMHG MC MD MI OSF PI SCJJ SF SI SMHA SWFS ? SS ? CM COOT ICM PRS SPS ? SMON ? 
ADLT CHLD SNR YAD ? AH ? SP"
Suncoast Mental Health Center Okeechobee,408 NW 3rd Street,Okeechobee,Florida 34972,34972,"? MH SUMH ? OP ? CMHC ? AT BMT CBT CFT DBT GT IPT PTM TT ? PVTN ? MD PI SF SI 
SWFS ? CO TRMA PTSD SED SMI ? CM COOT FPSY SPS ? STU ? SMPD ? ADLT CHLD SNR 
YAD ? AH ? SP"
Jackson CMHC Childrens Outpatient Services,15055 NW 27th Avenue,Opa Locka,Florida 33054,33054,"? MH ? OP ? CMHC ? BMT CBT CFT IPT PTM TT ? LMG ? CLF CMHG CSBG MC MD OSF PI SF 
SI SMHA SWFS ? PA SS ? GL CJ HV TRMA PTSD SED ? CM COOT FPSY ICM IPC SPS PEER ? 
SMON ? CHLD ? AH ? SP F19"
Jackson CMHC Crisis Stabilization Unit,15055 NW 27th Avenue,Opa Locka,Florida 33054,33054,"? MH SUMH ? HI OP PHDT RES ? PSY ? AT BMT CBT CFT DBT GT IDD IPT PTM TT ? CIT WI ? 
LMG ? CLF CMHG CSBG MC MD MI OSF PI SF SI SMHA SWFS ? PA SS ? CJ CO TRMA PTSD 
SMI ? ACT CDM CM COOT DEC ES FPSY HS ICM IMR IPC LAD PRS SEMP SH SPS TPC VRS 
PEER ? NRT NSC STU TCC ? SMON ? ADLT YAD ? AH ? SP F19 F28 F81"
Florida Csl and Evaluation Services,1540 Kingsley Avenue,Orange Park,Florida 32073,32073,"? MH ? OP ? OMH ? BMT CBT CFT DBT GT IDD IPT TT ? PVTP ? CLF MC MD MI PI SF ? SS ? 
TAY SE GL VET MF CO HV TRMA PTSD ? COOT FPSY PRS SPS VRS ? SMPD ? ADLT CHLD 
SNR YAD ? SP"
Orange Park Medical Center Behavioral Health,2001 Kingsley Avenue,Orange Park,Florida 32073,32073,"? MH SUMH ? HI OP PHDT TELE ? PSY ? AT CBT CFT ECT GT IDD IPT PTM TT ? WI ? PVTP ? 
MC MD MI PI SF SI SMHA SWFS VAF ? SE CO SMI ? FPSY IMR SPS PEER ? NRT NSC STU 
TCC ? SMON ? ADLT SNR YAD ? SP"
AdventHealth Center for Behavioral Health,601 East Rollins Street,Orlando,Florida 32803,32803,"? MH SUMH ? HI TELE ? PSY ? AT BMT CBT CFT DBT ECT GT IDD IPT PTM TT ? CIT WI ? 
PVTN ? MC MD MI PI SF SI SMHA VAF ? CO ? CDM CM DEC FPSY HS ICM IMR IPC PRS SH 
SPS VRS 
? NRT NSC STU TCC ? SMON ? ADLT SNR YAD ? AH ? SP"
Aspire Health Partners Kassab Campus,434 Kennedy Boulevard,Orlando,Florida 32810,32810,"? MH SUMH ? HI RES TELE ? PSY ? AT BMT CBT CFT GT IDD IPT PTM TT ? CIT WI ? PVTN ? 
CLF CMHG MD MI OSF PI SCJJ SF SI SMHA SWFS ? TAY SE GL VET MF CJ CO HV TRMA 
PTSD SMI ? ACT CM FPSY ICM SPS PEER ? SMPD ? ADLT CHLD SNR YAD ? AH ? SP F4 F19"
Aspire Health Partners Princeton Plaza,1800 Mercy Drive,Orlando,Florida 32808,32808,"? MH SUMH ? HI OP PHDT TELE ? PSY ? AT CBT CFT DBT GT IDD IPT PTM TT ? CIT WI ? 
PVTN ? CLF CMHG MC MD MI OSF PI SCJJ SEF SF SI SMHA SWFS VAF ? SS ? TAY SE GL 
VET MF CJ CO TRMA PTSD SED SMI ? ACT CM COOT FPSY HS ICM LAD PRS SEMP SH SPS 
PEER ? NSC STU TCC ? SMPD ? ADLT CHLD SNR YAD ? AH"
Aspire Health Partners College Place,4524 Thisledown Drive,Orlando,Florida 32804,32804,"? MH ? RES TELE ? RTCA ? AT BMT IPT PTM ? CIT ? PVTN ? CLF CMHG CSBG MD PI SCJJ 
SF SI SMHA ? SS ? SE GL VET MF CJ HV TRMA PTSD SMI ? CM ES HS ICM IMR PRS SEMP 
SPS PEER ? NRT NSC STU TCC ? SMPD ? ADLT SNR YAD ? SP"
Central Florida Behavioral Hospital,6601 Central Florida Parkway,Orlando,Florida 32821,32821,"? MH SUMH ? HI OP PHDT TELE ? PSY ? AT BMT CBT DBT ECT GT IDD PTM TT ? CIT WI ? 
PVTP ? MC MI PI SF SI VAF ? TAY SE CO TRMA PTSD SED SMI ? CDM DEC ES FPSY IMR 
PEER ? NRT NSC STU TCC ? SMON ? ADLT CHLD SNR YAD ? AH"
Childrens Home Society of Florida,5768 South Semoran Boulevard,Orlando,Florida 32822,32822,"? MH ? OP TELE ? OMH ? CBT CFT DBT GT IDD IPT PTM TT ? PVTN ? CLF MD PI SCJJ SF SI 
SMHA SWFS ? TRMA PTSD SED ? CM COOT ICM ? SMPD ? ADLT CHLD YAD ? AH ? SP F19 
F91"
Chrysalis Health Outpatient Office,1703 West Colonial Drive,Orlando,Florida 32804,32804,"? MH SUMH ? OP TELE ? CMHC ? CBT CFT IDD IPT TT ? PVTP ? MD PI SCJJ SF ? SS ? TAY 
SE CJ CO TRMA PTSD SED SMI ? CM COOT FPSY ICM ? SMPD ? ADLT CHLD SNR YAD ? AH ? 
SP"
Community Counseling Center of Central Florida LLC,3544 Edgewater Drive,Orlando,Florida 32804,32804,"? MH ? OP ? OMH ? CBT CFT DBT IPT TT ? PVTP ? CLF MD OSF SCJJ SF SMHA SWFS ? 
COOT FPSY ? SMPD ? ADLT CHLD SNR YAD ? AH ? SP"
Devereux Orange Counseling Ctr Therapeutic Foster Care,"5749 Westgate Drive, Suite 102",Orlando,Florida 32835,32835,"? MH SUMH ? OP TELE ? OMH ? BMT CBT CFT DBT GT IPT PTM TT ? CIT ? PVTN ? CLF 
CMHG MD PI SF SI SMHA SWFS ? TAY SE GL CO TRMA TBI PTSD SED ? FPSY IMR SPS TPC 
? SMPD ? ADLT CHLD SNR YAD ? AH ? SP F19"
Devereux Statewide Psychiatric Prog (SIPP),6147 Christian Way,Orlando,Florida 32808,32808,"? MH SUMH ? RES TELE ? RTCC ? AT BMT CBT CFT DBT GT IPT PTM TT ? PVTN ? MD ? GL 
CO TRMA TBI SED ? DEC ES FPSY IMR PRS SPS ? STU ? SMPD ? CHLD ? AH ? SP F19"
Esperanza Behavioral Services,"7350 Futures Drive, Suite 16",Orlando,Florida 32819,32819,"? MH ? OP ? CMHC ? BMT CBT CFT GT IPT PTM TT ? PVTP ? MC MD MI PI SF SI SMHA ? GL 
VET TRMA PTSD ? FPSY ? STU ? SMPD ? ADLT CHLD YAD ? SP"
Orlando Psychiatric Associates,"2345 Sand Lake Road, Suite 200",Orlando,Florida 32809,32809,"? MH ? OP ? CMHC ? CBT CFT IPT PTM ? PVTP ? MC MD MI PI SF ? FPSY SPS ? SMPD ? 
ADLT CHLD SNR YAD ? SP F36"
Renaissance Healthcare Group LLC Pasadena Villa,119 Pasadena Place,Orlando,Florida 32803,32803,"? MH SUMH ? OP PHDT RES ? RTCA ? AT BMT CBT CFT DBT GT IDD IPT PTM TT ? PVTP ? PI 
SF ? CO SMI ? ACT CM ES FPSY HS PRS SH SPS VRS ? NRT STU TCC ? SMPD ? ADLT SNR 
YAD ? SP"
Statewide Inpt Psychiatric Program Devereux SIPP Program,6147 Christian Way,Orlando,Florida 32822,32822,"? MH SUMH ? RES TELE ? RTCC ? BMT CBT CFT DBT GT IDD IPT PTM TT ? PVTN ? MD SF ? 
GL CO TRMA TBI PTSD SED ? ES FPSY ICM IMR PRS SPS TPC ? SMON ? CHLD ? AH ? SP 
F19"
Total Health Guidance LLC,5401 South Kirkman Road Suite 760,Orlando,Florida 32819,32819,"? MH SUMH ? OP TELE ? OMH ? AT BMT CBT CFT DBT GT IDD IPT TT ? CIT ? PVTP ? CLF 
CMHG CSBG ITU MI OSF PI SF VAF ? PA SS ? TAY SE GL VET ADM MF CJ CO TRMA PED 
PTSD SED SMI ? CDM COOT DEC ES FPSY ICM IMR IPC PRS VRS ? TCC ? SMPD ? ADLT 
CHLD SNR YAD ? SP"
University Behavioral Center,2500 Discovery Drive,Orlando,Florida 32826,32826,"? MH SUMH ? HI ? PSY ? AT BMT CBT CFT DBT GT IDD IPT PTM TT ? WI ? PVTP ? MC MD MI 
PI SF SI SMHA SWFS VAF ? VET SED SMI ? DEC ES FPSY PRS SPS PEER ? NRT NSC STU 
TCC ? SMON ? ADLT CHLD SNR YAD ? AH ? SP"
SMA Healthcare Putnam County,330 Kay Larkin Drive,Palatka,Florida 32177,32177,"? MH SUMH ? OP TELE ? OMH ? CBT CFT DBT GT IDD IPT PTM TT ? CIT WI ? PVTN ? CLF MC 
MD OSF PI SF SI SMHA SWFS ? SS ? SED SMI ? CM COOT FPSY SPS ? SMPD ? ADLT CHLD 
SNR YAD ? AH"
West Palm Beach VAMC Mental Hygiene (116A),7305 North Military Trail,Palm Beach Gardens,Florida 33410,33410,"? MH SUMH ? HI OP TELE ? BMT CBT CFT DBT GT IDD IPT PTM TT ? WI ? VAMC ? MI PI VAF 
? SE GL VET CO TRMA ALZ PTSD SMI ? ACT CDM CM DEC ES FPSY HS ICM IMR IPC PRS 
SEMP SH SPS TPC VRS PEER ? NRT NSC STU TCC ? SMPD ? ADLT SNR YAD ? VO ? AH ? SP"
Tykes and Teens Inc,3577 SW Corporate Parkway,Palm City,Florida 34990,34990,"? MH SUMH ? OP ? OMH ? CBT CFT DBT GT IDD IPT PTM TT ? PVTN ? CLF CMHG MD MI 
OSF PI SEF SF SI SMHA SWFS ? SS ? GL CO TRMA PED PTSD SED ? CM SPS ? SMPD ? 
ADLT CHLD YAD ? AH ? SP F19 F28 F66"
Bay Pines VA Healthcare System Palm Harbor CBOC,35209 U.S. Highway 19 North,Palm Harbor,Florida 34684,34684,"? MH ? OP TELE ? CBT CFT GT IPT PTM TT ? WI ? VAMC ? VAF ? VET ? CDM CM DEC ES 
IMR IPC SPS PEER ? NRT NSC STU TCC ? SMON ? ADLT SNR YAD ? VO"
Emerald Coast Behavioral Hospital Inpatient Program,1940 Harrison Avenue,Panama City,Florida 32405,32405,"? MH SUMH ? HI RES TELE ? PSY ? CBT DBT GT IPT PTM ? PVTP ? MC MD MI PI SF VAF ? 
VET ADM MF CO TRMA TBI PTSD ? SPS ? SMPD ? ADLT CHLD SNR YAD"
Emerald Coast Behavorial Hospital Outpatient Services,201 East 19th Street,Panama City,Florida 32405,32405,"? MH ? OP PHDT TELE ? OMH ? CBT DBT GT IPT PTM ? PVTP ? MC MD MI PI SF VAF ? VET 
ADM MF CO TRMA TBI PTSD ? COOT ES FPSY SPS ? SMPD ? ADLT CHLD SNR YAD"
Gulf Coast VAMC Panama City CBOC,2600 Veterans Way,Panama City,Florida 32408,32408,"? MH SUMH ? OP TELE ? OMH ? CBT GT IPT PTM TT ? WI ? VAMC ? MC MD PI SF VAF ? VET 
? CM HS IMR SPS ? NRT STU TCC ? SMPD ? ADLT SNR YAD ? VO"
Life Management Center Northwest Florida Inc,525 East 15th Street,Panama City,Florida 32405,32405,"? MH SUMH ? OP PHDT TELE ? CMHC ? BMT CBT CFT DBT GT IDD IPT TT ? CIT WI ? PVTN ? 
MC MD MI OSF PI SF VAF ? ACT CM COOT FPSY IPC SEMP SPS TPC VRS PEER ? TCC ? 
SMPD ? ADLT CHLD SNR YAD ? AH ? SP"
Baptist Hospital Behavioral Medicine Center,1000 West Moreno Street,Pensacola,Florida 32501,32501,"? MH SUMH ? HI ? PSY ? AT BMT CBT CFT DBT ECT GT IDD IPT PTM TT ? WI ? PVTN ? MC 
MD MI OSF PI SCJJ SF SI SMHA SWFS VAF ? CO SED SMI ? CDM CM DEC FPSY IMR SPS ? 
NRT NSC STU TCC ? SMON ? ADLT CHLD SNR YAD ? AH"
Childrens Home Society of Florida Western Division,1300 North Palafox Street Suite 103,Pensacola,Florida 32501,32501,"? MH ? OP TELE ? OMH ? CBT CFT GT IPT PTM TT ? PVTN ? MD PI SF ? SS ? TAY GL MF 
TRMA PTSD SED ? SMON ? CHLD YAD ? AH ? SP"
Crisis Stabilization Unit,1304 West Avery Street,Pensacola,Florida 32501,32501,"? MH SUMH ? HI ? PSY ? AT BMT CBT CFT GT IDD IPT PTM TT ? CIT WI ? PVTN ? CLF CMHG 
MC MD MI OSF PI SF SI SMHA ? TAY CJ CO HV TRMA PTSD SED SMI ? CM FPSY HS SPS ? 
NRT NSC STU TCC ? SMON ? ADLT CHLD SNR YAD ? AH"
Florida Therapy Services Pensacola,6425 North Pensacola Boulevard Suites 1-3,Pensacola,Florida 32505,32505,"? MH SUMH ? OP TELE ? CMHC ? BMT CBT CFT DBT GT IPT PTM TT ? PVTP ? MC MD MI PI 
SF SWFS VAF ? TAY SE TRMA PTSD SED SMI ? CM COOT FPSY SPS ? STU ? SMPD ? ADLT 
CHLD SNR YAD ? AH ? SP"
Gulf Coast Veterans Healthcare System Joint Ambulatory Care Clinic,790 Veterans Way,Pensacola,Florida 32507,32507,"? MH SUMH ? OP TELE ? BMT CBT CFT DBT GT IDD IPT PTM TT ? CIT WI ? VAMC ? MC MD 
MI PI SF VAF ? SE VET ADM MF CO TRMA TBI PTSD SMI ? CM COOT DEC ES FPSY HS LAD 
SH SPS PEER ? NRT NSC STU TCC ? SMON ? ADLT SNR YAD ? VO"
Residential Treatment for Children Meridian,1920 North J Street,Pensacola,Florida 32501,32501,"? MH ? RES ? RTCC ? BMT CBT CFT DBT IDD IPT PTM TT ? PVTN ? MD SF SI SMHA ? TRMA 
SED ? CM FPSY ? SMON ? CHLD ? AH"
West Florida Hospital Pavilion,2191 Johnson Avenue,Pensacola,Florida 32514,32514,"? MH SUMH ? HI OP PHDT TELE ? PSY ? AT CBT DBT ECT GT IPT PTM ? WI ? PVTP ? MC MD 
MI PI SF SI VAF ? SE ? IMR PRS ? NRT NSC STU TCC ? SMON ? ADLT SNR YAD ? AH"
Apalachee Center Inc Taylor County Clinic,1421 Old Dixie Highway,Perry,Florida 32348,32348,"? MH SUMH ? OP PHDT TELE ? CMHC ? AT CBT CFT GT IDD IPT PTM TT ? CIT WI ? PVTN ? 
MC MD PI SF SI SMHA ? SS ? CJ CO SED SMI ? CM COOT IMR PRS SPS PEER ? NSC STU ? 
SMPD ? ADLT CHLD SNR YAD ? AH"
Perry CBOC,1224 North Peacock Avenue,Perry,Florida 32347,32347,"? MH ? OP TELE ? CBT IPT PTM ? CIT ? VAMC ? VAF ? VET ? SPS ? NRT NSC STU TCC ? 
SMON ? ADLT SNR YAD ? VO"
Adoption Related Servs of Pinellas and Family Enrichment Services,3941 68th Avenue North,Pinellas Park,Florida 33781,33781,"? MH ? OP ? CMHC ? BMT CBT CFT DBT GT IPT PTM TT ? PVTN ? FQHC ? CLF MD SF SI 
SWFS ? SS ? CM FPSY SPS ? SMON ? CHLD YAD ? AH ? SP F30 F92"
Personal Enrichment Through MH Servs/(PEMHS),11254 58th Street,Pinellas Park,Florida 33782,33782,"? MH SUMH ? HI TELE ? PSY ? AT BMT CBT CFT DBT GT IPT PTM TT ? CIT WI ? PVTN ? CLF 
CMHG CSBG MD OSF PI SF SI SMHA SWFS ? PA SS ? CO SED SMI ? FPSY SPS PEER ? NRT 
? SMON ? ADLT CHLD SNR YAD ? AH ? SP"
FL United Methodist Childrens Home Madison Youth Ranch,1647 Captain Buie Road,Pinetta,Florida 32350,32350,"? MH ? RES TELE ? RTCC ? AT BMT CBT CFT GT IPT PTM TT ? CIT ? PVTN ? CSBG MD PI SF 
SI SWFS ? GL CJ CO TRMA PTSD SED ? ES HS SPS ? SMON ? CHLD"
Henderson Behavioral Health Charlee,2181 NW 69th Terrace,Pompano Beach,Florida 33063,33063,"? MH SUMH ? RES ? RTCC ? IPT ? PVTN ? MD SMHA SWFS ? PA ? CM ? SMON ? CHLD ? AH 
? SP F19"
Henderson Behavioral Health Summit,868 SW 10th Street,Pompano Beach,Florida 33060,33060,"? MH ? RES ? RTCA ? PTM ? PVTN ? CLF MC MD PI SF SI SMHA SWFS ? SS ? CM HS ? 
SMPD ? ADLT SNR YAD ? AH ? SP F19"
Bay Pines VA Healthcare System Port Charlotte VA CBOC,"4161 Tamiami Trail, Unit 401",Port Charlotte,Florida 33952,33952,"? MH ? OP TELE ? CBT CFT GT IPT PTM TT ? WI ? VAMC ? VAF ? VET ? CDM CM DEC ES 
IMR IPC SPS PEER ? NRT NSC STU TCC ? SMON ? ADLT SNR YAD ? VO"
Northside Psychiatric Services,"1032 Tamiami Trail, Unit 7",Port Charlotte,Florida 33953,33953,"? MH SUMH ? OP TELE ? OMH ? BMT CBT CFT DBT GT IDD IPT PTM TT ? PVTN ? FQHC ? 
CLF MD MI PI SCJJ SF SI SMHA SWFS ? PA SS ? TAY SE CO TRMA PTSD SED SMI ? FPSY ? 
SMON ? ADLT CHLD SNR YAD ? AH"
Life Management Center NW Florida Inc,311 Williams Avenue,Port Saint Joe,Florida 32456,32456,"? MH SUMH ? OP ? CMHC ? CFT IPT TT ? PVTN ? MC MD MI PI SF ? COOT FPSY SPS ? 
SMPD ? ADLT CHLD SNR YAD ? AH"
2nd Chance Mental Health Center,1541 SE Port Saint Lucie Boulevard Suite F,Port Saint Lucie,Florida 34952,34952,"? MH SUMH ? OP ? CMHC ? BMT CBT GT IDD PTM TT ? CIT ? PVTP ? MD SF ? CO ? COOT 
ES FPSY HS PRS SH SPS ? TCC ? SMPD ? ADLT YAD"
Henderson Behavioral Health,Port Saint Lucie/CM Wrap Around 546 NW University Boulevard Suite 20,Port Saint Lucie,Florida 34986,34986,"? MH SUMH ? OP ? CMHC ? IPT ? PVTN ? MC MD MI OSF PI SF ? PA SS ? CM FPSY ? SMON 
? ADLT CHLD YAD ? AH ? SP F19"
Port Saint Lucie Hospital,2550 SE Walton Road,Port Saint Lucie,Florida 34952,34952,"? MH SUMH ? HI PHDT RES ? PSY ? AT BMT CBT GT IDD IPT PTM TT ? CIT ? PVTP ? MC PI 
SF VAF ? GL VET ADM CO HV ? CM COOT ? NRT NSC STU TCC ? SMPD ? ADLT SNR YAD ? 
AH ? SP F19"
Saint Lucie Medical Center,1800 SE Tiffany Avenue,Port Saint Lucie,Florida 34952,34952,"? MH SUMH ? HI PHDT ? PSY ? AT BMT CBT GT IDD PTM TT ? CIT WI ? PVTP ? ITU MC MD MI 
PI SF VAF ? SE CO SMI ? CDM DEC ES FPSY IMR IPC SPS ? NRT STU TCC ? SMON ? ADLT 
SNR YAD ? AH ? F19 F28"
Treasure Coast Counseling Center,"1680 SE Lyngate Drive, Suite 201",Port Saint Lucie,Florida 34952,34952,"? MH ? OP ? OMH ? BMT CBT CFT GT IPT TT ? PVTP ? CLF MC MI OSF PI SCJJ SF ? SE GL 
VET MF CO HV TRMA PED PTSD SMI ? ACT COOT ES SPS ? SMPD ? ADLT CHLD SNR YAD"
Bayfront Health Medical Group Psychiatry and Addiction Med Servs,"713 East Marion Avenue, Suite 139",Punta Gorda,Florida 33950,33950,"? MH SUMH ? HI OP ? PSY ? BMT ECT IPT PTM TT ? CIT ? PVTP ? MC MD PI SF VAF ? ICM ? 
SMON ? ADLT SNR YAD ? AH ? SP"
Bayfront Health Punta Gorda Intensive Outpatient Program,713 East Marion Avenue Suite 123,Punta Gorda,Florida 33950,33950,"? MH SUMH ? OP PHDT ? OMH ? AT BMT CBT CFT GT IDD IPT PTM TT ? CIT ? PVTP ? MC MI 
PI SF VAF ? TAY SE CO TRMA PTSD ? FPSY SPS ? SMON ? ADLT SNR YAD"
Charlotte Behavioral Healthcare Inc,1700 Education Avenue,Punta Gorda,Florida 33950,33950,"? MH SUMH ? OP TELE ? CMHC ? BMT CBT CFT DBT GT IDD IPT PTM TT ? WI ? PVTN ? CLF 
CMHG CSBG MC MD MI OSF PI SCJJ SF SI SMHA SWFS ? SS ? TAY SE GL CO TRMA PTSD 
SED SMI ? ACT CM COOT FPSY SPS PEER ? STU ? SMON ? ADLT CHLD SNR YAD ? AH"
Apalachee Center Inc Gadsden County Clinic,79 Lasalle Path,Quincy,Florida 32351,32351,"? MH SUMH ? OP PHDT RES TELE ? MSNH ? AT CBT CFT GT IDD IPT PTM TT ? CIT WI ? 
PVTN ? CLF MC MD MI OSF PI SF SMHA ? SS ? CJ CO SED SMI ? CM COOT DEC FPSY IMR 
IPC PRS SPS PEER ? NRT NSC STU TCC ? SMPD ? ADLT CHLD SNR YAD ? AH"
Flagler Hospital,400 Health Park Boulevard,Saint Augustine,Florida 32086,32086,"? MH SUMH ? HI PHDT ? PSY ? AT BMT CBT CFT DBT GT IDD IPT PTM TT ? CIT WI ? PVTN ? 
CLF CMHG MC MD MI PI SF SWFS VAF ? CO SMI ? CDM CM DEC ES FPSY ICM IPC SPS ? 
NRT NSC STU TCC ? SMON ? ADLT SNR YAD ? AH"
St Augustine Youth Services Inc,201 Simone Way,Saint Augustine,Florida 32086,32086,"? MH SUMH ? RES ? RTCC ? AT BMT CBT CFT DBT GT IPT PTM TT ? CIT ? PVTN ? CLF MD 
OSF PI SCJJ SEF SF SI SMHA SWFS ? PA ? SED ? CM FPSY PRS SPS ? SMON ? CHLD ? AH"
Bird Behavioral Services DBA Expanding Horizons,816 Pennsylvania Avenue,Saint Cloud,Florida 34769,34769,"? MH ? OP ? OMH ? AT BMT CBT CFT GT IPT TT ? PVTP ? CLF CSBG MD OSF PI SCJJ SEF 
SF SI SMHA SWFS ? SS ? PTSD ? CM PRS ? SMON ? ADLT CHLD SNR YAD ? SP"
Blackberry Center Behavioral Hospital,91 Beehive Circle,Saint Cloud,Florida 34769,34769,"? MH SUMH ? HI OP PHDT RES ? PSY ? CFT GT IPT PTM TT ? CIT WI ? PVTP ? MC MI PI SF 
VAF ? SE VET CO TRMA PTSD SMI ? STU TCC ? SMPD ? ADLT SNR YAD"
Transition House Inc,3115 Innovation Drive,Saint Cloud,Florida 34769,34769,"? MH SUMH ? OP PHDT TELE ? CMHC ? AT BMT CBT CFT DBT GT IDD IPT PTM TT ? PVTN ? 
CLF CMHG CSBG ITU MC MD MI OSF PI SCJJ SEF SF SI SMHA SWFS VAF ? SE GL VET MF CJ 
CO TRMA PTSD SMI ? CDM CM COOT DEC ES FPSY ICM IMR IPC PRS SPS PEER ? NRT STU 
TCC ? SMPD ? ADLT CHLD SNR YAD ? AH ? SP"
Transition House Inc,3800 5th Street,Saint Cloud,Florida 34769,34769,"? MH SUMH ? PHDT RES TELE ? RTCA ? AT BMT CBT CFT DBT GT IDD IPT PTM TT ? PVTN ? 
CLF CMHG MC MD OSF PI SCJJ SF SI SMHA SWFS VAF ? SE VET CO TRMA TBI PTSD SMI ? 
CDM CM COOT DEC ES FPSY ICM IMR IPC PRS SPS VRS PEER ? NRT STU TCC ? SMPD ? 
ADLT SNR YAD ? AH ? SP"
BayCare Health Systems Saint Anthonys Hospital,1200 7th Avenue,Saint Petersburg,Florida 33705,33705,"? MH SUMH ? HI TELE ? PSY ? AT BMT CBT DBT ECT GT IDD IPT PTM TT ? WI ? PVTN ? MC 
MD MI PI SF ? SE CO ALZ SMI ? CM DEC ES IMR LAD SPS ? NRT NSC STU TCC ? SMON ? 
ADLT SNR YAD ? AH"
Boley Centers Inc,445 31st Street North,Saint Petersburg,Florida 33713,33713,"? MH SUMH ? RES ? RTCA ? AT BMT GT IDD IPT PTM ? CIT ? PVTN ? VAF ? PA ? VET CO 
TRMA TBI PTSD ? CM HS IPC PRS SH PEER ? SMPD ? ADLT SNR YAD ? AH"
Markus Mittermayr,4123 37th Street North,Saint Petersburg,Florida 33714,33714,"? MH SUMH ? RES ? RTCA ? BMT CBT DBT GT IDD PTM TT ? CIT ? PVTN ? CLF CMHG CSBG 
ITU MC MD MI OSF PI SEF SF SI SMHA SWFS VAF ? PA SS ? TAY SE GL MF CJ CO HV TRMA 
PED PTSD SMI ? CM COOT ES FPSY HS ICM LAD PRS SEMP SH SPS VRS PEER ? NRT TCC 
? SMPD ? ADLT SNR YAD"
Saint Pete Behav Health Center Inc,433 4th Street North,Saint Petersburg,Florida 33701,33701,"? MH SUMH ? OP PHDT ? CMHC ? AT CBT CFT GT IPT PTM ? PVTP ? MC MD MI PI SF SI ? 
SMI ? COOT FPSY PRS ? SMPD ? ADLT CHLD SNR YAD ? SP F30 F70 F11"
Suncoast Center Inc,4024 Central Avenue,Saint Petersburg,Florida 33711,33711,"? MH SUMH ? OP ? OMH ? CBT CFT GT IDD IPT TT ? PVTN ? CLF MC MD MI OSF PI SCJJ 
SEF SF SI SMHA SWFS ? PA SS ? TAY CO TRMA PTSD SMI ? CM COOT LAD SPS PEER ? STU 
? SMON ? ADLT CHLD SNR YAD ? AH"
Suncoast Center Inc,4010 Central Avenue,Saint Petersburg,Florida 33711,33711,"? MH SUMH ? OP TELE ? OMH ? CBT CFT GT IDD IPT TT ? PVTN ? CLF MC MD MI OSF PI 
SCJJ SF SI SMHA SWFS ? PA SS ? TAY CO TRMA PTSD ? CM COOT FPSY SPS ? STU ? 
SMON ? ADLT CHLD SNR YAD ? AH"
Suncoast Center Inc Family Programs,1001 16th Street South,Saint Petersburg,Florida 33705,33705,"? MH ? OP ? OMH ? CFT GT IPT ? PVTN ? CLF MC MD MI OSF PI SCJJ SF SI SMHA SWFS ? 
PA ? FPSY ? SMON ? ADLT CHLD SNR YAD ? AH"
Aspire Health Partners Seminole Behavioral Healthcare,919 East 2nd Street,Sanford,Florida 32771,32771,"? MH SUMH ? HI OP PHDT RES TELE ? CMHC ? BMT CBT DBT GT IDD IPT PTM ? WI ? PVTN 
? CLF CMHG MC MD OSF PI SF SI SMHA VAF ? PA SS ? CJ CO SMI ? CM COOT FPSY HS IMR 
PRS SEMP SH PEER ? STU ? SMPD ? ADLT SNR YAD ? AH ? SP"
Bay Pines VA Healthcare System Sarasota VA CBOC,5682 Bee Ridge Road Suite 100,Sarasota,Florida 34233,34233,"? MH ? OP TELE ? CBT CFT GT IPT PTM TT ? WI ? VAMC ? VAF ? VET ? CDM CM DEC ES 
IMR IPC SPS PEER ? NRT NSC STU TCC ? SMON ? ADLT SNR YAD ? VO"
Coastal Behavioral Healthcare Inc Childrens Services,1750 17th Street Building G,Sarasota,Florida 34234,34234,"? MH SUMH ? OP TELE ? OMH ? CBT CFT IDD IPT ? PVTN ? CLF MD PI SF SMHA ? PA SS ? 
CM FPSY ? SMPD ? CHLD ? AH ? SP"
Coastal Behavioral Healthcare Inc Crisis Stabilization Unit,1451 10th Street,Sarasota,Florida 34236,34236,"? MH SUMH ? HI ? PSY ? GT IDD IPT PTM ? CIT WI ? PVTN ? CLF MD PI SF SMHA ? PA SS ? 
SMI ? CM FPSY ? SMON ? ADLT SNR YAD ? AH ? SP"
Coastal Behavioral Healthcare Inc Outpatient Psychiatric Services,1451 10th Street,Sarasota,Florida 34236,34236,"? MH SUMH ? OP TELE ? OMH ? PTM ? PVTN ? MC MD PI SF SMHA ? PA SS ? FPSY ? SMPD 
? ADLT SNR YAD ? AH ? SP"
Florida Center for Early Childhood,4620 17th Street,Sarasota,Florida 34235,34235,"? MH ? OP ? OMH ? AT CBT CFT DBT GT IPT TT ? CIT ? PVTN ? CLF MD OSF PI SEF SF SI 
SMHA SWFS ? PA SS ? TRMA ? FPSY ? SMON ? CHLD ? AH ? SP F67"
Jewish Family and Childrens Serv of Suncoast Inc,2688 Fruitville Road,Sarasota,Florida 34237,34237,"? MH SUMH ? OP ? OMH ? CBT CFT GT IPT TT ? CIT ? PVTN ? CLF MC MD MI OSF PI SF SI 
SMHA VAF ? SE VET ADM MF CJ CO TRMA ALZ PTSD ? CM ES FPSY HS ICM SPS ? SMON ? 
ADLT CHLD SNR YAD ? AH ? SP"
Jewish Family and Childrens Serv of Suncoast Inc,1753 Ringling Boulevard,Sarasota,Florida 34236,34236,"? MH SUMH ? OP ? OMH ? CBT CFT GT IPT TT ? CIT ? PVTN ? CLF MC MD PI SF SI ? SS ? 
CM COOT ES FPSY HS SPS ? SMON ? ADLT CHLD SNR YAD ? AH ? SP"
Bay Pines VA Healthcare System Sebring VA CBOC,5901 U.S. Highway 25 South,Sebring,Florida 33870,33870,"? MH ? OP TELE ? CBT CFT GT IPT PTM TT ? WI ? VAMC ? VAF ? VET ? CDM CM DEC ES 
IMR SPS PEER ? NRT NSC STU TCC ? SMON ? ADLT SNR YAD ? VO"
Tikvah Lake Recovery,6549 Rajol Drive,Sebring,Florida 33875,33875,"? MH SUMH ? RES ? RTCA ? AT BMT CBT CFT DBT IDD IPT TT ? CIT ? PVTP ? SF ? SE CO 
TRMA PTSD SMI ? CM DEC ICM IPC ? NRT TCC ? SMPD ? ADLT SNR YAD"
Boley Morningside Safe Haven,9220 102nd Avenue North,Seminole,Florida 33777,33777,"? MH SUMH ? RES ? RTCA ? AT BMT GT IDD IPT PTM ? CIT ? PVTN ? VAF ? PA ? VET CO 
TRMA TBI PTSD SMI ? CM HS IPC PRS SH PEER ? SMPD ? ADLT SNR YAD ? AH"
Guest House Ocala,3230 NE 55th Avenue,Silver Springs,Florida 34488,34488,"? MH SUMH ? OP PHDT RES TELE ? RTCA ? AT CBT CFT DBT GT IDD IPT PTM TT ? PVTP ? PI 
SF ? TRMA PTSD ? CM ? SMPD ? ADLT YAD"
Springbrook Hospital,7007 Grove Road,Spring Hill,Florida 34609,34609,"? MH SUMH ? HI PHDT ? PSY ? AT BMT CBT GT IPT PTM ? WI ? PVTP ? MC MI PI SF VAF ? 
SE CO TRMA PTSD SMI ? CM DEC FPSY SPS ? NRT STU TCC ? SMPD ? ADLT SNR YAD ? AH 
? SP"
Springbrook Partial Hosp Program,7074 Grove Road,Spring Hill,Florida 34609,34609,"? MH SUMH ? PHDT ? PH ? CBT CFT DBT GT IDD IPT PTM TT ? PVTP ? MC MD PI SF SI ? CO 
SMI ? SPS ? STU ? SMPD ? ADLT SNR YAD"
Meridian Behavioral Healthcare Inc Bradford County Clinic,945 Grand Street,Starke,Florida 32091,32091,"? MH SUMH ? OP TELE ? OMH ? AT BMT CBT CFT DBT GT IDD IPT PTM TT ? WI ? PVTN ? 
CLF CMHG CSBG MC MD MI OSF PI SCJJ SEF SF SI SMHA SWFS VAF ? SS ? VET MF CJ CO 
HV SED SMI ? CM COOT FPSY SPS ? STU TCC ? SMON ? ADLT CHLD SNR YAD ? AH"
Transition House of Starke,17356 U.S. Highway 301 North,Starke,Florida 32091,32091,"? MH SUMH ? PHDT RES TELE ? MSNH ? AT BMT CBT CFT DBT GT IDD IPT PTM TT ? PVTN ? 
MC MD PI SF SI ? CM DEC FPSY ? NSC STU TCC ? SMPD ? ADLT SNR YAD ? SP"
New Horizons of the Treasure Coast Inc Stuart Outpatient Office,1111 SE Federal Highway Suite 230,Stuart,Florida 34994,34994,"? MH SUMH ? OP TELE ? CMHC ? AT BMT CBT GT IDD IPT PTM TT ? CIT ? PVTN ? CLF 
CMHG MC MD MI OSF PI SCJJ SF SI SMHA ? PA ? CO SMI ? CDM CM COOT ES HS ICM PRS 
SEMP SH SPS ? NRT STU TCC ? SMON ? ADLT CHLD SNR YAD ? AH ? F19 F81"
Suncoast Mental Health Center Stuart,850 NW Federal Highway Unit 125,Stuart,Florida 34994,34994,"? MH SUMH ? OP ? CMHC ? AT BMT CBT CFT DBT IPT PTM TT ? PVTN ? MD PI SEF SF SI 
SWFS ? SE CO TRMA PTSD SED SMI ? ACT CM COOT FPSY SPS ? STU ? SMPD ? ADLT CHLD 
SNR YAD ? AH ? SP"
LifeStream Behavioral Center Phoenix House,411 South U.S. 301,Sumterville,Florida 33585,33585,"? MH SUMH ? RES ? RTCA ? PTM ? PVTN ? CLF CMHG MC MD PI SF SMHA ? SS ? CO TRMA 
PTSD ? PRS ? STU ? SMON ? ADLT SNR YAD ? AH"
Apalachee Center Inc Eastside Psychiatric Hospital,"2634 Capital Circle NE, 2nd Floor",Tallahassee,Florida 32308,32308,"? MH SUMH ? HI ? PSY ? AT CBT GT IDD IPT PTM TT ? CIT WI ? PVTN ? CLF MC MD MI OSF 
PI SF SMHA ? SE CO SMI ? CM IMR PRS SPS PEER ? NRT NSC STU TCC ? SMON ? ADLT 
CHLD SNR YAD ? AH"
Apalachee Center Inc Homeless Project/Drop In Center,"2634 Capital Circle NE, Building C",Tallahassee,Florida 32308,32308,"? MH SUMH ? OP TELE ? OMH ? AT CBT GT IDD IPT PTM TT ? CIT WI ? PVTN ? SF ? SS ? CO 
SMI ? CM COOT IMR PRS SPS PEER ? NSC STU ? SMPD ? ADLT SNR YAD ? AH"
Apalachee Center Inc Leon County Clinic,2634 Capital Circle NE,Tallahassee,Florida 32308,32308,"? MH SUMH ? OP PHDT TELE ? CMHC ? AT CBT CFT GT IDD IPT PTM TT ? CIT WI ? PVTN ? 
MC MD PI SF SI SMHA ? SS ? CJ CO SED SMI ? ACT CM COOT IMR IPC PRS SPS PEER ? 
NSC STU ? SMPD ? ADLT CHLD SNR YAD ? AH"
Apalachee Center Inc PATH Crisis Stabilization Unit,"2634 Capital Circle NE, 1st Floor",Tallahassee,Florida 32308,32308,"? MH SUMH ? RES ? ORES ? AT CBT GT IDD IPT PTM TT ? CIT WI ? PVTN ? CLF MD MI OSF 
PI SF SMHA ? SS ? CO SED SMI ? CM IMR PRS SPS PEER ? NRT NSC STU TCC ? SMON ? 
ADLT CHLD SNR YAD ? AH"
Apalachee Center Inc Residential G,2634 Capital Circle NE Building G,Tallahassee,Florida 32308,32308,"? MH SUMH ? RES TELE ? RTCA ? AT CBT GT IDD IPT PTM TT ? CIT ? PVTN ? MC MD OSF ? 
CJ CO SMI ? CM IMR PRS SPS PEER ? NRT NSC STU ? SMPD ? ADLT SNR YAD ? AH"
Apalachee Center Inc Residential K,2634 Capital Circle NE K-Upper Level,Tallahassee,Florida 32308,32308,"? MH SUMH ? RES TELE ? RTCA ? AT CBT GT IDD IPT PTM TT ? CIT ? PVTN ? MC MD OSF ? 
CJ CO SMI ? CM IMR PRS SPS PEER ? NRT NSC STU ? SMPD ? ADLT SNR YAD ? AH"
Apalachee Center Inc SRT,2634 Capital Circle NE Suite B,Tallahassee,Florida 32308,32308,"? MH SUMH ? RES ? RTCA ? AT CBT GT IDD IPT PTM TT ? CIT WI ? PVTN ? OSF ? SS ? CJ 
CO SMI ? CM IMR PRS SPS PEER ? NRT NSC STU TCC ? SMON ? ADLT SNR YAD ? AH"
Camelot Community Care Inc,1000 West Tharpe Street Suite 7,Tallahassee,Florida 32303,32303,"? MH SUMH ? OP ? CMHC ? BMT CBT IPT PTM TT ? PVTN ? MD SF SWFS ? FPSY TPC ? 
SMPD ? CHLD SNR"
Childrens Home Society of Florida Big Bend Region Tallahassee Area,1801 Miccosukee Commons Drive,Tallahassee,Florida 32308,32308,"? MH ? OP TELE ? OMH ? AT BMT CBT CFT GT IPT TT ? PVTN ? MD ? TRMA PTSD ? COOT 
FPSY ? SMPD ? ADLT CHLD SNR YAD"
Florida Therapy Services Tallahassee,1713 Mahan Drive,Tallahassee,Florida 32308,32308,"? MH SUMH ? OP TELE ? OMH ? AT BMT CBT CFT DBT GT IPT PTM TT ? PVTP ? MC MD MI PI 
SF SI SWFS VAF ? TAY SE TRMA PTSD SED SMI ? CM COOT FPSY PRS SPS ? STU ? SMPD ? 
ADLT CHLD SNR YAD ? AH ? SP"
Malcolm Randall VAMC Tallahassee Clinic,1607 Saint James Court,Tallahassee,Florida 32308,32308,"? MH SUMH ? OP TELE ? AT BMT CBT CFT DBT GT IDD IPT PTM TT ? CIT WI ? VAMC ? VAF ? 
SE VET CO ALZ PTSD SMI ? CDM CM DEC ES ICM IPC PRS SH SPS PEER ? NRT NSC STU 
TCC ? SMPD ? ADLT SNR YAD ? VO ? AH"
Tallahassee Memorial Hospital Behavioral Health Center,1616 Physicians Drive,Tallahassee,Florida 32308,32308,"? MH SUMH ? HI OP TELE ? PSY ? AT CBT CFT ECT GT IDD IPT PTM TT ? CIT WI ? PVTN ? 
MC MD MI PI SF SI ? CO ? DEC ES FPSY IPC ? NRT NSC STU TCC ? SMON ? ADLT CHLD 
SNR YAD ? AH"
Agency for Community Trt Servs ACTS/Drew Park Trans Housing,4403 West MLK Jr Boulevard,Tampa,Florida 33614,33614,"? MH ? RES ? RTCA ? AT BMT CBT GT IDD IPT PTM ? PVTN ? CLF CSBG MC MD OSF PI SF ? 
SS ? VET CO ? CM ES FPSY HS IPC PRS SH PEER ? SMPD ? ADLT SNR YAD ? AH"
Camelot Community Care Inc Tampa,1410 Tech Boulevard,Tampa,Florida 33619,33619,"? MH SUMH ? OP ? CMHC ? AT BMT CBT CFT GT IDD IPT PTM TT ? PVTN ? CMHG CSBG MD 
PI SCJJ SF SMHA SWFS ? PA SS ? TAY GL CJ CO HV TRMA PTSD SED SMI ? CM FPSY SPS 
TPC ? SMPD ? CHLD YAD"
Center for Discovery Tampa,2111 West Swann Avenue Suite 202,Tampa,Florida 33606,33606,"? MH SUMH ? OP ? PH ? AT BMT CBT CFT DBT GT IDD IPT PTM TT ? PVTP ? PI SF ? GL CO 
TRMA PED PTSD ? CM DEC FPSY ? SMPD ? ADLT CHLD YAD"
Families First of Florida,"4902 Eisenhower Boulevard, Suite 315",Tampa,Florida 33634,33634,"? MH ? OP TELE ? OMH ? BMT CBT CFT GT IPT PTM TT ? PVTP ? MD PI SCJJ SF SI SMHA 
SWFS ? TAY SED ? CM COOT SPS TPC ? SMPD ? ADLT CHLD SNR YAD ? AH ? SP"
Mental Health Resource Center (MHRC) FACT/Tampa,3104 West Waters Avenue Suite 205,Tampa,Florida 33614,33614,"? MH SUMH ? OP ? OMH ? CBT IDD PTM ? WI ? PVTN ? CMHG SMHA ? SMI ? ACT IMR SH ? 
SMPD ? ADLT SNR YAD ? AH"
Northside Behavioral Health Center,12512 Bruce B Downs Boulevard,Tampa,Florida 33612,33612,"? MH SUMH ? OP ? CMHC ? CBT CFT GT IDD IPT PTM TT ? CIT WI ? PVTN ? CLF CMHG MC 
MD OSF PI SF SI SMHA ? CO PTSD SED SMI ? ACT CM COOT DEC FPSY SEMP SPS ? STU 
TCC ? SMPD ? ADLT CHLD SNR YAD ? AH ? SP"
Saint Josephs Behav Health Ctr,4918 North Habana Avenue,Tampa,Florida 33614,33614,"? MH SUMH ? HI ? PSY ? AT IPT PTM ? CIT ? PVTN ? CLF CMHG CSBG ITU MC MD MI OSF PI 
SCJJ SF SI SMHA SWFS VAF ? SE CO TRMA SMI ? CDM CM SPS ? NRT STU TCC ? SMON ? 
ADLT CHLD SNR YAD ? AH"
Success 4 Kids and Families Inc,2902 North Armenia Avenue Suite 200,Tampa,Florida 33607,33607,"? MH ? OP ? OMH ? CFT IPT TT ? PVTN ? CLF CSBG MD OSF SF SMHA SWFS ? PA ? TAY 
SED ? CM COOT ICM ? SMON ? ADLT CHLD YAD ? AH ? SP"
Tampa Community Hospital,6001 Webb Road,Tampa,Florida 33615,33615,"? MH SUMH ? HI OP ? PSY ? AT CBT CFT ECT GT IDD IPT PTM ? WI ? PVTP ? MC MD MI PI SF 
SI VAF ? SMI ? COOT ? SMON ? ADLT SNR YAD ? AH ? SP"
Malcolm Randall VAMC The Villages Clinic,8900 SE 165th Mulberry Lane Suite 240,The Villages,Florida 32162,32162,"? MH SUMH ? OP TELE ? BMT CBT GT IPT PTM TT ? CIT WI ? VAMC ? MC MD MI PI SI VAF ? 
VET PTSD SMI ? CDM IPC SH SPS PEER ? NRT NSC STU TCC ? SMPD ? ADLT SNR YAD ? VO 
? AH"
Meridian Behavioral Healthcare Inc Gilchrist County Clinic,728 NE 7th Street,Trenton,Florida 32693,32693,"? MH SUMH ? OP TELE ? OMH ? AT BMT CBT CFT DBT GT IDD IPT PTM TT ? WI ? PVTN ? 
CLF CMHG CSBG MC MD MI OSF PI SCJJ SEF SF SI SMHA SWFS VAF ? SS ? TAY VET MF CJ 
CO HV SED SMI ? CM COOT FPSY SPS ? STU TCC ? SMON ? ADLT CHLD SNR YAD ? AH"
LifeStream Behavioral Center Our Turning Point Ranch,19826 East 5th Street,Umatilla,Florida 32784,32784,"? MH ? RES ? RTCC ? BMT CBT GT IPT PTM TT ? PVTN ? CMHG MD PI SF SMHA SWFS ? SS 
? TRMA PTSD ? STU ? SMON ? CHLD ? AH"
Jewish Family and Childrens Serv of Suncoast Inc,777 Shamrock Boulevard,Venice,Florida 34293,34293,"? MH SUMH ? OP ? OMH ? CBT CFT GT IPT TT ? PVTN ? CLF MC MD PI SF SI ? SS ? SE ALZ 
? CM ES FPSY HS SPS ? SMON ? ADLT CHLD SNR YAD ? AH"
Cleveland Clinic Indian River Hospital Behavioral Health Center,1190 37th Street,Vero Beach,Florida 32960,32960,"? MH SUMH ? HI OP TELE ? PSY ? AT CBT DBT ECT GT IDD IPT PTM TT ? CIT WI ? PVTN ? 
CLF MC MD MI PI SF SI ? SE CO TRMA SED SMI ? SPS ? NRT NSC STU ? SMON ? ADLT CHLD 
SNR YAD ? AH"
New Horizons of the Treasure Coast Inc,"1910 82nd Avenue, Suite 202",Vero Beach,Florida 32966,32966,"? MH SUMH ? OP TELE ? CMHC ? AT BMT CBT DBT IDD IPT PTM TT ? CIT ? PVTN ? CLF 
CMHG MC MD MI OSF PI SCJJ SF SI SMHA ? PA ? CO SMI ? CDM CM COOT FPSY HS ICM 
IMR PRS SH SPS ? NRT NSC STU TCC ? SMON ? ADLT CHLD SNR YAD ? AH ? F19"
Suncoast Mental Health Center,1456 Old Dixie Highway,Vero Beach,Florida 32960,32960,"? MH SUMH ? OP ? CMHC ? AT BMT CBT CFT DBT GT IPT PTM TT ? PVTN ? MD PI SEF SF SI 
SWFS ? CO TRMA PTSD SED SMI ? CM COOT FPSY SPS ? STU ? SMPD ? ADLT CHLD SNR 
YAD ? AH ? SP F19"
Peace River Center Wauchula Office,213 East Orange Street,Wauchula,Florida 33873,33873,"? MH SUMH ? OP ? OMH ? AT CBT CFT GT IDD IPT PTM TT ? PVTN ? CLF MC MD MI OSF PI 
SCJJ SF SI SMHA SWFS ? TRMA PTSD ? FPSY SPS ? STU ? SMPD ? ADLT CHLD SNR YAD ? 
AH"
Cotler Children and Family Services,"11120 South Crown Way, Suite 1",Wellington,Florida 33414,33414,"? MH ? OP ? OMH ? BMT CBT CFT DBT IDD IPT TT ? PVTP ? MC MD MI PI SF ? SS ? CDM 
COOT FPSY SPS ? STU TCC ? SMPD ? ADLT CHLD SNR YAD ? SP"
Boys Town South Florida,1655 Palm Beach Lakes Boulevard Suite 102,West Palm Beach,Florida 33401,33401,"? MH ? OP ? OMH ? BMT CBT CFT IPT ? PVTN ? CLF MD MI PI SCJJ SF SWFS ? COOT ? 
SMPD ? CHLD ? AH"
Childrens Place at Homesafe,4826 North Haverhill Road,West Palm Beach,Florida 33417,33417,"? MH SUMH ? RES TELE ? RTCC ? AT BMT CBT CFT DBT GT IDD IPT PTM TT ? CIT ? PVTN ? 
CSBG MD MI PI SF SI SMHA SWFS ? CO TRMA PTSD SED ? FPSY HS LAD PRS SPS ? SMON 
? CHLD"
Jerome Golden Ctr for Behav Health Synergy,4393 Windsor Avenue,West Palm Beach,Florida 33407,33407,"? MH SUMH ? OP ? OMH ? GT IDD PTM ? CIT ? PVTN ? CLF MC MD OSF PI SF SI SMHA ? PA 
? CO SMI ? CM COOT PRS SEMP SPS ? STU ? SMPD ? ADLT SNR YAD ? AH ? SP F19"
JFK Medical Center North Campus,2201 45th Street,West Palm Beach,Florida 33407,33407,"? MH ? HI OP PHDT TELE ? PSY ? AT BMT CBT CFT DBT ECT GT IDD IPT PTM TT ? WI ? 
PVTP ? CLF CMHG CSBG ITU MC MD MI OSF PI SEF SF SI SMHA SWFS VAF ? TAY SE VET 
ADM MF CO TRMA PTSD SED SMI ? ACT CM COOT DEC ES FPSY ICM IPC LAD SPS ? NRT 
NSC STU TCC ? SMON ? ADLT CHLD SNR YAD ? AH"
Multilingual Psychotherapy Center,"1639 Forum Place, Suite 7",West Palm Beach,Florida 33401,33401,"? MH ? OP ? OMH ? BMT CBT CFT GT IDD IPT PTM TT ? PVTP ? MD SF SI ? TAY PTSD SED 
SMI ? CM FPSY ? SMPD ? ADLT CHLD YAD ? SP F19 F28 F67"
Relax Mental Healthcare,2809 Poinsettia Avenue Suites C-D,West Palm Beach,Florida 33407,33407,"? MH SUMH ? OP TELE ? OMH ? BMT CBT CFT GT IDD IPT PTM ? WI ? PVTP ? PI SF ? SS ? 
CO TRMA PTSD ? CDM CM COOT DEC ES FPSY IMR IPC PRS VRS ? NRT NSC STU TCC ? 
SMPD ? ADLT SNR YAD"
Remedy Therapy,"3309 Northlake Boulevard, Suite 101",West Palm Beach,Florida 33403,33403,"? MH ? OP TELE ? OMH ? BMT CBT CFT DBT GT IPT PTM TT ? PVTP ? MC PI SF ? TRMA PED 
? SMPD ? ADLT CHLD SNR YAD ? SP"
Saint Marys Medical Center Institute for Mental Health,901 45th Street,West Palm Beach,Florida 33407,33407,"? MH SUMH ? HI ? PSY ? AT BMT CBT CFT GT IPT PTM ? WI ? PVTP ? MC MD PI SF VAF ? 
TAY SMI ? CM FPSY ? NRT STU TCC ? SMON ? ADLT SNR YAD ? AH ? SP F19"
Winter Haven Hospital Inc Center for Behavioral Health,1201 1st Street South,Winter Haven,Florida 33880,33880,"? MH SUMH ? OP ? OMH ? BMT CBT CFT DBT GT IDD IPT PTM TT ? CIT ? PVTN ? CLF CMHG 
MC MD MI OSF PI SEF SF SI SMHA SWFS VAF ? GL PTSD SED SMI ? CM COOT FPSY HS ICM 
IMR PRS SEMP SPS PEER ? NSC ? SMON ? ADLT CHLD SNR YAD ? AH ? SP"
Advent Health Medical Group (AHMG) Psychiatry at Winter Park,1573 West Fairbanks Avenue Suite 100,Winter Park,Florida 32789,32789,"? MH ? OP ? OMH ? AT BMT CBT CFT DBT GT IPT PTM TT ? PVTN ? MC MI PI SF ? CDM DEC 
FPSY IMR ? STU TCC ? SMON ? ADLT CHLD SNR YAD ? AH"
Boys Town Central Florida,7001 University Boulevard,Winter Park,Florida 32792,32792,"? MH ? OP ? OMH ? BMT CBT CFT IPT ? PVTN ? CLF MD MI PI SCJJ SF SWFS ? COOT ? 
SMPD ? CHLD ? AH"
LaAmistad Adult Program,1600 Dodd Road,Winter Park,Florida 32792,32792,"? MH SUMH ? OP PHDT RES TELE ? RTCA ? AT BMT CBT CFT DBT GT IDD IPT PTM TT ? CIT 
? PVTP ? MI PI SF ? TAY GL MF CO TRMA PTSD ? CM DEC ES FPSY IMR IPC PRS SPS ? NRT 
? SMPD ? ADLT SNR YAD ? AH"
Starting Point Behavioral Healthcare,463142 State Road 200,Yulee,Florida 32097,32097,"? MH SUMH ? OP ? CMHC ? BMT CBT CFT DBT GT IDD IPT PTM TT ? CIT WI ? PVTN ? CLF 
CMHG CSBG MC MD MI OSF PI SCJJ SF SI SMHA SWFS ? PA SS ? GL CJ CO TRMA PTSD SMI 
? CM COOT DEC FPSY HS ICM IPC PRS SPS PEER ? NRT NSC STU TCC ? SMPD ? ADLT 
CHLD SNR YAD ? AH ? SP"
