Name,Address,City,State,Zip,Services
Legacy Behavioral Health Services Cook County Mental Health,1905 South Hutchinson Avenue,Adel,Georgia 31620,31620,"? MH SUMH ? OP TELE ? CMHC ? CBT CFT GT IDD IPT PTM TT ? WI ? OSG ? CLF MC MD MI 
PI SF SI SMHA SWFS VAF ? PA SS ? TAY SE CO TRMA PTSD SED SMI ? ACT CM COOT FPSY 
HS PRS SEMP SH SPS PEER ? STU ? SMPD ? ADLT CHLD SNR YAD ? AH"
Aspire BHDD Albany Area CSB,601 11th Avenue,Albany,Georgia 31701,31701,"? MH SUMH ? OP RES TELE ? MSNH ? AT BMT CBT CFT DBT GT IDD IPT PTM TT ? WI ? LMG 
? CLF CMHG MC MD MI OSF PI SCJJ SF SI SMHA SWFS VAF ? PA SS ? SE CO SMI ? ACT CM 
COOT FPSY ICM PRS SPS PEER ? SMON ? ADLT SNR YAD ? SP"
Unison Behavioral Health Bacon BHS,108 East 5th Street,Alma,Georgia 31510,31510,"? MH SUMH ? OP TELE ? OMH ? BMT CBT CFT DBT GT IDD IPT PTM TT ? CIT WI ? OSG ? MC 
MD PI SCJJ SF SI SMHA SWFS ? PA SS ? CO SED ? CM COOT DEC ES FPSY HS ICM PRS 
SEMP SH SPS ? TCC ? SMPD ? ADLT CHLD SNR YAD"
Middle Flint Behavioral Healthcare Breezeway Adult MH Day Services,100 Head Avenue,Americus,Georgia 31719,31719,"? MH SUMH ? OP TELE ? OMH ? AT GT IPT PTM TT ? CIT ? OSG ? CLF CMHG CSBG ITU MC 
MD MI OSF PI SCJJ SF SI SMHA VAF ? SS ? SE GL VET ADM MF CJ HV TRMA PTSD SMI ? 
DEC ES PRS SPS PEER ? SMPD ? ADLT SNR YAD ? AH"
Middle Flint Behavioral Healthcare Family Enrichment Center,415 North Jackson Street,Americus,Georgia 31709,31709,"? MH SUMH ? OP TELE ? OMH ? AT BMT CBT CFT DBT GT IDD IPT PTM TT ? CIT WI ? OSG ? 
CLF CMHG CSBG ITU MC MD MI OSF PI SCJJ SEF SF SI SMHA SWFS VAF ? SS ? TAY SE GL 
VET ADM MF CJ CO HV TRMA PED PTSD SED SMI ? CDM CM COOT FPSY PRS SH SPS PEER 
? STU ? SMPD ? ADLT CHLD SNR YAD ? AH"
Advantage Behavioral Health Systems Athens/Clarke Clinic,240 Mitchell Bridge Road,Athens,Georgia 30606,30606,"? MH SUMH ? OP PHDT RES TELE ? MSNH ? AT BMT CBT CFT DBT GT IDD IPT PTM TT ? CIT 
WI ? SMA ? CLF CMHG CSBG MC MD MI OSF PI SCJJ SEF SF SI SMHA SWFS VAF ? PA SS ? 
CJ CO HV TRMA SMI ? ACT CM COOT DEC ES FPSY HS PRS SEMP SH SPS VRS PEER ? STU 
? SMPD ? ADLT CHLD SNR YAD"
Advantage Behavioral Health Systems I CAN Peer Support Program,240 Mitchell Bridge Road,Athens,Georgia 30606,30606,"? MH SUMH ? OP TELE ? CMHC ? DBT GT IDD PTM TT ? CIT ? OSG ? MC MD SF SMHA ? PA 
SS ? CO SMI ? CM COOT DEC ES IMR PRS SPS VRS PEER ? SMPD ? ADLT SNR YAD ? AH"
Advantage Behavioral Health Systems Youth Services,240 Mitchell Bridge Road,Athens,Georgia 30606,30606,"? MH SUMH ? OP TELE ? CMHC ? AT BMT CBT CFT DBT GT IDD IPT PTM TT ? CIT ? SMA ? 
CLF CMHG CSBG MC MD MI OSF PI SCJJ SEF SF SI SMHA SWFS ? PA SS ? TAY GL CJ CO 
TRMA PED PTSD SED ? CM COOT ES FPSY HS PRS SEMP SH SPS TPC PEER ? SMON ? 
CHLD YAD"
Charlie Norwood VAMC Athens Clinic,9249 Highway 29 South Suite A,Athens,Georgia 30601,30601,"? MH SUMH ? OP TELE ? CBT CFT DBT GT IPT PTM TT ? CIT WI ? VAMC ? MC MD MI PI SI 
VAF ? VET MF CO TRMA PTSD ? CDM CM DEC ES FPSY IMR IPC LAD SPS PEER ? NRT NSC 
STU TCC ? SMON ? ADLT SNR YAD ? VO"
Adamsville Regional Health Center,3700 Martin Luther King Jr Drive,Atlanta,Georgia 30331,30331,"? MH SUMH ? OP TELE ? OMH ? BMT CBT CFT DBT GT IPT PTM TT ? PVTN ? CLF CMHG MC 
MD PI SF SI SMHA SWFS ? PA SS ? TAY GL MF CJ CO TRMA PTSD SED SMI ? CM COOT FPSY 
IPC SPS ? SMON ? CHLD YAD"
Anchor Hospital,5454 Yorktowne Drive,Atlanta,Georgia 30349,30349,"? MH SUMH ? HI OP PHDT ? PSY ? AT BMT CBT CFT GT IDD IPT PTM TT ? CIT WI ? PVTP ? 
MC MI PI SF SI VAF ? SE VET ADM CO TRMA PTSD SED SMI ? CDM CM COOT DEC ES FPSY 
IPC SPS ? NRT NSC STU TCC ? SMPD ? ADLT CHLD SNR YAD ? AH"
Atlanta Medical Center Behavioral Health Services,303 Parkway Drive NE,Atlanta,Georgia 30312,30312,"? MH SUMH ? HI ? PSY ? AT BMT CBT CFT GT IPT PTM TT ? CIT WI ? PVTN ? MC MD MI PI SF 
SI ? SE CO ALZ SMI ? CM DEC ES FPSY HS PRS SPS PEER ? NRT STU TCC ? SMON ? ADLT 
SNR YAD ? AH"
Berman Center,"1200 Ashwood Parkway, Suite 400",Atlanta,Georgia 30338,30338,"? MH SUMH ? OP TELE ? OMH ? CBT CFT DBT GT IPT TT ? PVTP ? PI SF ? SS ? CO TRMA 
PTSD ? ACT CM COOT DEC ES FPSY ICM PRS SPS ? SMPD ? ADLT CHLD SNR YAD"
Bethany Christian Services of Georgia Inc,6645 Peachtree Dunwoody Road NE,Atlanta,Georgia 30328,30328,"? MH SUMH ? OP TELE ? OMH ? BMT CBT CFT IPT PTM TT ? CIT ? PVTN ? CLF CMHG MD 
OSF PI SCJJ SEF SF SI SMHA SWFS ? TAY GL CO TRMA PED PTSD SED ? COOT FPSY SPS 
TPC ? SMON ? ADLT CHLD SNR YAD ? SP"
Breakthrough Recovery Outreach,3648 Chamblee Tucker Road Suite F,Atlanta,Georgia 30341,30341,"? MH SUMH ? OP PHDT RES ? MSNH ? AT CBT CFT DBT GT IDD IPT PTM TT ? PVTP ? FQHC 
? MD PI SF SI ? CO ? CM COOT HS IPC PRS SH SPS PEER ? NSC STU TCC ? SMPD ? ADLT 
CHLD SNR YAD ? AH"
CHRIS 180 Inc / Child and Adolescent Family Center,2805 Metropolitan Parkway SW,Atlanta,Georgia 30349,30349,"? MH SUMH ? OP TELE ? OMH ? BMT CBT GT IDD IPT PTM TT ? PVTN ? CLF CMHG CSBG 
MC MD PI SF SI SMHA SWFS ? PA SS ? TAY GL MF CJ CO TRMA PTSD SED SMI ? CM COOT 
FPSY IPC SPS ? SMON ? CHLD YAD ? SP"
CHRIS 180 Inc /CHRIS Counseling Center,1017 Fayetteville Road Suite B,Atlanta,Georgia 30316,30316,"? MH SUMH ? OP TELE ? OMH ? AT BMT CBT CFT DBT GT IPT PTM TT ? PVTN ? FQHC ? CLF 
CMHG CSBG MC MD OSF PI SCJJ SF SMHA SWFS ? SS ? TAY GL CO TRMA PTSD SED ? CM 
COOT ES FPSY HS PRS SEMP SH SPS TPC PEER ? STU ? SMPD ? ADLT CHLD SNR YAD ? 
AH"
DeKalb CSB Crossroads Program,23 Warren Street SE,Atlanta,Georgia 30317,30317,"? MH SUMH ? OP PHDT ? CMHC ? CBT DBT GT IDD PTM ? CIT ? LMG ? CLF CMHG CSBG MC 
MD OSF SCJJ SF SI SMHA SWFS ? SE CO TRMA PTSD SMI ? DEC HS IMR SEMP SPS VRS 
PEER ? STU ? SMPD ? ADLT SNR YAD ? AH"
DeKalb CSB North DeKalb Mental Health Center,3807 Clairmont Road,Atlanta,Georgia 30341,30341,"? MH SUMH ? OP PHDT ? CMHC ? CBT CFT DBT GT IDD IPT PTM TT ? CIT ? LMG ? CLF 
CMHG CSBG MC MD OSF SCJJ SF SI SMHA SWFS ? TAY SE CO TRMA PTSD SED SMI ? CM 
COOT DEC FPSY HS IMR SPS ? STU ? SMPD ? ADLT CHLD SNR YAD ? AH"
DeKalb CSB The Kirkwood Center,23 Warren Street SE Atlanta,Georgia 30317,Phone: (404) 370-7474,,"? MH SUMH ? OP PHDT ? CMHC ? CBT CFT DBT GT IDD IPT PTM TT ? CIT ? LMG ? CLF 
CMHG CSBG MC MD OSF SCJJ SF SI SMHA SWFS ? TAY SE CO TRMA PTSD SMI ? CM COOT 
DEC FPSY HS IMR PRS SEMP SPS VRS PEER ? STU ? SMPD ? ADLT SNR YAD ? AH"
Emory Clinic Brain Health Center Department of Psychiatry,12 Executive Park Drive,Atlanta,Georgia 30329,30329,"? MH SUMH ? OP TELE ? OMH ? BMT CBT CFT DBT GT IPT PTM TT ? PVTN ? MC MD MI PI 
SF ? SE GL VET ADM MF CJ TRMA TBI PTSD ? SMON ? ADLT CHLD SNR YAD ? AH"
Emory Healthcare Veterans Program,"12 Executive Park Drive NE, 3rd Floor",Atlanta,Georgia 30329,30329,"? MH ? OP PHDT TELE ? MSNH ? AT BMT CBT CFT DBT GT IPT PTM TT ? PVTN ? MC PI SF ? 
PA ? VET ADM MF TRMA TBI PTSD ? CM DEC FPSY ICM ? SMPD ? ADLT SNR YAD"
Families First Inc,80 Joseph E Lowery Boulevard NW,Atlanta,Georgia 30314,30314,"? MH SUMH ? OP ? OMH ? AT BMT CBT CFT DBT GT IDD IPT TT ? PVTN ? CLF CMHG CSBG 
OSF PI SF SI SMHA ? SS ? COOT FPSY ? SMON ? ADLT CHLD SNR YAD"
Grady Behavioral Health Center Grady Health Systems,10 Park Place SE,Atlanta,Georgia 30303,30303,"? MH SUMH ? OP ? OMH ? CBT CFT DBT GT IPT PTM TT ? WI ? PVTN ? CLF CMHG CSBG MC 
MD OSF PI SF SI SMHA ? SE GL CO TRMA PTSD SMI ? ACT CM FPSY ICM IPC SPS ? STU 
TCC ? SMON ? ADLT SNR YAD ? AH"
Grady Memorial Hospital Corporation Department of Psychiatry,80 Jesse Hill Jr Drive SE Atlanta,Georgia 30303,Phone: (404) 616-4784,,"? MH SUMH ? HI ? PSY ? AT CBT DBT GT IDD IPT PTM TT ? WI ? PVTN ? CLF CMHG CSBG 
MC MD OSF PI SF SMHA VAF ? PA SS ? CO SMI ? NRT NSC STU TCC ? SMON ? ADLT SNR 
YAD ? AH ? SP"
Hillside Inc,690 Courtenay Drive NE,Atlanta,Georgia 30306,30306,"? MH SUMH ? OP PHDT RES ? RTCC ? AT BMT CBT CFT DBT GT IPT PTM TT ? PVTN ? CLF 
CMHG MD MI OSF PI SEF SF SI SMHA SWFS ? GL TRMA PED PTSD SED ? CM ES FPSY TPC 
? SMON ? CHLD ? AH"
Laurel Heights Hospital,934 Briarcliff Road NE,Atlanta,Georgia 30306,30306,"? MH SUMH ? HI RES TELE ? PSY ? AT BMT CBT GT IDD IPT PTM TT ? WI ? PVTP ? CLF MD 
MI OSF PI SEF SF SI SMHA SWFS VAF ? GL MF CJ TRMA PTSD SED ? CM ES FPSY HS SPS 
TPC ? SMON ? CHLD ? AH"
New Beginnings Today LLC,5680 Fulton Industrial Boulevard,Atlanta,Georgia 30336,30336,"? MH SUMH ? OP ? CMHC ? AT BMT CBT CFT GT IDD IPT PTM TT ? PVTP ? CLF CMHG CSBG 
MC MD OSF SI SMHA SWFS VAF ? TAY SE GL VET ADM MF CJ CO HV TRMA PED PTSD SED 
SMI ? CDM CM COOT DEC ES FPSY PRS SPS PEER ? SMPD ? ADLT CHLD SNR YAD ? AH ? 
SP"
Odyssey Family Counseling Center,1919 John Wesley Avenue,Atlanta,Georgia 30337,30337,"? MH ? OP TELE ? OMH ? AT BMT CBT CFT DBT IDD IPT PTM TT ? PVTN ? CMHG CSBG MD 
OSF PI SCJJ SF SI SMHA ? SS ? CM ES FPSY ? STU ? SMPD ? ADLT CHLD SNR YAD ? SP"
OGCC Behavioral Health Services Inc,"3915 Cascade Road SW, Suite 130",Atlanta,Georgia 30331,30331,"? MH SUMH ? OP ? CMHC ? AT BMT CBT CFT DBT GT IDD IPT PTM TT ? CIT WI ? PVTP ? MD 
SF SI ? SS ? CO SMI ? CM COOT DEC ES FPSY IMR IPC PRS PEER ? SMPD ? ADLT CHLD 
SNR YAD"
Peachford Behavioral Health System,2151 Peachford Road,Atlanta,Georgia 30338,30338,"? MH SUMH ? HI PHDT ? PSY ? AT BMT CBT CFT DBT ECT GT IDD IPT PTM TT ? WI ? PVTP ? 
MC PI SF ? TAY SE CO TRMA ALZ PTSD SED SMI ? SMON ? ADLT CHLD SNR YAD ? AH"
River Edge Behavioral Health Center Boulevard,265 Boulevard NE,Atlanta,Georgia 30312,30312,"? MH SUMH ? OP TELE ? OMH ? CBT DBT GT IDD IPT PTM ? WI ? LMG ? CLF MC MD PI SF SI 
? PA SS ? CO ? CM COOT SPS PEER ? STU ? SMON ? ADLT SNR YAD ? AH"
Skyland Trail,1961 North Druid Hills Road NE,Atlanta,Georgia 30329,30329,"? MH SUMH ? OP PHDT RES ? RTCA ? AT CBT CFT DBT GT IDD IPT PTM ? PVTN ? PI SF ? 
SMI ? CDM CM COOT DEC ES FPSY ICM IMR IPC PRS SPS PEER ? NRT NSC STU TCC ? 
SMON ? ADLT SNR YAD"
Synaptic Network Inc,1626 Virginia Avenue Suite B,Atlanta,Georgia 30337,30337,"? MH SUMH ? OP TELE ? OMH ? BMT CBT GT IDD IPT ? PVTP ? SF ? COOT ES ? SMPD ? 
ADLT CHLD SNR YAD"
Charlie Norwood VAMC Mental Health Service,1 Freedom Way,Augusta,Georgia 30904,30904,"? MH SUMH ? HI OP RES TELE ? BMT CBT CFT DBT GT IDD IPT PTM TT ? CIT WI ? VAMC ? 
MC MD MI PI SI VAF ? GL VET MF CO TRMA TBI PTSD SMI ? CDM CM DEC ES FPSY HS ICM 
IMR IPC LAD PRS SEMP SH SPS VRS PEER ? NRT NSC STU TCC ? SMON ? ADLT SNR YAD ? 
VO"
Lighthouse Care Center of Augusta,3100 Perimeter Parkway,Augusta,Georgia 30909,30909,"? MH SUMH ? HI PHDT RES ? PSY ? AT BMT CBT CFT GT IDD IPT PTM TT ? CIT WI ? PVTP ? 
MD PI SCJJ SEF SF SI SMHA SWFS ? GL CO TRMA PTSD SED ? DEC ES FPSY IPC SPS ? 
SMON ? CHLD ? AH"
Medical Associates Plus at Belle Terrace,2467 Golden Camp Road,Augusta,Georgia 30906,30906,"? MH SUMH ? OP ? OMH ? CBT CFT IPT PTM ? FQHC ? MC MD MI PI SF SI ? SS ? SE CO HV 
TRMA PTSD SMI ? DEC IPC ? NRT STU TCC ? SMON ? ADLT CHLD SNR YAD"
Quality Care Advocacy Group Inc,1394 Laney Walker Boulevard,Augusta,Georgia 30901,30901,"? MH SUMH ? OP TELE ? OMH ? AT BMT CBT CFT DBT GT IDD IPT PTM TT ? CIT ? PVTP ? 
FQHC ? MD SF SI ? TAY SE GL CO HV TRMA PTSD SED SMI ? CDM CM DEC ES FPSY PRS 
SPS PEER ? SMPD ? ADLT CHLD SNR YAD"
Serenity Behavioral Health Systems Adult Substance Abuse/Adult MH,3421 Mike Padgett Highway,Augusta,Georgia 30906,30906,"? MH SUMH ? OP TELE ? OMH ? CBT CFT DBT GT IDD IPT PTM TT ? WI ? OSG ? CLF CMHG 
MC MD MI OSF PI SF SI SMHA ? PA ? HV ? CM COOT HS PRS SEMP SH PEER ? STU ? SMPD 
? ADLT CHLD SNR YAD ? AH ? SP"
Transitional Family Services,3643 Walton Way Extension Building 4,Augusta,Georgia 30909,30909,"? MH SUMH ? OP TELE ? OMH ? BMT CBT CFT GT IDD IPT PTM TT ? CIT ? PVTP ? CLF MD PI 
SF SI SWFS ? CO TRMA PTSD ? CM FPSY PRS SPS PEER ? SMON ? ADLT CHLD SNR YAD ? 
AH ? SP"
Cobb/Douglas Community Serv Board,6133 Love Street,Austell,Georgia 30168,30168,"? MH ? OP PHDT ? OMH ? AT CBT CFT GT IPT TT ? SMA ? CLF MC MD MI OSF PI SF SI SMHA 
? PA SS ? CJ CO TRMA PTSD SMI ? ACT CM COOT DEC HS ICM PRS SEMP SPS VRS PEER ? 
TCC ? SMPD ? ADLT SNR YAD ? AH"
Ravens Nest Foundation,"3875 Austell Road, Suite 303",Austell,Georgia 30106,30106,"? MH SUMH ? OP TELE ? OMH ? AT BMT CBT CFT DBT GT IDD IPT PTM TT ? WI ? PVTN ? 
CLF CMHG CSBG MC MD MI OSF PI SF VAF ? PA SS ? TAY SE GL VET ADM MF CJ CO HV 
TRMA PED PTSD SED SMI ? CM COOT DEC ES FPSY SPS TPC ? STU TCC ? SMON ? ADLT 
CHLD SNR YAD ? SP"
Wellstar BH Center at Cobb Hospital,3950 Austell Road,Austell,Georgia 30106,30106,"? MH SUMH ? HI ? PSY ? AT BMT CBT CFT GT IDD PTM ? CIT ? PVTN ? MC MD MI PI SF 
SMHA ? GL CO HV SMI ? CM ? NRT STU ? SMON ? ADLT SNR YAD ? AH"
Decatur County Mental Health Center,1005 South Washington Street,Bainbridge,Georgia 39819,39819,"? MH SUMH ? OP ? CMHC ? AT CBT CFT GT IDD IPT PTM TT ? SMA ? CSBG MC MD MI SF SI 
SMHA VAF ? SS ? CO SMI ? CM COOT FPSY PRS SH SPS ? STU ? SMPD ? ADLT CHLD SNR 
YAD"
McIntosh Trail CSB Lamar County Counseling Center,"133 Forsyth Street, Suite 3",Barnesville,Georgia 30204,30204,"? MH SUMH ? OP TELE ? OMH ? BMT CBT CFT GT IDD IPT PTM TT ? WI ? SMA ? CLF CMHG 
CSBG MC MD MI OSF PI SCJJ SF SI SMHA SWFS VAF ? PA ? TAY SE GL VET ADM MF CJ CO 
HV TRMA PTSD SED SMI ? CM COOT ES FPSY HS IMR IPC PRS SEMP SH SPS VRS PEER ? 
NRT STU TCC ? SMPD ? ADLT CHLD SNR YAD ? AH"
Appling Counseling Center BHDD,755 South Main Street,Baxley,Georgia 31513,31513,"? MH SUMH ? OP TELE ? CMHC ? CBT CFT DBT GT IDD IPT PTM TT ? WI ? PVTN ? CMHG 
MC MD OSF PI SF SI SWFS ? PA SS ? CO SMI ? CM COOT DEC ES FPSY HS ICM IMR PRS SH 
SPS PEER ? STU TCC ? SMON ? ADLT CHLD SNR YAD"
Appling Healthcare System,163 East Tollison Street,Baxley,Georgia 31513,31513,"? MH SUMH ? HI PHDT ? PSY ? AT BMT CBT CFT DBT GT IDD IPT PTM ? PVTN ? MC MD MI PI 
SF SI VAF ? SE VET CO ALZ PTSD SMI ? CDM CM DEC ES FPSY IMR PRS SPS ? NRT STU 
TCC ? SMPD ? ADLT SNR"
Avita Community Partners Union MH/SA Clinic,76 Hunt Martin Street Suite A,Blairsville,Georgia 30512,30512,"? MH SUMH ? OP TELE ? CMHC ? AT BMT CBT CFT DBT GT IDD IPT PTM TT ? CIT WI ? PVTP 
? CLF CMHG CSBG MD MI OSF SCJJ SEF SF SMHA SWFS VAF ? PA SS ? CJ CO PTSD ? ACT 
CM COOT FPSY HS ICM PRS SEMP SPS PEER ? SMPD ? ADLT CHLD SNR YAD ? AH"
Albany Area Community Serv Board Early County Mental Health Center,763 Jesse Johnson Street,Blakely,Georgia 39823,39823,"? MH SUMH ? OP TELE ? OMH ? AT BMT CBT CFT DBT GT IDD IPT PTM TT ? CIT WI ? OSG ? 
CMHG CSBG MC MD MI OSF PI SCJJ SEF SF SI SMHA SWFS VAF ? SS ? TAY SE CO PTSD 
SED SMI ? CM COOT ES FPSY HS PRS SEMP SPS ? SMON ? ADLT CHLD SNR YAD ? AH"
KidsPeace/Bowdon Campus,101 Kidspeace Drive,Bowdon,Georgia 30108,30108,"? MH SUMH ? OP TELE ? OMH ? BMT CBT CFT GT IDD IPT PTM TT ? PVTN ? MD MI PI SCJJ 
SF SI SMHA SWFS ? GL CO TRMA PTSD SED ? COOT FPSY IPC SPS ? SMON ? CHLD YAD"
Haralson Behavioral Health Services,1449 Temple Road,Bremen,Georgia 30110,30110,"? MH SUMH ? OP ? OMH ? AT BMT CBT CFT GT IDD IPT PTM TT ? CIT WI ? OSG ? FQHC ? 
CLF CSBG MC MD MI OSF PI SF SI SMHA ? PA SS ? CJ CO TRMA PTSD SMI ? CM COOT DEC 
ES FPSY SPS ? STU ? SMPD ? ADLT CHLD SNR YAD ? AH"
Gateway Behavioral Health Services,600 Coastal Village,Brunswick,Georgia 31520,31520,"? MH SUMH ? OP PHDT TELE ? OMH ? AT BMT CBT CFT DBT GT IDD IPT PTM TT ? CIT WI ? 
LMG ? CLF CMHG CSBG MC MD MI OSF PI SCJJ SEF SF SI SMHA SWFS VAF ? PA ? CO ? 
ACT CM COOT ES FPSY HS PRS SEMP SH SPS VRS PEER ? SMON ? ADLT CHLD SNR YAD ? 
AH"
Malinda Graham and Associates,1636 Norwich Street,Brunswick,Georgia 31525,31525,"? MH SUMH ? OP TELE ? OMH ? AT BMT CBT CFT DBT GT IDD IPT PTM TT ? CIT WI ? PVTP ? 
MC MD MI PI SF SI SWFS ? SS ? TAY SE GL VET ADM MF CJ CO HV TRMA PED PTSD SED 
SMI ? CM COOT FPSY SPS ? SMPD ? ADLT CHLD SNR YAD ? SP"
Grady County MH Peer Support Prog,1641 North Broad Street,Cairo,Georgia 39828,39828,"? MH SUMH ? OP TELE ? PH ? BMT CBT IPT PTM TT ? CIT ? SMA ? MC MD PI SF SI SMHA ? 
CM DEC SPS PEER ? SMPD ? ADLT SNR YAD ? AH"
Pathways Center Carroll County MH/AD,153 Independence Drive,Carrollton,Georgia 30116,30116,"? MH SUMH ? OP TELE ? OMH ? CBT CFT DBT GT IDD IPT PTM TT ? CIT WI ? OSG ? CLF MC 
MD PI SF SI SMHA VAF ? SS ? TAY CO SMI ? ACT CM COOT PRS SEMP SPS PEER ? SMPD ? 
ADLT CHLD SNR YAD ? AH"
Willowbrooke at Tanner,"523 Dixie Street, Suite 5",Carrollton,Georgia 30117,30117,"? MH ? OP PHDT TELE ? OMH ? AT BMT CBT CFT DBT GT IDD IPT PTM TT ? CIT ? PVTN ? 
CLF MC MD OSF PI SCJJ SEF SF SI SMHA SWFS ? TAY GL MF CO HV TRMA PTSD ? CM DEC 
ES FPSY IPC PRS SPS ? STU TCC ? SMPD ? ADLT CHLD SNR YAD ? AH"
Cartersville Comprehensive Trt Ctr,218 Stonewall Street,Cartersville,Georgia 30120,30120,"? MH SUMH ? OP ? OMH ? CBT DBT GT IPT ? PVTP ? MD PI SF ? COOT ? SMON ? ADLT SNR 
YAD ? SP"
Murphy/Harpst Childrens Centers Inc,740 Fletcher Street,Cedartown,Georgia 30125,30125,"? MH SUMH ? OP TELE ? OMH ? AT BMT CBT CFT DBT GT IDD IPT PTM TT ? PVTN ? FQHC ? 
MC MD MI PI SF ? TAY CO SED ? CM ES FPSY PRS SPS TPC ? SMON ? CHLD YAD"
Avita Community Partners,129 North Main Street,Cleveland,Georgia 30528,30528,"? MH SUMH ? OP TELE ? CMHC ? AT BMT CBT CFT DBT GT IDD IPT PTM TT ? CIT WI ? PVTP 
? CLF CMHG CSBG MD MI OSF SCJJ SEF SF SMHA SWFS VAF ? PA SS ? CJ CO ? ACT CM 
COOT FPSY HS ICM PRS SEMP SPS PEER ? SMPD ? ADLT CHLD SNR YAD ? AH"
Cornerstones Counseling Center Inc,"42 North Avenue, Suite 100",Cleveland,Georgia 30528,30528,"? MH SUMH ? OP TELE ? CMHC ? BMT CBT CFT DBT GT IDD IPT PTM TT ? PVTP ? CLF MD 
MI OSF PI SCJJ SEF SF SI SMHA SWFS ? TRMA SED ? CM COOT DEC FPSY IPC SPS VRS 
PEER ? TCC ? SMPD ? ADLT CHLD SNR YAD"
Cedar Tree Family and Children Servs,3604 Saint Marys Road,Columbus,Georgia 31906,31906,"? MH SUMH ? OP ? OMH ? BMT CBT DBT GT IDD IPT TT ? CIT ? PVTP ? MD SF ? CM COOT 
FPSY ? SMON ? ADLT CHLD SNR YAD"
Central Alabama VA Healthcare Sys Columbus CBOC,1310 13th Avenue,Columbus,Georgia 31901,31901,"? MH SUMH ? OP TELE ? OMH ? BMT CBT CFT GT IDD IPT PTM TT ? WI ? VAMC ? MC MD PI 
VAF ? VET CO PTSD SMI ? CDM DEC ES FPSY HS IMR IPC PRS SH SPS PEER ? NRT NSC 
STU TCC ? SMPD ? ADLT SNR YAD ? VO"
Family Center of Columbus Inc,1350 15th Avenue,Columbus,Georgia 31901,31901,"? MH ? OP ? OMH ? BMT CBT CFT GT IPT TT ? PVTN ? CMHG CSBG MI PI SF ? SS ? COOT 
FPSY SPS ? SMPD ? ADLT CHLD SNR YAD ? AH"
New Horizons Community Serv Board,2100 Comer Avenue,Columbus,Georgia 31904,31904,"? MH SUMH ? OP TELE ? OMH ? GT IPT PTM ? WI ? LMG ? CLF CMHG CSBG MC MD MI OSF 
PI SF SI SMHA SWFS ? SS ? CM COOT HS ICM SEMP ? STU ? SMPD ? ADLT CHLD SNR YAD 
? AH"
New Horizons Community Serv Board The REACH Center,1220 2nd Avenue,Columbus,Georgia 31901,31901,"? MH SUMH ? OP ? PH ? GT ? LMG ? MC MD OSF PI SF SI SMHA ? SS ? CJ CO SMI ? PRS ? 
SMPD ? ADLT SNR YAD ? AH"
Saint Francis Hospital The Bradley Center,2000 16th Avenue,Columbus,Georgia 31901,31901,"? MH ? HI OP PHDT ? PSY ? AT BMT CBT CFT DBT GT IDD IPT PTM ? CIT WI ? PVTP ? MC MD 
MI PI SF SI SMHA SWFS VAF ? PA ? TAY SE CO PED PTSD SED SMI ? ACT CM DEC FPSY IMR 
IPC SPS PEER ? NRT NSC STU TCC ? SMON ? ADLT CHLD SNR YAD ? AH"
Twin Cedar Youth and Family Servs Dorothy Wells Knight Comm Csl,1025 3rd Avenue,Columbus,Georgia 31906,31906,"? MH SUMH ? OP ? OMH ? AT BMT CBT CFT GT IDD IPT PTM TT ? CIT ? PVTN ? MD SCJJ SF 
SI SMHA SWFS ? TAY GL CJ CO TRMA PTSD SED ? CM COOT DEC FPSY SPS TPC ? TCC ? 
SMON ? CHLD YAD"
View Point Health Rockdale Center,977 Taylor Street SW Suite A,Conyers,Georgia 30012,30012,"? MH SUMH ? OP TELE ? OMH ? BMT CBT CFT DBT GT IDD IPT PTM TT ? WI ? OSG ? CLF 
CMHG MC MD MI OSF PI SCJJ SF SI SMHA SWFS VAF ? PA SS ? VET CJ CO TRMA PTSD SMI 
? COOT DEC IPC SPS ? TCC ? SMON ? ADLT CHLD SNR YAD ? AH ? SP F30"
Middle Flint Behavioral Healthcare Outpatient Services,1335 North 5th Street Extension Suite A,Cordele,Georgia 31015,31015,"? MH SUMH ? OP PHDT TELE ? OMH ? AT BMT CBT CFT DBT GT IDD IPT PTM TT ? CIT WI ? 
OSG ? CLF CMHG CSBG ITU MC MD MI OSF PI SCJJ SEF SF SI SMHA SWFS VAF ? SS ? TAY 
SE GL VET ADM MF CJ CO HV TRMA PED PTSD SED SMI ? CDM CM COOT FPSY ICM IMR IPC 
PRS SEMP SH SPS PEER ? STU ? SMPD ? ADLT CHLD SNR YAD ? AH"
ASFC Outreach Therapeutic,4146 Highway 278 NE,Covington,Georgia 30014,30014,"? MH SUMH ? OP TELE ? CMHC ? BMT CBT CFT DBT GT IPT PTM TT ? PVTP ? MC MD PI SF 
SI SMHA ? TAY GL VET MF CJ CO TRMA PTSD SMI ? CM COOT DEC ES FPSY ICM IPC PRS 
SPS PEER ? STU ? SMON ? ADLT CHLD SNR YAD ? AH ? SP"
Southeastern Psychological Assoc Inc,3155 Mill Street NE,Covington,Georgia 30014,30014,"? MH SUMH ? OP TELE ? OMH ? AT BMT CBT CFT DBT GT IDD IPT PTM TT ? PVTP ? MC MD 
MI PI SCJJ SF SI SMHA SWFS ? SS ? CJ ? ACT CM COOT FPSY PRS ? SMPD ? ADLT CHLD 
SNR YAD"
View Point Health Newton Center,8201 Hazelbrand Road NE,Covington,Georgia 30014,30014,"? MH SUMH ? OP TELE ? OMH ? BMT CBT CFT DBT GT IDD IPT PTM TT ? CIT ? LMG ? CLF 
CMHG CSBG MC MD MI OSF PI SCJJ SEF SF SI SMHA SWFS VAF ? PA SS ? VET CO TRMA 
PTSD SMI ? FPSY SPS ? SMON ? ADLT CHLD SNR YAD ? AH ? SP"
Avita Community Partners Cumming Outpatient Counseling Ctr,125 North Corners Parkway Cumming,Georgia 30040,Phone: (678) 341-3840,,"? MH SUMH ? OP TELE ? CMHC ? BMT CBT CFT DBT GT IDD IPT PTM TT ? CIT ? PVTN ? CLF 
CMHG CSBG MC MD MI OSF PI SCJJ SF SMHA SWFS VAF ? PA SS ? CO SMI ? ACT CM COOT 
DEC FPSY HS PRS SEMP SH SPS PEER ? STU ? SMPD ? ADLT CHLD SNR YAD ? AH"
New Horizons Behavioral Health Randolph County MH and SA Center,90 Villa Nova Street,Cuthbert,Georgia 39840,39840,"? MH SUMH ? OP TELE ? OMH ? BMT CBT DBT GT IDD IPT PTM TT ? PVTN ? CLF MC MD PI 
SF SI SMHA SWFS ? CO TRMA PTSD ? CM COOT PRS SPS ? SMON ? ADLT CHLD SNR YAD ? 
AH"
Avita Community Partners Behavioral Health,150 Johnson Street Suite A,Dahlonega,Georgia 30533,30533,"? MH SUMH ? OP TELE ? CMHC ? AT BMT CBT CFT DBT GT IDD IPT PTM TT ? CIT WI ? PVTP 
? CLF CMHG CSBG MD MI OSF SCJJ SEF SF SMHA SWFS VAF ? PA SS ? CJ CO ? ACT CM 
COOT FPSY HS ICM PRS SEMP SPS PEER ? SMPD ? ADLT CHLD SNR YAD ? AH"
Health Connect America,168 North Johnston Street Suite 304,Dallas,Georgia 30132,30132,"? MH SUMH ? OP TELE ? OMH ? BMT CBT CFT DBT IPT PTM TT ? PVTP ? MD ? GL CJ CO 
TRMA PTSD ? CM COOT TPC ? SMON ? CHLD"
Family and Children First LLC,1414 Dug Gap Road,Dalton,Georgia 30720,30720,"? MH SUMH ? OP TELE ? CMHC ? AT BMT CBT CFT DBT GT IDD IPT PTM TT ? PVTP ? MD 
OSF SCJJ SF SI SMHA SWFS ? PA SS ? CM COOT FPSY IPC PRS SPS ? NSC STU TCC ? 
SMON ? ADLT CHLD SNR YAD ? AH ? SP"
Hamilton Medical Center Westcott Behavioral Health,1200 Memorial Drive,Dalton,Georgia 30720,30720,"? MH SUMH ? HI OP ? PSY ? AT CBT CFT GT IPT PTM ? PVTN ? MC MD MI PI SF SI ? SE CO 
TRMA PTSD SMI ? CM ? NRT STU TCC ? SMON ? ADLT SNR YAD ? AH"
Assertive Community Recovery LLC,"4151 Memorial Drive, Suite 209-C",Decatur,Georgia 30032,30032,"? MH SUMH ? OP PHDT ? MSNH ? BMT CBT GT IDD IPT PTM TT ? PVTP ? CLF MC MD OSF 
SCJJ SEF SF SI SWFS VAF ? TAY SE CO TRMA PTSD SED SMI ? ACT CM ES HS ICM IPC PRS 
SH SPS VRS PEER ? STU ? SMPD ? ADLT CHLD SNR YAD ? AH"
Atlanta VAMC Mental Health (116A),1670 Clairmont Road,Decatur,Georgia 30033,30033,"? MH SUMH ? HI OP TELE ? AT BMT CBT CFT DBT ECT GT IDD IPT PTM TT ? CIT WI ? VAMC 
? VAF ? SE GL VET ADM MF CO HV TRMA TBI PTSD SMI ? CDM CM DEC ES FPSY HS ICM 
IMR IPC LAD PRS SEMP SH SPS TPC VRS PEER ? NRT NSC STU TCC ? SMPD ? ADLT SNR 
YAD ? VO ? AH ? SP"
Breakthru House Inc,1866 Eastfield Street,Decatur,Georgia 30032,30032,"? MH SUMH ? RES ? RTCA ? AT BMT CBT GT IDD IPT TT ? PVTN ? OSF SF SMHA ? GL CJ CO 
HV TRMA PTSD SMI ? SMON ? ADLT YAD"
Care and Counseling Center of Georgia,1814 Clairmont Road,Decatur,Georgia 30033,30033,"? MH SUMH ? OP TELE ? OMH ? AT BMT CBT CFT DBT GT IDD IPT PTM TT ? PVTN ? MC MD 
MI PI SF ? SS ? SE GL CO TRMA PED PTSD SED ? CM COOT FPSY SPS ? STU TCC ? SMON 
? ADLT CHLD SNR YAD ? SP F28 F35 F36 F67 F3 F33 
Children and Teenagers Foundation Inc  
4151 Memorial Drive, Suite 113-A 
Decatur 
Georgia 30032 
Phone: (404) 299-2087 
Intake: (470) 809-9430
? MH SUMH ? OP ? OMH ? BMT CBT CFT DBT GT IPT PTM TT ? PVTP ? MD SCJJ SF SMHA 
SWFS ? SS ? CO TRMA PTSD ? ACT CM COOT DEC FPSY PRS ? SMON ? ADLT CHLD SNR 
YAD"
DeKalb CSB Clifton Springs Mental Health Center,"3110 Clifton Springs Road, Suite B",Decatur,Georgia 30034,30034,"? MH SUMH ? OP ? CMHC ? BMT CBT CFT DBT GT IDD IPT PTM TT ? CIT ? LMG ? CLF CMHG 
CSBG MC MD OSF SCJJ SF SI SMHA SWFS ? TAY SE CO TRMA PTSD SED SMI ? CM COOT 
DEC FPSY HS IMR SPS PEER ? STU ? SMPD ? ADLT CHLD SNR YAD ? AH"
DeKalb CSB Winn Way Mental Health Center,445 Winn Way,Decatur,Georgia 30030,30030,"? MH SUMH ? OP ? CMHC ? CBT CFT DBT GT IDD IPT PTM TT ? CIT WI ? LMG ? FQHC ? CLF 
CMHG CSBG MC MD OSF SCJJ SF SI SMHA SWFS ? TAY SE GL CO PTSD SED SMI ? CM 
COOT DEC FPSY HS IMR SPS ? STU ? SMPD ? ADLT CHLD SNR YAD ? AH"
DeKalb Regional Crisis Center,445 Winn Way,Decatur,Georgia 30030,30030,"? MH SUMH ? OP RES ? MSNH ? CBT CFT DBT GT IDD IPT PTM ? CIT WI ? LMG ? CLF CMHG 
CSBG MC MD OSF SCJJ SF SI SMHA SWFS ? SE CO TRMA PTSD SMI ? CM FPSY HS IMR 
SPS PEER ? STU ? SMPD ? ADLT SNR YAD ? AH"
Georgia Regional Hospital at Atlanta,3073 Panthersville Road,Decatur,Georgia 30034,30034,"? MH SUMH ? HI OP TELE ? PSY ? AT BMT CBT CFT GT IDD IPT PTM ? WI ? OSG ? CMHG 
CSBG MC MI PI SF SI SMHA ? CJ CO SMI ? ACT CM COOT DEC ES FPSY HS PRS SEMP SH 
SPS VRS PEER ? NRT STU TCC ? SMON ? ADLT SNR YAD ? AH ? SP F92"
Newport Integrated BHC Inc,1810 Moseri Road,Decatur,Georgia 30032,30032,"? MH SUMH ? OP PHDT RES ? MSNH ? AT BMT CBT CFT DBT GT IDD IPT PTM TT ? PVTP ? 
CLF CMHG CSBG MC MD MI OSF PI SCJJ SEF SF SI SMHA SWFS VAF ? PA SS ? SE GL VET 
ADM MF CJ CO HV TRMA PTSD SED SMI ? CDM COOT DEC ES FPSY IMR IPC PEER ? NRT 
NSC STU TCC ? SMPD ? ADLT CHLD SNR YAD ? AH ? SP"
Renaissance Counseling Services LLC,"2799 Lawrenceville Highway, Suite 201",Decatur,Georgia 30033,30033,"? MH SUMH ? OP ? CMHC ? BMT CBT GT IDD IPT PTM TT ? CIT ? PVTP ? MD ? SE CO SMI ? 
ACT CM COOT DEC FPSY IMR IPC PRS SPS VRS ? STU TCC ? SMPD ? ADLT SNR YAD"
Reunited Counseling and Training LLC,"4151 Memorial Drive, Suite 110-C",Decatur,Georgia 30032,30032,"? MH SUMH ? OP TELE ? OMH ? AT BMT CBT CFT DBT GT IPT TT ? PVTP ? FQHC ? CLF 
CSBG ITU MD MI PI SCJJ SEF SF SMHA SWFS VAF ? SS ? TAY SE GL VET ADM MF CJ CO HV 
TRMA PTSD SED SMI ? ACT CM COOT ES FPSY ICM PRS SH ? SMPD ? ADLT CHLD SNR YAD"
View Point Health Crisis Stabilization Program,2591 Candler Road,Decatur,Georgia 30032,30032,"? MH SUMH ? RES ? RTCC ? DBT GT PTM ? CIT ? OSG ? CMHG CSBG MC MD MI OSF SCJJ 
SF SI SMHA SWFS ? SS ? CO SED ? CM ES FPSY SPS PEER ? SMON ? CHLD ? AH"
Avita Community Partners Habersham County MH/SA Clinic,196 Scoggins Drive,Demorest,Georgia 30535,30535,"? MH SUMH ? OP TELE ? OMH ? BMT CBT CFT DBT GT IDD IPT PTM ? WI ? PVTN ? FQHC ? 
CMHG MD MI OSF SF SI SMHA VAF ? PA SS ? CO ? CM COOT FPSY PRS SEMP SPS ? SMPD 
? ADLT CHLD SNR YAD ? AH"
Unison Behavioral Health Coffee Adult/Children/Family Servs,1005 Shirley Avenue,Douglas,Georgia 31533,31533,"? MH SUMH ? OP TELE ? OMH ? BMT CBT CFT DBT GT IDD IPT PTM TT ? CIT WI ? OSG ? 
CLF MC MD MI OSF PI SCJJ SEF SF SI SMHA SWFS ? PA SS ? CO SED ? CM COOT DEC ES 
FPSY HS ICM PRS SEMP SH SPS PEER ? TCC ? SMPD ? ADLT CHLD SNR YAD"
CSB of Middle Georgia Child and Adolescent Mental Health,"2121-A Bellevue Road, Building 4",Dublin,Georgia 31021,31021,"? MH SUMH ? OP TELE ? CMHC ? BMT CBT CFT DBT GT IDD IPT PTM TT ? CIT WI ? PVTN ? 
CLF CMHG CSBG MC MD MI OSF PI SCJJ SEF SF SI SMHA SWFS ? SS ? TAY ? CM COOT PRS 
SPS PEER ? SMPD ? ADLT CHLD SNR YAD ? AH ? SP"
CSB of Middle Georgia Independence House,2121-A Bellevue Road Building 2,Dublin,Georgia 31021,31021,"? MH SUMH ? OP ? OMH ? BMT CBT DBT IDD ? OSG ? CLF CMHG CSBG MC MD MI OSF PI 
SCJJ SEF SF SI SMHA SWFS ? SMI ? COOT DEC ES FPSY HS IMR PRS SEMP PEER ? SMPD 
? ADLT SNR YAD"
CSB of Middle Georgia Quentin Price Crisis Stablization Unit,118 Thomas Lane Building 9,Dublin,Georgia 31021,31021,"? MH SUMH ? RES ? RTCA ? AT CBT DBT GT IDD IPT PTM ? WI ? OSG ? CMHG MC MD PI SF 
SI SMHA VAF ? PA SS ? SE GL VET MF CJ CO HV TRMA PTSD SMI ? CM COOT DEC HS ICM 
IMR PRS SPS PEER ? SMPD ? ADLT SNR YAD ? AH"
Dodge County Hospital,901 Griffin Avenue,Eastman,Georgia 31023,31023,"? MH SUMH ? HI TELE ? PSY ? AT BMT CBT CFT DBT GT IPT PTM TT ? PVTP ? MC MD PI SI ? 
SE GL VET MF CO HV TRMA TBI ALZ PED PTSD ? CM ES FPSY ICM PRS SPS PEER ? NRT 
NSC STU TCC ? SMON ? ADLT SNR ? AH"
Advantage Behavioral Health Systems Elbert County Mental Health Center,50 Chestnut Street,Elberton,Georgia 30635,30635,"? MH SUMH ? OP TELE ? OMH ? CBT CFT DBT GT IPT ? PVTN ? CLF CMHG CSBG MC MD PI 
SF SMHA ? SS ? SE CO TRMA PTSD SED SMI ? CM COOT HS ICM PRS SPS VRS ? SMON ? 
ADLT CHLD SNR YAD ? AH"
Fayette County Counseling Center,715 Bradley Drive,Fayetteville,Georgia 30214,30214,"? MH SUMH ? OP TELE ? OMH ? AT BMT CBT CFT DBT GT IDD IPT PTM TT ? OSG ? CLF 
CMHG MC MD MI PI SF SI SMHA SWFS VAF ? VET CO TRMA PTSD ? CM COOT FPSY HS IMR 
PRS SEMP SPS ? SMPD ? ADLT CHLD SNR YAD ? AH"
New Heights Behav Consultants LLC,"101 Devant Street, Suite 702",Fayetteville,Georgia 30214,30214,"? MH SUMH ? OP ? OMH ? BMT CBT CFT DBT GT IDD IPT PTM TT ? WI ? PVTP ? MD OSF PI 
SCJJ SF SI SMHA SWFS ? CO ? CM COOT ES FPSY IPC PRS ? SMPD ? ADLT CHLD SNR YAD 
? AH"
Unison Behavioral Health Charlton Behavioral Health,172 Homeland Park Road,Folkston,Georgia 31537,31537,"? MH SUMH ? OP TELE ? OMH ? AT BMT CBT CFT DBT GT IDD IPT PTM TT ? CIT WI ? OSG ? 
CLF CMHG CSBG MC MD MI OSF PI SF SI SMHA SWFS ? PA SS ? CO SED ? CM COOT DEC 
ES FPSY HS ICM PRS SEMP SH SPS ? TCC ? SMPD ? ADLT CHLD SNR YAD ? AH"
Phoenix Center BHS Child Family and Adult Counseling,410 East Church Street,Fort Valley,Georgia 31030,31030,"? MH SUMH ? OP TELE ? OMH ? AT BMT CBT CFT DBT GT IDD IPT PTM TT ? CIT WI ? OSG ? 
CLF CMHG CSBG ITU MC MD MI OSF PI SCJJ SF SI SMHA SWFS VAF ? SS ? TAY SE GL VET 
ADM MF CJ CO HV TRMA PED PTSD SED SMI ? CDM CM COOT FPSY ICM PRS SH SPS PEER 
? STU ? SMPD ? ADLT CHLD SNR YAD ? AH"
Pathways Center Heard Cnty SA/MH/AD Ctr,1206 Franklin Parkway,Franklin,Georgia 30217,30217,"? MH SUMH ? OP TELE ? OMH ? CBT CFT DBT GT IDD IPT PTM TT ? WI ? OSG ? MC MD PI 
SF SI SMHA VAF ? SS ? CO ? ACT CM COOT SEMP SPS ? SMPD ? ADLT CHLD SNR YAD ? AH"
Avita Community Partners Youth Services,915 Interstate Ridge Drive,Gainesville,Georgia 30501,30501,"? MH SUMH ? OP TELE ? CMHC ? AT BMT CBT CFT DBT GT IPT PTM TT ? WI ? SMA ? FQHC 
? CLF CMHG CSBG MC MD MI OSF PI SF SI SMHA ? CJ CO TRMA SED ? CDM COOT DEC ES 
FPSY IMR PRS SEMP SPS ? STU ? SMPD ? CHLD ? AH ? SP"
Health Connect America,"3030 McEver Road, Suite 100",Gainesville,Georgia 30504,30504,"? MH SUMH ? OP ? OMH ? BMT CBT CFT IPT PTM TT ? PVTP ? MD SF SWFS ? FPSY TPC ? 
SMON ? ADLT CHLD SNR YAD"
Advantage Behavioral Health Systems Greene County Mental Health Center,1040 Silver Road,Greensboro,Georgia 30642,30642,"? MH SUMH ? OP TELE ? CMHC ? AT BMT CBT CFT DBT GT IDD IPT PTM TT ? CIT WI ? OSG 
? CLF CMHG CSBG ITU MC MD MI OSF PI SCJJ SEF SF SI SMHA SWFS VAF ? TAY SE GL VET 
ADM MF CJ CO HV TRMA PED PTSD SED SMI ? ACT CDM CM COOT DEC FPSY IMR PRS 
SEMP SPS VRS ? NSC STU TCC ? SMON ? ADLT CHLD SNR YAD ? AH"
Pathways Center Meriwether MH/AD,756 Woodbury Highway,Greenville,Georgia 30222,30222,"? MH SUMH ? HI OP PHDT TELE ? CMHC ? AT BMT CBT CFT GT IPT PTM TT ? PVTN ? MC MD 
SF SI ? PA SS ? TAY SED ? ACT CM COOT FPSY PRS SEMP SH SPS PEER ? STU ? SMPD ? 
ADLT CHLD SNR YAD ? AH ? SP"
Behavioral Health Center MH/SA/Case Management,1574 Williamson Road,Griffin,Georgia 30224,30224,"? MH SUMH ? OP TELE ? OMH ? BMT CBT CFT GT IPT PTM ? OSG ? FQHC ? CLF MC MD 
OSF PI SF SI ? SS ? SE VET CO TRMA PTSD SMI ? CM COOT FPSY IPC PRS ? SMPD ? ADLT 
CHLD SNR YAD ? AH"
Pathways Center Spalding,1710 Highway 16 West,Griffin,Georgia 30223,30223,"? MH SUMH ? OP PHDT TELE ? OMH ? AT BMT CBT CFT DBT GT IDD IPT PTM TT ? CIT WI ? 
SMA ? CLF CMHG ITU MC MD MI SCJJ SF SI SMHA SWFS VAF ? TAY SE GL VET ADM MF CO 
HV TRMA TBI ALZ PED PTSD SED SMI ? CDM CM COOT ES FPSY HS ICM IMR IPC PRS SH 
SPS PEER ? NSC STU ? SMPD ? ADLT CHLD SNR YAD ? AH"
Pine Woods Behavioral Health Crisis Center,1209 Greenbelt Drive,Griffin,Georgia 30224,30224,"? MH SUMH ? HI OP ? PSY ? GT PTM ? WI ? SMA ? OSF SEF SMHA ? PA ? CO PTSD SMI ? 
CM ? STU ? SMON ? ADLT SNR YAD ? AH"
New Horizons Community Serv Board Harris County MH/SA Services,9989 GA Highway 116,Hamilton,Georgia 31811,31811,"? MH SUMH ? OP ? OMH ? PTM ? LMG ? MC MD MI PI SF SI SMHA ? SS ? CM HS ICM SH SPS 
? STU ? SMPD ? ADLT CHLD SNR YAD ? AH"
Avita Community Partners Hartwell Service Center,228 North College Avenue,Hartwell,Georgia 30643,30643,"? MH SUMH ? OP TELE ? CMHC ? BMT CBT CFT DBT GT IDD IPT PTM ? CIT WI ? PVTN ? 
FQHC ? CMHG CSBG MD MI OSF SF SI SWFS VAF ? PA ? CO SED SMI ? CM COOT FPSY PRS 
SEMP SPS ? SMPD ? ADLT CHLD SNR YAD ? AH"
Georgia Mountains Community Services,228 North College Avenue,Hartwell,Georgia 30643,30643,"? MH SUMH ? OP TELE ? OMH ? BMT CBT CFT DBT GT IPT PTM ? CIT ? OSG ? CMHG CSBG 
MC MD MI PI SF SI ? PA SS ? TAY SE CO SED SMI ? CM COOT FPSY PRS SEMP SPS ? SMPD 
? ADLT CHLD SNR YAD ? AH"
Clearview at Chatuge Regional Hospital,110 South Main Street,Hiawassee,Georgia 30546,30546,"? MH SUMH ? HI OP PHDT TELE ? PSY ? AT BMT CBT CFT DBT GT IDD IPT PTM TT ? CIT ? 
PVTN ? ITU MC MD PI SF SI SMHA ? SE GL CJ CO HV TRMA ALZ PED ? CM DEC ES FPSY 
PRS SPS ? NRT NSC STU TCC ? SMON ? SNR ? AH"
Darsey Black and Associates LLC,"101 East Memorial Drive, Suite B",Hinesville,Georgia 31313,31313,"? MH SUMH ? OP ? OMH ? AT BMT CBT CFT DBT GT IPT TT ? CIT ? PVTP ? CLF MC MD MI 
OSF PI SCJJ SF SI SMHA SWFS ? CJ ? CDM CM COOT DEC ES FPSY ICM ? SMPD ? ADLT 
CHLD SNR YAD"
Gateway Behavioral Health Services Liberty County Mental Health Center,1113 East Oglethorpe Highway,Hinesville,Georgia 31313,31313,"? MH SUMH ? OP TELE ? OMH ? BMT CBT CFT DBT GT IDD IPT PTM TT ? WI ? LMG ? CLF 
CMHG CSBG ITU MC MD MI OSF PI SCJJ SEF SF SI SMHA SWFS VAF ? PA SS ? GL VET ADM 
MF CJ CO TRMA PTSD ? CM COOT FPSY PRS SEMP SH SPS PEER ? TCC ? SMPD ? ADLT 
CHLD SNR YAD ? AH ? SP"
Malinda Graham and Associates Inc,1518 Airport Road,Hinesville,Georgia 31313,31313,"? MH SUMH ? OP TELE ? OMH ? BMT CBT CFT DBT GT IDD IPT PTM TT ? PVTP ? MC MD PI 
SCJJ SF SI SMHA ? PA SS ? TAY SE CO TRMA PTSD SED SMI ? CM COOT FPSY ICM PRS SPS 
PEER ? SMPD ? ADLT CHLD SNR YAD ? SP"
Unison Behavioral Health Clinch County Site,551 Old Pearson Road,Homerville,Georgia 31634,31634,"? MH SUMH ? OP TELE ? OMH ? BMT CBT CFT DBT GT IDD IPT PTM TT ? CIT WI ? OSG ? 
CLF CMHG CSBG ITU MC MD MI OSF PI SF SI VAF ? PA SS ? SED ? CM COOT DEC ES FPSY 
HS ICM PRS SEMP SH SPS PEER ? NRT NSC STU TCC ? SMPD ? ADLT CHLD SNR YAD ? AH"
McIntosh Trail CSB Butts County Counseling Center,463-B Ernest Biles Drive,Jackson,Georgia 30233,30233,"? MH SUMH ? OP TELE ? OMH ? BMT CBT CFT GT IDD IPT PTM TT ? WI ? OSG ? CLF CMHG 
CSBG MC MD OSF PI SF SI SWFS VAF ? PA SS ? TAY CO SED SMI ? CM COOT FPSY PRS 
SPS ? SMON ? ADLT CHLD SNR YAD ? AH"
Advantage Behavioral Health Systems Jackson County Mental Health Center,383 Stan Evans Drive,Jefferson,Georgia 30549,30549,"? MH SUMH ? OP TELE ? OMH ? BMT CBT CFT DBT GT IPT PTM TT ? WI ? PVTP ? CLF CSBG 
MC MD MI OSF PI SCJJ SEF SF SI SMHA SWFS VAF ? SS ? GL VET ADM MF CJ CO HV TRMA 
? CM COOT FPSY SPS ? SMPD ? ADLT CHLD SNR YAD ? AH"
Pineland Area BH and DD CSB Wayne Counseling Center,263 North Brunswick Street,Jesup,Georgia 31546,31546,"? MH SUMH ? OP TELE ? OMH ? AT BMT CBT CFT DBT GT IDD IPT PTM TT ? CIT WI ? OSG ? 
CLF CMHG CSBG ITU MC MD MI OSF PI SCJJ SEF SF SI SMHA SWFS VAF ? PA SS ? CO SMI ? 
CM COOT DEC ES FPSY HS ICM IMR PRS SH SPS PEER ? NRT NSC TCC ? SMON ? ADLT 
CHLD SNR YAD ? AH"
New Heights Behav Consultants LLC,530 Parkwood Way,Jonesboro,Georgia 30236,30236,"? MH SUMH ? OP ? OMH ? AT BMT CBT CFT DBT GT IDD IPT PTM TT ? PVTP ? MD OSF SF 
SMHA ? CO PTSD SED SMI ? CM COOT FPSY IPC PRS SPS ? SMPD ? ADLT CHLD SNR YAD"
New Heights Behav Consultants LLC,542 Parkwood Way,Jonesboro,Georgia 30236,30236,"? MH SUMH ? OP ? OMH ? BMT CBT CFT GT IPT PTM TT ? WI ? PVTP ? MD OSF PI SCJJ SF 
SI SMHA SWFS ? CO ? CM COOT ES FPSY PRS ? SMPD ? ADLT CHLD YAD"
Devereux Advanced Behavioral Hlth,1291 Stanley Road NW,Kennesaw,Georgia 30152,30152,"? MH SUMH ? RES ? RTCC ? AT BMT CBT CFT DBT GT IDD IPT PTM TT ? CIT ? PVTN ? CLF 
CMHG CSBG MD MI OSF PI SCJJ SEF SF SI SMHA SWFS ? CO TRMA ? CM ES FPSY SPS ? 
STU 
? SMON ? CHLD"
Gateway Behavioral Health Services,701-A Charles Gilman Jr Avenue,Kingsland,Georgia 31548,31548,"? MH SUMH ? OP PHDT TELE ? CMHC ? BMT CBT CFT GT IDD IPT PTM TT ? WI ? LMG ? CLF 
CMHG CSBG MC MD MI PI SCJJ SF SMHA SWFS VAF ? PA SS ? CO ? ACT CM COOT DEC 
FPSY HS PRS SEMP SH SPS VRS PEER ? SMPD ? ADLT CHLD SNR YAD ? AH"
Lookout Mountain Community Servs,501 Mize Street,La Fayette,Georgia 30728,30728,"? MH SUMH ? OP TELE ? OMH ? CBT DBT GT IPT PTM ? OSG ? CMHG CSBG MC MD OSF PI 
SF SMHA ? PA SS ? COOT ? SMON ? ADLT CHLD SNR YAD ? AH"
Pathways Center Troup County MH/AD,122 Gordon Commercial Drive Suite D,Lagrange,Georgia 30240,30240,"? MH SUMH ? OP TELE ? OMH ? CBT CFT DBT GT IDD IPT PTM TT ? CIT WI ? OSG ? MC MD 
PI SF SI SMHA VAF ? SS ? CO SED SMI ? ACT CM COOT IMR PRS SEMP SPS PEER ? SMPD ? 
ADLT CHLD SNR YAD ? AH ? SP"
Twin Cedar Youth and Family Servs LaGrange Mental Health Coleman Ctr,701 Lincoln Street,Lagrange,Georgia 30240,30240,"? MH SUMH ? OP ? OMH ? AT BMT CBT CFT GT IDD IPT PTM TT ? CIT ? PVTN ? MD SCJJ SF 
SI SMHA SWFS ? TAY GL CJ CO TRMA PTSD SED ? CM COOT DEC FPSY SPS TPC ? TCC ? 
SMON ? CHLD YAD"
Cruse Medical Care Inc,"1844 Old Norcross Road Building C, Suite 200",Lawrenceville,Georgia 30044,30044,"? MH SUMH ? OP ? OMH ? AT BMT CBT CFT DBT GT IDD IPT PTM TT ? CIT ? PVTP ? CLF MC 
MD OSF PI SCJJ SEF SI SMHA SWFS ? TRMA PTSD SED ? ACT CM COOT ES FPSY PRS TPC 
? CHLD"
Social Empowerment Center Inc,"2775 Cruse Road, Suite 901",Lawrenceville,Georgia 30044,30044,"? MH SUMH ? OP TELE ? OMH ? CBT CFT DBT IDD IPT PTM TT ? CIT ? PVTP ? MD MI PI 
SCJJ SF SI SMHA SWFS ? GL CO TRMA PTSD ? CM COOT FPSY ICM SPS TPC PEER ? SMPD 
? ADLT CHLD YAD ? SP"
Summit Ridge Hospital,250 Scenic Highway,Lawrenceville,Georgia 30046,30046,"? MH SUMH ? HI OP PHDT TELE ? PSY ? AT CBT ECT GT PTM ? CIT WI ? PVTP ? CLF MC MI 
OSF PI SCJJ SF SI SMHA SWFS VAF ? PA SS ? TAY SE VET CJ CO TRMA SMI ? CM SPS ? NRT 
STU TCC ? SMPD ? ADLT CHLD SNR YAD ? AH ? SP"
View Point Health,175 Gwinnett Drive,Lawrenceville,Georgia 30046,30046,"? MH SUMH ? OP ? OMH ? CBT DBT GT IDD IPT PTM TT ? CIT WI ? OSG ? CLF CMHG CSBG 
MC MD MI OSF SCJJ SF SI SMHA SWFS VAF ? CJ CO TRMA PTSD SED SMI ? ACT CM COOT 
HS ICM IMR SH SPS ? STU ? SMON ? ADLT CHLD SNR YAD ? AH ? F36 F81"
View Point Health Adult Crisis Stabilization Unit,615 Lawrenceville Suwanee Road,Lawrenceville,Georgia 30045,30045,"? MH SUMH ? RES ? RTCA ? DBT GT IDD PTM ? OSG ? CMHG CSBG MD SF SI SMHA ? CO ? 
CM FPSY ? NRT STU ? SMON ? ADLT SNR YAD ? AH"
Health Connect America,299 Cooper Road,Loganville,Georgia 30052,30052,"? MH SUMH ? OP TELE ? OMH ? AT BMT CBT CFT DBT IDD IPT PTM TT ? CIT ? PVTP ? MD PI 
SF SWFS ? SS ? CM COOT FPSY SPS TPC ? SMON ? ADLT CHLD SNR YAD ? AH ? SP"
Coliseum Center for Behavioral Health,340 Hospital Drive,Macon,Georgia 31217,31217,"? MH SUMH ? HI OP PHDT TELE ? PSY ? AT CBT ECT GT IDD PTM TT ? CIT ? PVTP ? MC MD 
MI PI SF SI VAF ? SE ? CM DEC FPSY ? NRT NSC STU ? SMON ? ADLT SNR YAD ? AH"
Methodist Home of the South Georgia Conference Light House for Families,116 Pierce Avenue,Macon,Georgia 31204,31204,"? MH ? OP ? OMH ? BMT CBT CFT DBT GT IPT PTM TT ? CIT ? PVTN ? CLF MD OSF PI SCJJ 
SF SI SMHA SWFS ? TAY MF TRMA PTSD SED ? DEC ES FPSY SPS TPC PEER ? TCC ? SMON 
? ADLT CHLD YAD ? AH"
Navicent Health The Pavilion,777 Hemlock Street,Macon,Georgia 31201,31201,"? MH SUMH ? HI ? PSY ? AT BMT CBT CFT GT IPT PTM ? WI ? PVTN ? CLF CMHG CSBG MC 
MD MI PI SCJJ SF SI SMHA SWFS VAF ? PA ? SE CO ? CDM CM COOT ES FPSY IMR IPC LAD 
SPS ? NRT NSC STU TCC ? SMON ? SNR ? AH ? SP"
Health Connect America,255 North Main Street Suite D,Madison,Georgia 30650,30650,"? MH SUMH ? OP TELE ? OMH ? AT BMT CBT CFT GT IDD IPT PTM TT ? CIT ? PVTP ? CLF MD 
SF SI SWFS ? TAY GL CO TRMA PTSD SED SMI ? CM COOT FPSY SPS TPC PEER ? SMPD ? 
ADLT CHLD SNR YAD"
C and T Counseling LLC,2470 Windy Hill Road Suite 221,Marietta,Georgia 30067,30067,"? MH ? OP ? OMH ? BMT CBT CFT GT IPT TT ? PVTP ? SF ? SS ? TRMA ? COOT ES ? SMPD 
? ADLT SNR YAD"
Cobb/Douglas Community Serv Board Cobb Outpatient Services,1650 County Services Parkway,Marietta,Georgia 30008,30008,"? MH SUMH ? OP ? OMH ? GT IDD IPT PTM TT ? OSG ? CLF MC MD PI SF SMHA ? PA SS ? 
TRMA ? CM COOT ICM SEMP 
? STU ? SMON ? ADLT CHLD SNR YAD ? AH"
McIntosh Trail CSB Henry County Counseling Center,139 Henry Parkway,McDonough,Georgia 30253,30253,"? MH SUMH ? OP TELE ? OMH ? BMT CBT GT IPT PTM TT ? PVTN ? CLF MC MD PI SF VAF ? 
TAY SE VET CJ CO TRMA PTSD SED SMI ? ACT CM COOT ICM PRS SEMP SH ? TCC ? SMON 
? ADLT CHLD SNR YAD ? AH ? SP"
Oconee Community Service Board Family Directions,1371 Orchard Hill Road,Milledgeville,Georgia 31061,31061,"? MH SUMH ? OP ? OMH ? AT BMT CBT CFT GT IPT PTM TT ? OSG ? CLF MC MD OSF PI SEF 
SF SI SMHA SWFS ? SS ? CO SED ? CM COOT DEC FPSY PEER ? SMPD ? CHLD ? AH ? SP"
Oconee Community Service Board Oconee Adult Mental Health Clinic,430 North Jefferson Street NE,Milledgeville,Georgia 31061,31061,"? MH SUMH ? OP ? OMH ? AT BMT CBT CFT GT IPT PTM TT ? OSG ? CLF MC MD OSF PI 
SCJJ SF SI SMHA SWFS ? SS ? CO SMI ? CM COOT DEC FPSY PRS SEMP SH VRS PEER ? 
SMPD ? ADLT SNR YAD ? AH ? SP"
Advantage Behavioral Health Systems Walton County Mental Health Center,834 Highway 11 SW,Monroe,Georgia 30655,30655,"? MH SUMH ? OP TELE ? OMH ? AT BMT CBT CFT DBT GT IDD IPT PTM TT ? CIT WI ? PVTN ? 
FQHC ? CLF CMHG CSBG ITU MC MD MI OSF PI SF SI SMHA SWFS ? PA SS ? CO ? ACT CDM 
CM COOT FPSY IMR PRS SEMP SPS ? STU ? SMON ? ADLT CHLD SNR YAD ? AH"
Clayton Center Behavioral Health Children Young Adults and Families,1396 South Lake Plaza Drive,Morrow,Georgia 30260,30260,"? MH SUMH ? OP TELE ? CMHC ? BMT CBT CFT DBT GT IDD IPT PTM TT ? WI ? OSG ? CLF 
CMHG CSBG MC MD MI OSF PI SCJJ SEF SF SI SMHA SWFS VAF ? PA SS ? CJ CO TRMA 
PTSD SED ? CM COOT DEC ES FPSY HS PRS SH SPS ? SMPD ? CHLD YAD ? AH"
Unison Behavioral Health Brantley Behavioral Health,434 Bryan Street,Nahunta,Georgia 31553,31553,"? MH SUMH ? OP TELE ? OMH ? AT BMT CBT CFT DBT GT IDD IPT PTM TT ? CIT WI ? OSG ? 
MC MD MI PI SF SI SMHA SWFS ? PA SS ? CO SED ? CM COOT DEC ES FPSY HS ICM PRS 
SEMP SH SPS ? TCC ? SMPD ? ADLT CHLD SNR YAD ? AH"
Pathways Center Coweta County MH/AD,59 Hospital Road,Newnan,Georgia 30263,30263,"? MH SUMH ? OP TELE ? OMH ? CBT CFT GT IDD IPT PTM TT ? CIT WI ? OSG ? CLF MC MD 
PI SF SI SMHA VAF ? SS ? TAY CO TRMA SED SMI ? ACT CM COOT IMR PRS SEMP SH SPS 
PEER ? SMPD ? ADLT CHLD SNR YAD ? AH ? SP"
Willow Oak Community Behav Health Ctr,"37 Calumet Parkway, Building J, Suites 101-102",Newnan,Georgia 30263,30263,"? MH SUMH ? OP TELE ? OMH ? AT BMT CBT CFT DBT GT IDD IPT PTM TT ? CIT WI ? PVTP ? 
MC MD MI PI SF SI ? SS ? TAY SE GL VET ADM MF CJ CO HV TRMA PED PTSD SED SMI ? 
CDM COOT ES FPSY HS IMR PRS SPS VRS PEER ? NRT NSC STU TCC ? SMON ? ADLT CHLD 
SNR YAD ? AH ? SP F19 F28 F36"
Clinic for Education Treatment and Prevention of Addiction Inc,6020 Dawson Boulevard Suite I,Norcross,Georgia 30093,30093,"? MH SUMH ? OP TELE ? OMH ? AT BMT CBT CFT DBT GT IDD IPT PTM TT ? CIT ? PVTN ? 
MD OSF SF SI SMHA SWFS ? SS ? CO ? CM COOT ES FPSY PRS SPS ? SMPD ? ADLT CHLD 
SNR YAD ? SP F67"
View Point Health Norcross Outpatient Center,5030 Georgia Belle Court Suite 2036,Norcross,Georgia 30093,30093,"? MH SUMH ? OP ? OMH ? BMT CBT DBT GT IDD IPT PTM TT ? CIT ? OSG ? CLF MC MD MI 
OSF PI SF SI SMHA SWFS VAF ? VET CO TRMA PTSD SED SMI ? CM ICM IMR SPS ? STU ? 
SMON ? ADLT CHLD SNR YAD ? AH"
Lakeview Behavioral Health,1 Technology Parkway South,Peachtree Corners,Georgia 30092,30092,"? MH SUMH ? HI OP PHDT TELE ? PSY ? AT BMT CBT GT IDD IPT PTM ? CIT WI ? PVTP ? MC 
MD MI PI SF SI SWFS ? TAY SE GL VET ADM MF CJ CO HV TRMA TBI ALZ PTSD SED SMI ? 
CM DEC ES FPSY IPC PRS SPS ? STU TCC ? SMON ? ADLT CHLD SNR YAD ? AH"
Riverwoods Behavioral Health,223 Medical Center Drive,Riverdale,Georgia 30274,30274,"? MH SUMH ? HI PHDT ? PSY ? AT CBT CFT DBT GT IDD PTM ? CIT WI ? PVTP ? MC MI PI 
SCJJ SF SI SMHA SWFS VAF ? SED SMI ? CM FPSY IMR SPS PEER ? NSC STU TCC ? SMPD 
? ADLT CHLD SNR YAD ? AH"
McLeod Gaston Inc DBA Bishop Foundation,102 North Madison Street,Quitman,Georgia 31643,31643,"? MH SUMH ? OP PHDT ? CMHC ? AT BMT CBT CFT DBT GT IDD IPT PTM ? CIT ? PVTP ? MD 
MI PI SF ? SE CJ CO SMI ? CDM CM COOT DEC ES FPSY IMR IPC PRS SPS PEER ? STU TCC 
? SMPD ? ADLT SNR YAD ? AH"
Pineland Area MH/MR/SA CSB Tattnall Counseling Center,150 Memorial Drive,Reidsville,Georgia 30453,30453,"? MH SUMH ? OP PHDT ? OMH ? BMT CBT CFT DBT GT IDD IPT PTM TT ? WI ? OSG ? MC 
MD PI SCJJ SF SI SMHA ? SS ? SE GL CO HV TRMA TBI PTSD SED SMI ? CM COOT ICM PRS 
SPS PEER ? STU ? SMON ? ADLT CHLD SNR YAD ? SP"
Morningstar Children and Family Servs Reynolds,13 North Winston Street,Reynolds,Georgia 31076,31076,"? MH SUMH ? OP TELE ? OMH ? BMT CBT CFT GT IPT PTM TT ? PVTN ? MD PI SF ? ES FPSY 
PRS SPS ? SMON ? CHLD YAD ? SP"
Gateway Behavioral Health Services Effingham Outpatient Center,108 West 8th Street Extension,Rincon,Georgia 31326,31326,"? MH SUMH ? OP PHDT TELE ? OMH ? BMT CBT CFT DBT GT IDD IPT PTM TT ? WI ? LMG ? 
CLF CMHG CSBG MC MD MI PI SCJJ SF SI SMHA SWFS ? PA SS ? CO ? CM COOT FPSY HS 
ICM PRS SEMP VRS PEER ? SMPD ? ADLT CHLD SNR YAD ? AH"
Willowbrooke at Floyd,306 Shorter Avenue NW,Rome,Georgia 30165,30165,"? MH SUMH ? HI PHDT ? PSY ? AT CBT CFT GT IDD IPT PTM TT ? CIT WI ? PVTN ? MC MD PI 
SF SI SMHA ? CO SMI ? CM SPS ? NRT STU TCC ? SMON ? ADLT SNR YAD ? AH"
Saint Marys CBOC,2603 Osborne Road Suite E,Saint Marys,Georgia 31558,31558,"? MH ? OP TELE ? OMH ? AT BMT CBT CFT DBT GT IDD IPT PTM TT ? CIT WI ? VAMC ? FQHC 
? MC MD MI PI SI SMHA SWFS VAF ? SE VET TRMA PTSD ? CDM CM COOT DEC ES FPSY HS 
IMR IPC LAD PRS SPS VRS ? NRT NSC STU TCC ? SMON ? ADLT SNR YAD ? VO ? SP"
Saint Simons by the Sea,2927 Demere Road,Saint Simons Island,Georgia 31522,31522,"? MH SUMH ? HI ? PSY ? AT BMT CBT DBT GT IDD IPT PTM ? WI ? PVTP ? MC MD MI PI SF SI 
VAF ? VET ADM MF CO TRMA PTSD ? CM DEC FPSY IMR IPC SPS PEER ? NRT NSC STU TCC 
? SMPD ? ADLT CHLD SNR YAD ? AH"
Oconee Community Service Board Washington County Mental Health,522 Washington Avenue,Sandersville,Georgia 31082,31082,"? MH SUMH ? OP ? OMH ? AT BMT CBT CFT GT IPT PTM TT ? OSG ? CLF MC MD OSF PI 
SCJJ SF SI SMHA SWFS ? SS ? CO SED SMI ? CM COOT DEC FPSY PRS SEMP PEER ? 
SMPD ? ADLT CHLD SNR YAD ? AH ? SP"
Coastal Behavioral Health,633 Stephenson Avenue,Savannah,Georgia 31405,31405,"? MH SUMH ? HI OP PHDT ? PSY ? AT BMT CBT CFT DBT GT IDD IPT PTM TT ? CIT WI ? 
PVTP ? MC MI PI SF SI SMHA VAF ? VET ADM CO PTSD ? CM DEC FPSY IPC PRS SPS ? NRT 
NSC STU TCC ? SMPD ? ADLT SNR YAD ? AH"
Coastal Harbor Treatment Center,1150 Cornell Avenue,Savannah,Georgia 31406,31406,"? MH SUMH ? HI RES ? PSY ? AT BMT CBT CFT DBT GT IPT PTM TT ? CIT WI ? PVTP ? CLF 
MC MD MI PI SCJJ SEF SF SI SMHA SWFS VAF ? CO TRMA SED SMI ? DEC ES FPSY SPS TPC 
PEER ? NRT NSC STU TCC ? SMON ? ADLT CHLD SNR YAD ? AH"
Gateway Behavioral Health Services Chatham Outpatient Center,800 East 70th Street,Savannah,Georgia 31405,31405,"? MH SUMH ? OP TELE ? OMH ? BMT CBT CFT DBT GT IDD IPT PTM TT ? LMG ? CMHG MC 
MD MI PI SF SI SMHA ? PA SS ? CO ? CM COOT FPSY HS ICM PRS SEMP SH VRS PEER ? 
SMPD ? ADLT CHLD SNR YAD ? AH ? SP"
Malinda Graham and Associates,"5105 Paulsen Street, Suite 100-A",Savannah,Georgia 31405,31405,"? MH SUMH ? OP TELE ? OMH ? AT BMT CBT CFT DBT GT IDD IPT PTM TT ? CIT WI ? PVTP ? 
MC MD MI PI SF SI SWFS ? SS ? TAY SE GL VET ADM MF CJ CO HV TRMA PED PTSD SED 
SMI ? CM COOT FPSY SPS ? SMPD ? ADLT CHLD SNR YAD ? SP"
Memorial Health University Med Ctr Center for Behav Medicine,4700 Waters Avenue,Savannah,Georgia 31404,31404,"? MH SUMH ? HI ? PSY ? AT BMT CBT CFT ECT GT IDD IPT PTM TT ? CIT WI ? PVTP ? CLF 
CMHG CSBG ITU MC MD MI OSF PI SCJJ SEF SF SI SMHA SWFS VAF ? SE PTSD ? CDM CM 
DEC ES SPS ? NRT STU TCC ? SMON ? ADLT SNR YAD ? AH"
Ralph H Johnson VAMC Savannah Clinic,1170 Shawnee Street,Savannah,Georgia 31419,31419,"? MH SUMH ? OP TELE ? BMT CBT CFT DBT GT IPT PTM TT ? CIT WI ? VAMC ? VAF ? VET 
CO TRMA TBI PTSD ? ACT CM COOT DEC FPSY HS ICM IPC PRS SEMP SH SPS VRS PEER ? 
NRT NSC STU TCC ? SMON ? ADLT SNR YAD ? VO ? AH"
UHS of Savannah LLC 1150 Cornell Avenue,Savannah,Georgia 31406,Phone: (912) 650-5800,,"? MH SUMH ? HI PHDT RES TELE ? PSY ? AT CBT CFT DBT GT IDD IPT PTM TT ? CIT WI ? 
PVTP ? MC MI PI SEF SF SI VAF ? VET ADM CO TRMA PTSD SED SMI ? TPC ? NRT NSC STU 
TCC ? SMPD ? ADLT CHLD SNR YAD ? AH"
Union Mission Inc 120 Fahm Street,Savannah,Georgia 31401,Phone: (912) 238-2777x1102,,"? MH SUMH ? OP TELE ? OMH ? CBT CFT DBT IDD IPT PTM TT ? PVTN ? CLF SF ? SS ? 
COOT FPSY HS IMR SEMP SH SPS VRS PEER ? SMPD ? ADLT CHLD SNR YAD"
Ridgeview Institute,3995 South Cobb Drive SE,Smyrna,Georgia 30080,30080,"? MH SUMH ? HI OP PHDT ? PSY ? AT BMT CBT CFT GT IDD IPT PTM TT ? WI ? PVTP ? MC PI 
SF ? SE CO TRMA ALZ PTSD ? CM ES FPSY SPS ? NRT NSC STU TCC ? SMPD ? ADLT CHLD 
SNR YAD ? AH"
Eastside Medical Center,1700 Medical Way,Snellville,Georgia 30078,30078,"? MH SUMH ? HI TELE ? PSY ? AT BMT ECT GT IDD PTM ? WI ? PVTP ? MC MD PI SF ? SE 
CO ALZ SMI ? CM FPSY SPS ? SMON ? ADLT SNR YAD ? AH ? SP"
Bulloch Day MH Day Services PSR-G/Peer Support,"515 Denmark Street, Suite 2200",Statesboro,Georgia 30458,30458,"? MH SUMH ? OP ? OMH ? AT CBT DBT GT PTM ? SMA ? MC MD OSF PI SF SMHA ? PA SS ? 
SE CO PTSD SMI ? CM PRS PEER ? SMPD ? ADLT SNR YAD ? AH"
Pineland Area MH/MR/SA CSB Bulloch Counseling Center,11 North College Street,Statesboro,Georgia 30458,30458,"? MH SUMH ? OP TELE ? CMHC ? BMT CBT CFT DBT GT IPT PTM TT ? OSG ? MC MD PI SF ? 
ACT CM COOT HS ICM PRS SEMP SH ? SMON ? ADLT CHLD SNR YAD ? AH"
Atlanta Psychotherapy LLC,"831 Fairways Court, Suite A",Stockbridge,Georgia 30281,30281,"? MH SUMH ? OP ? OMH ? BMT CBT CFT DBT GT IDD IPT PTM TT ? PVTP ? CLF MC MD MI 
OSF PI SCJJ SF SI SMHA SWFS VAF ? CO ? CM PRS ? NSC TCC ? SMPD ? ADLT CHLD SNR 
YAD ? AH"
I Can Think Positive Counseling and Coaching Services LLC,5405 Memorial Drive Suite C,Stone Mountain,Georgia 30083,30083,"? MH SUMH ? OP ? OMH ? AT BMT CBT CFT DBT GT IPT PTM TT ? WI ? PVTP ? CLF MD MI PI 
SEF SF SI SWFS VAF ? CO ? CM COOT FPSY ICM PRS SPS ? SMPD ? ADLT CHLD SNR YAD"
CarePartners of Georgia Inc,243 West Main Street,Swainsboro,Georgia 30401,30401,"? MH SUMH ? OP TELE ? OMH ? BMT CBT CFT DBT GT IDD IPT PTM TT ? CIT WI ? PVTP ? 
CLF CMHG MD MI PI SCJJ SEF SI SMHA SWFS ? SS ? TAY SE GL CO HV TRMA SED SMI ? CM 
FPSY IMR IPC PRS ? SMON ? ADLT CHLD SNR YAD ? AH"
CSB of Middle Georgia Ogeechee Division,302 East Ogeechee Street,Sylvania,Georgia 30467,30467,"? MH SUMH ? OP TELE ? OMH ? BMT CBT CFT DBT GT IDD IPT PTM ? WI ? OSG ? CMHG MC 
MD MI PI SF SI SMHA ? PA SS ? TAY SE GL VET MF CJ CO HV TRMA PTSD SED SMI ? CM 
COOT DEC FPSY HS IMR PRS SH SPS PEER ? STU ? SMPD ? ADLT CHLD SNR YAD ? AH"
New Horizons Community Serv Board Harmon Center,159 Park Street,Talbotton,Georgia 31827,31827,"? MH SUMH ? OP ? OMH ? PTM ? LMG ? CLF CMHG CSBG MC MD MI OSF PI SF SI SMHA 
SWFS ? SS ? CM ICM SH ? STU ? SMPD ? ADLT CHLD SNR YAD ? AH"
McIntosh Trail CSB Upson County Counseling Center,713 Andrews Drive,Thomaston,Georgia 30286,30286,"? MH SUMH ? OP TELE ? OMH ? BMT CBT CFT DBT GT IDD IPT PTM TT ? LMG ? CLF MC MD 
OSF SF SI SMHA SWFS ? PA ? TAY SE GL VET CJ CO TRMA PTSD SED SMI ? ACT CDM CM 
COOT DEC FPSY IMR PRS SEMP SH SPS PEER ? STU ? SMPD ? ADLT CHLD SNR YAD ? AH"
Archbold Northside Center for Behavioral and Psychiatric Care,401 Old Albany Road,Thomasville,Georgia 31792,31792,"? MH SUMH ? HI TELE ? PSY ? AT BMT CBT CFT GT IDD IPT PTM ? CIT WI ? PVTN ? MC MD 
MI PI SF SI VAF ? SE CO ALZ ? CM SPS ? NRT NSC STU ? SMON ? ADLT SNR YAD ? AH"
Georgia Pines Community Service Board MH/IDD/SA Servs,1102 Smith Avenue,Thomasville,Georgia 31792,31792,"? MH SUMH ? OP TELE ? CMHC ? AT BMT CBT CFT DBT GT IDD IPT PTM TT ? CIT WI ? OSG 
? CLF CMHG CSBG MC MD MI OSF SF SMHA SWFS VAF ? CO PTSD SED SMI ? ACT CM 
COOT FPSY HS IPC PRS SH SPS PEER ? STU TCC ? SMPD ? ADLT CHLD SNR YAD ? AH"
Vashti Center Inc,1815 East Clay Street,Thomasville,Georgia 31792,31792,"? MH SUMH ? OP TELE ? CMHC ? BMT CBT CFT GT IPT PTM TT ? PVTN ? FQHC ? MD ? CO 
TRMA PTSD SED ? CM COOT FPSY ICM ? STU ? SMON ? CHLD ? SP"
Serenity Behavioral Health Systems McDuffie Behavioral Health Services,306 Greenway Street,Thomson,Georgia 30824,30824,"? MH SUMH ? OP TELE ? OMH ? BMT CBT CFT DBT GT IPT PTM TT ? WI ? OSG ? MD SF 
SMHA ? PA SS ? CM COOT PRS SPS ? SMPD ? ADLT SNR YAD ? AH"
Legacy Behavioral Health Services Tift County Mental Health Center 334 Tifton Eldorado Road,Tifton,Georgia 31794,Phone: (229) 391-2300,,"? MH SUMH ? OP TELE ? CMHC ? AT CBT CFT GT IDD IPT PTM TT ? WI ? SMA ? MC MD MI PI 
SF SI SMHA ? PA SS ? TAY CO TRMA SED SMI ? CM COOT FPSY PRS SEMP SH SPS ? SMPD 
? ADLT CHLD SNR YAD ? AH"
Tiftarea Psychiatric and Csl Services,"223 East 2nd Street, Suite B",Tifton,Georgia 31794,31794,"? MH ? OP TELE ? OMH ? AT BMT CBT CFT GT IDD IPT TT ? PVTP ? MD MI PI SF ? TAY CO 
TRMA TBI PED PTSD ? COOT FPSY SPS ? SMPD ? ADLT CHLD YAD"
Avita Community Partners Toccoa Service Center,1763 Fernside Drive,Toccoa,Georgia 30577,30577,"? MH SUMH ? OP TELE ? CMHC ? BMT CBT CFT DBT GT IDD IPT PTM ? CIT WI ? PVTN ? 
FQHC ? CMHG CSBG MD MI OSF SF SMHA SWFS VAF ? PA SS ? VET CO SED SMI ? CM 
COOT FPSY PRS SEMP SPS ? SMPD ? ADLT CHLD SNR YAD ? AH"
Stephens County Mental Health,1763 Fernside Drive,Toccoa,Georgia 30577,30577,"? MH SUMH ? OP TELE ? OMH ? BMT CBT CFT DBT GT IDD IPT PTM ? CIT ? OSG ? CLF 
CMHG CSBG MD MI SCJJ SF SI SWFS VAF ? PA SS ? TAY SE CO SED SMI ? CM COOT FPSY 
PRS SEMP SPS ? SMPD ? ADLT CHLD SNR YAD ? AH"
Lookout Mountain Community Servs Trenton Outpatient Clinic,12586 North Main Street,Trenton,Georgia 30752,30752,"? MH SUMH ? OP TELE ? OMH ? CBT CFT GT IPT PTM ? OSG 
? CMHG CSBG MC MD MI OSF PI SF SI SMHA ? PA SS ? PRS ? SMON ? ADLT CHLD SNR YAD 
? AH"
Health Connect America,100 Glendalough Court,Tyrone,Georgia 30290,30290,"? MH SUMH ? OP ? CMHC ? BMT CBT CFT GT IPT PTM TT ? PVTP ? FQHC ? MD SF ? SS ? 
TAY GL CO TRMA PTSD SED SMI ? CM COOT FPSY ICM PRS SPS PEER ? SMPD ? ADLT 
CHLD YAD ? AH ? SP"
Choices for Life of Georgia LLC,2200 North Patterson Street,Valdosta,Georgia 31602,31602,"? MH SUMH ? OP ? OMH ? BMT CBT CFT DBT GT IDD IPT PTM TT ? CIT ? PVTP ? MD MI PI 
SF ? PA SS ? TAY GL MF CJ CO HV TRMA PED PTSD SED ? CM COOT DEC FPSY SPS TPC 
PEER ? STU ? SMON ? CHLD YAD ? AH"
Greenleaf Behavioral Health Hospital,2209 Pineview Drive,Valdosta,Georgia 31602,31602,"? MH SUMH ? HI PHDT TELE ? PSY ? AT CBT DBT GT IDD IPT PTM TT ? CIT WI ? PVTP ? MC 
MI PI SCJJ SF SI VAF ? VET ADM MF CO TRMA ALZ ? CDM CM DEC FPSY IMR IPC SPS PEER 
? NRT NSC STU TCC ? SMPD ? ADLT CHLD SNR YAD ? AH"
Greenleaf Counseling Center,2217 Pineview Drive,Valdosta,Georgia 31602,31602,"? MH SUMH ? OP PHDT RES TELE ? OMH ? BMT CBT GT IDD IPT PTM ? PVTP ? CLF CMHG 
CSBG ITU MC MI OSF PI SCJJ SEF SF SI SWFS VAF ? CO ? COOT ES HS PRS ? NRT NSC 
STU ? SMPD ? ADLT SNR YAD ? SP"
PeaceWay Counseling and Mediation Services Inc,2405 Bemiss Road,Valdosta,Georgia 31602,31602,"? MH SUMH ? OP TELE ? OMH ? AT BMT CBT CFT DBT GT IDD IPT PTM TT ? PVTP ? CLF ITU 
MC MD MI PI SCJJ SEF SF SI SMHA SWFS VAF ? VET ADM MF CJ CO PED PTSD SED SMI ? 
ACT CDM CM COOT DEC FPSY ICM IMR IPC SPS TPC PEER ? SMPD ? ADLT CHLD SNR YAD 
? SP"
Malinda Graham and Associates,304 Arlington Avenue,Vidalia,Georgia 30474,30474,"? MH SUMH ? OP TELE ? OMH ? BMT CBT CFT DBT GT IDD IPT PTM TT ? PVTP ? MC MD PI 
SCJJ SF SI SMHA ? PA SS ? TAY SE CO TRMA PTSD SED SMI ? CM COOT FPSY ICM PRS SPS 
PEER ? SMPD ? ADLT CHLD SNR YAD ? SP"
Pineland Area MH/DD/AD/CSB Toombs Csl Ctr Outpatient Clinic,204 Durden Street,Vidalia,Georgia 30474,30474,"? MH SUMH ? OP TELE ? OMH ? CBT CFT DBT GT IPT PTM TT ? WI ? OSG ? CLF CMHG 
CSBG MC MD MI OSF PI SCJJ SF SI SMHA SWFS ? PA SS ? CM COOT FPSY ICM PRS SH SPS 
PEER ? SMON ? ADLT CHLD SNR YAD ? AH"
Tanner Medical Center Willowbrooke at Tanner,20 Herrell Road,Villa Rica,Georgia 30180,30180,"? MH SUMH ? HI OP PHDT TELE ? PSY ? AT BMT CBT CFT DBT GT IDD IPT PTM TT ? PVTN ? 
MC MD PI SCJJ SEF SF SI SMHA SWFS ? SE GL CO PTSD ? CM PRS SPS ? NRT STU TCC ? 
SMON ? ADLT CHLD SNR YAD ? AH"
Dynamic Interventions Inc,524 South Houston Lake Road Suite G-100,Warner Robins,Georgia 31088,31088,"? MH SUMH ? OP TELE ? OMH ? BMT CBT CFT DBT GT IDD IPT PTM TT ? CIT WI ? PVTP ? 
CMHG MD MI PI SF SI SMHA ? SS ? TAY GL MF CJ CO HV TRMA PTSD SED SMI ? ACT CM 
DEC FPSY IPC PRS SPS PEER ? STU TCC ? SMON ? ADLT CHLD YAD ? AH ? SP"
Houston Medical Center Behavioral Science and Psychiatry,1601 Watson Boulevard,Warner Robins,Georgia 31093,31093,"? MH SUMH ? HI OP ? PSY ? AT CBT CFT GT IDD IPT PTM TT ? CIT WI ? PVTN ? MC MD MI PI 
SF SI VAF ? SMI ? CDM DEC ES FPSY SPS ? NRT STU ? SMON ? ADLT SNR YAD ? AH"
Memorial Satilla Health,1900 Tebeau Street,Waycross,Georgia 31501,31501,"? MH SUMH ? HI OP TELE ? PSY ? AT BMT CFT IDD IPT PTM TT ? WI ? PVTP ? MC MD MI PI 
SF SI ? SE GL VET CO TRMA TBI ALZ PTSD ? CM DEC ICM IMR IPC ? NRT NSC STU ? SMON 
? ADLT SNR"
Unison Behavioral Health,1007 Mary Street,Waycross,Georgia 31503,31503,"? MH SUMH ? OP TELE ? OMH ? BMT CBT CFT DBT GT IDD IPT PTM TT ? WI ? OSG ? CLF 
CMHG CSBG MC MD MI OSF PI SF SMHA SWFS ? PA SS ? CO ? CM COOT DEC ES FPSY HS 
ICM PRS SEMP SH SPS PEER ? STU TCC ? SMPD ? ADLT SNR YAD ? AH"
Unison Behavioral Health Child and Adol Clinic in Ware Cnty,1003 Mary Street,Waycross,Georgia 31501,31501,"? MH SUMH ? OP TELE ? OMH ? AT BMT CBT CFT DBT GT IDD IPT PTM TT ? CIT WI ? OSG ? 
CLF MC MD MI PI SF SI SMHA SWFS ? PA SS ? CO SED ? CM DEC ES FPSY SPS ? TCC ? 
SMPD ? CHLD YAD ? AH"
Unison Behavioral Health Saint Illa Center,3455 Harris Road,Waycross,Georgia 31503,31503,"? MH SUMH ? RES ? RTCA ? AT BMT CBT CFT DBT GT IDD IPT PTM TT ? CIT WI ? OSG ? MC 
MD PI SF SI SMHA ? PA SS ? CO ? CM DEC ES FPSY HS PRS SEMP SH SPS PEER ? NRT STU 
TCC ? SMON ? ADLT SNR YAD ? AH"
Comm Service Board of Mid Georgia Ogeechee Division,292 West 4th Street,Waynesboro,Georgia 30830,30830,"? MH SUMH ? OP TELE ? CMHC ? CBT CFT GT IDD IPT PTM TT ? WI ? PVTN ? CLF CMHG 
CSBG ITU MC MD MI OSF PI SCJJ SF SI SMHA VAF ? PA SS ? SE GL VET ADM MF CJ CO HV 
TRMA PED PTSD SED SMI ? CDM CM COOT DEC ES FPSY HS IMR IPC PRS SH SPS ? STU ? 
SMPD ? ADLT CHLD SNR YAD ? AH"
Advantage Behavioral Health Systems Barrow County Mental Health Center,98 Lanthier Street,Winder,Georgia 30680,30680,"? MH SUMH ? OP TELE ? CMHC ? BMT CBT CFT DBT GT IDD IPT PTM TT ? CIT ? SMA ? MC 
MD PI SF SI SMHA ? TAY SE GL VET ADM MF CJ CO HV TRMA PTSD SED SMI ? CM COOT 
FPSY PRS ? SMPD ? ADLT CHLD SNR YAD ? AH"
