Name,Address,City,State,Zip,Services
Community Hlth Ctr of Southern IA,117 South Main Street,Albia,Iowa 52531,52531,"? MH SUMH ? OP TELE ? CMHC ? BMT CBT CFT DBT IPT PTM TT ? PVTN ? FQHC ? CLF MC 
MD MI PI SF SI ? SS ? COOT FPSY SPS ? STU ? SMPD ? ADLT CHLD SNR YAD ? AH"
Eyerly Ball Community MH Services Story County Outpatient Clinic,"2521 University Boulevard, Suite 121",Ames,Iowa 50010,50010,"? MH SUMH ? OP TELE ? CMHC ? BMT CBT CFT DBT GT IPT PTM TT ? CIT ? PVTN ? CLF 
CMHG CSBG MC MD MI OSF PI SCJJ SF SI SMHA SWFS VAF ? COOT FPSY ? SMON ? ADLT 
CHLD SNR YAD ? AH"
Lutheran Services in Iowa Inc,1323 NW Avenue,Ames,Iowa 50010,50010,"? MH ? OP RES ? RTCC ? AT BMT CBT CFT GT IPT PTM TT ? PVTN ? CLF MD OSF PI SCJJ SF 
SI SMHA SWFS ? CJ TRMA PTSD SED ? CM ES FPSY IPC ? SMON ? CHLD ? AH"
Mary Greeley Medical Center Behavioral Health Unit,1111 Duff Avenue,Ames,Iowa 50010,50010,"? MH SUMH ? HI TELE ? PSY ? AT CBT DBT ECT GT IPT PTM ? CIT WI ? PVTN ? CLF MC MD 
MI PI SF SI VAF ? SE CO SMI ? NRT NSC STU TCC ? SMON ? ADLT SNR YAD ? AH"
Richmond Center,1619 South High Avenue,Ames,Iowa 50010,50010,"? MH SUMH ? OP TELE ? OMH ? AT BMT CBT CFT DBT GT IDD IPT PTM TT ? PVTN ? CLF MC 
MD MI PI SCJJ SF SI SWFS VAF ? SS ? CO ? COOT ES FPSY SPS ? NRT NSC STU TCC ? 
SMON ? ADLT CHLD SNR YAD ? AH"
Cass County Memorial Hospital Behavioral Health Unit,1501 East 10th Street,Atlantic,Iowa 50022,50022,"? MH ? HI TELE ? PSY ? AT CBT GT IPT PTM TT ? PVTN ? CLF CMHG CSBG ITU MC MD MI 
OSF PI SCJJ SEF SF SI SMHA SWFS VAF ? TAY SE GL VET ADM MF CJ CO HV ALZ PED PTSD 
SED SMI ? DEC ? NRT NSC STU TCC ? SMON ? ADLT CHLD SNR YAD ? AH"
Southwest Iowa Mental Health Center,1500 East 10th Street,Atlantic,Iowa 50022,50022,"? MH ? OP ? CMHC ? CBT CFT GT IPT PTM TT ? CIT ? PVTN ? CLF MC MD MI PI SCJJ SEF SF 
SI SMHA VAF ? PA SS ? SED SMI ? COOT ? SMON ? ADLT CHLD SNR YAD ? AH ? SP"
Richmond Center,1332 South Marshall Street,Boone,Iowa 50036,50036,"? MH SUMH ? OP TELE ? OMH ? AT BMT CBT CFT DBT GT IDD IPT PTM TT ? PVTN ? CLF MC 
MD MI PI SCJJ SF SI SWFS VAF ? COOT ES FPSY SPS ? NRT NSC STU TCC ? SMON ? ADLT 
CHLD SNR YAD ? AH"
Catholic Charities Diocese of Sioux City,409 1/2 West 7th,Carroll,Iowa 51401,51401,"? MH ? OP ? OMH ? BMT CBT CFT IPT TT ? CIT ? PVTN ? CLF MC MD PI SCJJ SF SI SWFS ? 
PA SS ? TRMA PTSD ? COOT ES ? SMON ? ADLT CHLD SNR YAD"
Counseling Services LLC,322 East 6th Street,Carroll,Iowa 51401,51401,"? MH SUMH ? OP ? OMH ? CBT CFT IPT TT ? PVTP ? CLF CMHG CSBG ITU MC MD MI OSF PI 
SCJJ SF SI SMHA SWFS VAF ? PA SS ? COOT ? SMPD ? ADLT CHLD SNR YAD"
Plains Area Mental Health Center,"318 South Maple Street, Suite 1",Carroll,Iowa 51401,51401,"? MH SUMH ? OP TELE ? CMHC ? AT BMT CBT CFT DBT GT IDD IPT PTM TT ? CIT WI ? PVTN ? 
CLF CMHG CSBG MC MD MI OSF PI SF SI ? CM COOT ES FPSY IPC PEER ? STU ? SMPD ? 
ADLT CHLD SNR YAD ? AH"
St Anthony Regional Hospital St Anthony Mental Health Services,311 South Clark Street,Carroll,Iowa 51401,51401,"? MH SUMH ? OP ? OMH ? AT BMT GT PTM TT ? CIT WI ? PVTN ? MC MD PI SF SI ? COOT ES 
SPS ? NRT NSC STU TCC ? SMON ? ADLT CHLD SNR YAD"
MercyOne Cedar Falls Medical Center,515 College Street,Cedar Falls,Iowa 50613,50613,"? MH SUMH ? HI ? PSY ? CBT DBT GT IPT PTM TT ? PVTN ? CLF MC MD OSF PI SF SI SMHA ? 
SE ALZ ? CDM IPC SPS ? NRT NSC STU TCC ? SMON ? ADLT SNR ? AH"
Abbe Ctr for Comm Mental Health,520 11th Street NW,Cedar Rapids,Iowa 52405,52405,"? MH SUMH ? OP ? CMHC ? CBT CFT DBT GT IDD IPT PTM TT ? WI ? PVTN ? CLF CMHG 
CSBG MC MD MI OSF PI SCJJ SEF SF SI SMHA SWFS VAF ? SMI ? ACT COOT FPSY PRS 
PEER ? STU TCC ? SMPD ? ADLT CHLD SNR YAD ? SP"
Four Oaks Family and Childrens Service,5400 Kirkwood Boulevard SW,Cedar Rapids,Iowa 52404,52404,"? MH ? OP RES TELE ? RTCC ? AT BMT CBT DBT GT IDD IPT PTM TT ? PVTN ? MD PI SCJJ 
SEF SF SMHA SWFS ? SED ? CM FPSY SH ? SMON ? CHLD ? AH ? SP"
Saint Lukes Counseling Center,225 Coe Road NE,Cedar Rapids,Iowa 52402,52402,"? MH SUMH ? OP ? OMH ? AT BMT CBT CFT DBT GT IDD IPT TT ? PVTN ? CLF MC MD MI PI SF 
? PED ? CDM COOT DEC ES FPSY IPC ? SMON ? ADLT CHLD SNR YAD ? AH"
UnityPoint Health Childrens Specialty Services,4050 River Ridge Drive NE,Cedar Rapids,Iowa 52402,52402,"? MH ? PHDT ? PH ? AT CBT DBT GT TT ? PVTN ? ITU MC MD MI PI SF SI SMHA VAF ? SED ? 
COOT FPSY ? SMON ? CHLD YAD ? AH"
UnityPoint Health Partial Hospitalization,810 First Avenue NE,Cedar Rapids,Iowa 52403,52403,"? MH SUMH ? OP PHDT ? PH ? AT CBT DBT GT TT ? PVTN ? CLF MC MD MI PI SF SI SMHA 
VAF ? SMI ? STU ? SMPD ? ADLT SNR YAD ? AH"
UnityPoint Health St Lukes Hospital Psychiatric Services,1026 A Avenue NE,Cedar Rapids,Iowa 52402,52402,"? MH SUMH ? HI ? PSY ? AT CBT CFT DBT ECT GT IPT PTM TT ? WI ? PVTN ? CLF MC MD MI 
PI SF SI SMHA ? SE ALZ PED SED SMI ? ES ? STU TCC ? SMON ? ADLT CHLD SNR YAD ? AH"
Community Hlth Ctr of Southern IA,221 East State Street,Centerville,Iowa 52544,52544,"? MH SUMH ? OP TELE ? CMHC ? BMT CBT CFT DBT IDD IPT PTM TT ? CIT ? PVTN ? FQHC ? 
CLF MC MD MI PI SF SI ? SS ? CO ? COOT FPSY SPS ? STU ? SMPD ? ADLT CHLD SNR YAD ? 
AH"
Community Hlth Ctr of Southern IA,"1711 Osceola Avenue, Suite 115",Chariton,Iowa 50049,50049,"? MH SUMH ? OP TELE ? CMHC ? BMT CBT CFT DBT IPT PTM TT ? PVTN ? FQHC ? CLF MC 
MD MI PI SF SI ? SS ? COOT FPSY SPS ? STU ? SMPD ? ADLT CHLD SNR YAD ? AH"
Mental Health Institute,1251 West Cedar Loop,Cherokee,Iowa 51012,51012,"? MH ? HI ? PSY ? AT BMT PTM TT ? WI ? OSG ? CLF MC MD PI SI ? SED SMI ? CM DEC ES 
FPSY IMR IPC PRS SPS ? NRT NSC STU TCC ? SMON ? ADLT CHLD SNR YAD ? AH ? SP"
Plains Area Mental Health Center,900 North 2nd Street,Cherokee,Iowa 51012,51012,"? MH SUMH ? OP TELE ? CMHC ? AT BMT CBT CFT DBT GT IDD IPT PTM TT ? CIT WI ? PVTN ? 
CLF CMHG CSBG MC MD MI OSF PI SF SI ? CM COOT ES FPSY IPC PEER ? STU ? SMPD ? 
ADLT CHLD SNR YAD ? AH"
Southwest Iowa Families Inc,215 East Washington Street,Clarinda,Iowa 51632,51632,"? MH SUMH ? OP ? OMH ? AT BMT CBT CFT DBT GT IDD IPT TT ? PVTN ? CLF MC MD MI OSF 
PI SCJJ SF SI SMHA SWFS VAF ? SED ? SMPD ? ADLT CHLD SNR YAD"
MercyOne Clinton Medical Center Behavioral Health Care,1410 North 4th Street,Clinton,Iowa 52732,52732,"? MH ? HI TELE ? PSY ? AT PTM ? PVTN ? CLF MC MD MI PI SF SI SMHA SWFS ? SMI ? CDM 
SPS ? NRT STU ? SMON ? ADLT SNR YAD ? AH"
Community Hlth Ctr of Southern IA,102-104 North Franklin Street,Corydon,Iowa 50060,50060,"? MH SUMH ? OP TELE ? CMHC ? BMT CBT CFT DBT IPT PTM TT ? PVTN ? FQHC ? CLF MC 
MD MI PI SF SI ? SS ? COOT FPSY SPS ? STU ? SMPD ? ADLT CHLD SNR YAD ? AH ? SP"
CHI Health Mercy Mercy McDermott,800 Mercy Drive,Council Bluffs,Iowa 51503,51503,"? MH SUMH ? HI PHDT ? PSY ? AT BMT CBT CFT DBT GT IDD IPT PTM TT ? PVTN ? CLF 
CMHG CSBG MC MD MI OSF PI SCJJ SEF SF SWFS VAF ? CO ? CDM CM DEC ES FPSY IMR 
IPC LAD SPS PEER ? NRT NSC STU ? SMON ? ADLT CHLD SNR YAD ? AH"
CHI Health Psychiatric Associates Mercy,"801 Harmony Street, Suite 302",Council Bluffs,Iowa 51503,51503,"? MH SUMH ? OP ? OMH ? BMT CBT CFT DBT GT IDD IPT PTM TT ? PVTN ? CLF CMHG CSBG 
MC MD MI OSF PI SCJJ SF SI SMHA SWFS VAF ? CM COOT ES FPSY IPC SPS ? SMON ? ADLT 
CHLD SNR YAD ? AH"
Christian Home Association Childrens Square USA,North 6th Street and Avenue E,Council Bluffs,Iowa 51502,51502,"? MH ? OP RES ? RTCC ? BMT CBT CFT DBT GT IPT PTM TT ? PVTN ? MD MI PI SF SI ? SED ? 
CM COOT ES FPSY ? SMON ? CLHD"
Heartland Family Service H Lee Gendler Center,515 East Broadway,Council Bluffs,Iowa 51503,51503,"? MH SUMH ? OP ? OMH ? AT BMT CBT CFT DBT GT IDD IPT PTM TT ? CIT WI ? PVTN ? MC 
MD PI SF SI ? PA SS ? CO TRMA PTSD ? ACT CDM CM COOT ES FPSY HS ICM IMR IPC SPS 
PEER ? NSC STU TCC ? SMON ? ADLT CHLD SNR YAD"
Methodist Jennie Edmundson Hospital Behavioral Health,933 East Pierce Street,Council Bluffs,Iowa 51503,51503,"? MH SUMH ? HI ? PSY ? AT CFT ECT GT IDD PTM TT ? PVTN ? CLF CMHG CSBG MC MD MI 
OSF PI SF SI SMHA VAF ? CO ? CM DEC ES SPS ? NRT STU TCC ? SMON ? ADLT SNR YAD ? 
AH"
Northeast Iowa Mental Health Center,112 North Elm Street,Cresco,Iowa 52136,52136,"? MH SUMH ? OP TELE ? CMHC ? CBT CFT DBT GT IDD IPT TT ? PVTN ? CLF CMHG CSBG 
MC MD MI OSF PI SCJJ SEF SF SI SMHA SWFS ? SS ? CM COOT ICM ? STU TCC ? SMON ? 
ADLT CHLD SNR YAD ? AH"
Crossroads Behavioral Health Services,1003 Cottonwood Road,Creston,Iowa 50801,50801,"? MH SUMH ? OP TELE ? CMHC ? AT BMT CBT CFT DBT GT IDD IPT PTM TT ? CIT WI ? PVTN ? 
FQHC ? CLF CMHG CSBG MC MD MI OSF PI SCJJ SF SI SMHA SWFS VAF ? PA SS ? TAY SE 
GL VET ADM MF CJ CO HV TRMA TBI ALZ PED PTSD SED SMI ? CM COOT ES FPSY SPS 
PEER ? STU TCC ? SMON ? ADLT CHLD SNR YAD ? AH ? SP"
Genesis Medical Center West Central Park,1401 West Central Park Avenue,Davenport,Iowa 52804,52804,"? MH SUMH ? HI OP PHDT ? PSY ? AT CBT DBT ECT GT IDD IPT PTM TT ? CIT WI ? PVTN ? 
CLF MC MD MI PI SF ? CO PTSD SED SMI ? CM DEC ES FPSY IMR SPS ? NRT NSC STU TCC ? 
SMON ? ADLT CHLD SNR YAD ? AH"
Terrace Ridge,4626 Progress Drive Suite D,Davenport,Iowa 52807,52807,"? MH SUMH ? OP ? CMHC ? BMT CBT DBT GT IPT PTM ? CIT WI ? PVTN ? CLF CMHG CSBG 
ITU MC MD MI OSF PI SCJJ SEF SF SI SMHA SWFS VAF ? SED SMI ? CM COOT ES FPSY ICM 
IMR PRS SPS PEER ? NSC STU TCC ? SMPD ? ADLT CHLD SNR YAD ? AH"
Vera French Community MH Center,1441 West Central Park Avenue,Davenport,Iowa 52804,52804,"? MH SUMH ? OP ? CMHC ? BMT CBT CFT DBT GT IPT PTM ? CIT WI ? PVTN ? CLF CMHG 
CSBG MC MD MI OSF PI SCJJ SEF SF SI SMHA SWFS VAF ? SED SMI ? ACT COOT ES FPSY 
IMR PRS SPS PEER ? NSC STU TCC ? SMPD ? ADLT CHLD SNR YAD ? AH ? SP F28 F36 F54 
F82"
Vera French Sheridan Springs,5006 Sheridan Street,Davenport,Iowa 52806,52806,"? MH ? RES ? RTCA ? AT BMT GT IDD IPT PTM ? PVTN ? CLF MD SF SI ? SMI ? CDM COOT 
DEC IMR LAD PRS SEMP SPS ? NSC STU TCC ? SMPD ? ADLT SNR YAD ? AH"
Northeast Iowa Behavioral Health,905 Montgomery Street,Decorah,Iowa 52101,52101,"? MH SUMH ? OP TELE ? CMHC ? BMT CBT CFT DBT GT IDD IPT PTM TT ? PVTN ? CLF CMHG 
CSBG MC MD MI OSF PI SCJJ SEF SF SI SMHA SWFS ? SS ? CM COOT ICM SPS ? STU ? 
SMON ? ADLT CHLD SNR YAD ? AH ? SP"
Penn Center RCF,2237 245th Street,Delhi,Iowa 52223,52223,"? MH SUMH ? RES ? RTCA ? GT IPT PTM ? PVTN ? CLF MI OSF PI SF SMHA VAF ? SMI ? 
COOT DEC IPC SPS ? NRT NSC STU TCC ? SMPD ? ADLT SNR YAD"
Plains Area Mental Health Center,515 Highway 39,Denison,Iowa 51442,51442,"? MH SUMH ? OP TELE ? CMHC ? AT BMT CBT CFT DBT GT IDD IPT PTM TT ? CIT WI ? PVTN ? 
CLF CMHG CSBG MC MD MI OSF PI SF SI ? CM COOT ES FPSY IPC PEER ? STU ? SMPD ? 
ADLT CHLD SNR YAD ? AH"
Broadlawns Medical Center Center for Mental Health,1801 Hickman Road,Des Moines,Iowa 50314,50314,"? MH SUMH ? HI OP RES ? PSY ? AT BMT CBT DBT ECT GT IDD IPT PTM TT ? CIT WI ? PVTN ? 
CLF CMHG CSBG MC MD MI PI SF SI SMHA ? PA SS ? CO SMI ? CM COOT DEC SPS ? NSC 
STU TCC ? SMON ? ADLT YAD ? AH"
Eyerly Ball Community MH Services,945 19th Street,Des Moines,Iowa 50314,50314,"? MH ? OP TELE ? CMHC ? BMT CBT CFT GT IDD IPT PTM TT ? CIT ? PVTN ? CLF CMHG MC 
MD MI PI SF SI VAF ? SS ? CJ CO PTSD ? ACT CM COOT DEC FPSY IPC PRS SEMP SH VRS 
PEER ? SMPD ? ADLT SNR YAD ? AH ? SP"
Eyerly Ball Residential,5631 Francis Avenue,Des Moines,Iowa 50310,50310,"? MH SUMH ? RES ? RTCA ? BMT CBT DBT GT IPT PTM TT ? PVTN ? CLF CMHG MC MD SF SI 
SMHA ? SMI ? FPSY ? STU ? SMPD ? ADLT SNR YAD"
Iowa Lutheran Hospital Behavioral Health Services,700 East University Avenue,Des Moines,Iowa 50316,50316,"? MH ? HI OP PHDT ? PSY ? AT CBT CFT ECT GT IPT PTM ? CIT WI ? PVTN ? CLF MC MD MI PI 
SF ? SE ? CM COOT DEC PRS SPS ? NRT NSC STU TCC ? SMON ? ADLT CHLD SNR YAD"
Mercy Medical Center Mercy Behavioral Health,1111 6th Avenue,Des Moines,Iowa 50314,50314,"? MH ? HI OP PHDT TELE ? PSY ? AT CBT CFT DBT GT IPT PTM TT ? CIT WI ? PVTN ? MC MD 
MI PI SF SI ? ES FPSY ? STU ? SMON ? ADLT CHLD SNR YAD ? AH"
MercyOne Des Moines First Step Recovery,"1750 48th Street, Suite 2",Des Moines,Iowa 50310,50310,"? MH SUMH ? OP ? OMH ? AT BMT CBT CFT DBT GT IDD IPT PTM ? CIT ? PVTN ? MC MD MI PI 
SF SI ? CO ? COOT FPSY IMR SPS PEER ? STU TCC ? SMON ? ADLT CHLD SNR YAD"
Orchard Place Child Guidance Center,808 5th Avenue,Des Moines,Iowa 50309,50309,"? MH ? OP TELE ? CMHC ? AT CBT CFT GT IDD IPT PTM TT ? PVTN ? CLF CMHG MD MI OSF 
PI SCJJ SEF SF SMHA SWFS ? PA SS ? TRMA SED ? COOT FPSY SPS ? SMPD ? CHLD YAD ? 
AH"
Orchard Place PACE,620 8th Street,Des Moines,Iowa 50309,50309,"? MH ? OP ? OMH ? BMT CBT GT IPT TT ? PVTN ? CLF MC MD MI PI SCJJ SF SI SWFS ? TAY 
MF CO TRMA SED ? CM COOT ES FPSY IPC ? STU ? SMON ? CHLD YAD ? AH ? SP"
Orchard Place,925 Porter Avenue,Des Moines,Iowa 50315,50315,"? MH SUMH ? RES ? RTCC ? AT CBT CFT DBT GT IPT PTM TT ? PVTN ? MD MI PI SF SI ? GL 
MF CO TRMA PTSD SED ? CM DEC ES FPSY ? SMON ? CHLD ? SP"
Hillcrest Family Services,200 Mercy Drive,Dubuque,Iowa 52001,52001,"? MH SUMH ? OP TELE ? CMHC ? CBT CFT DBT GT IPT PTM TT ? CIT WI ? PVTN ? CLF CMHG 
CSBG MC MD MI OSF PI SCJJ SF SI SMHA SWFS ? COOT SPS ? STU ? SMON ? ADLT CHLD 
SNR YAD"
Hillcrest Family Services Asbury,2005 Asbury Road,Dubuque,Iowa 52001,52001,"? MH SUMH ? OP ? CMHC ? CBT CFT DBT GT IPT TT ? CIT ? PVTN ? CLF CMHG CSBG MC MD 
MI OSF PI SCJJ SF SI SMHA SWFS ? COOT SPS ? STU ? SMON ? ADLT CHLD SNR YAD"
MercyOne Dubuque Medical Center Psychiatric Services,250 Mercy Drive,Dubuque,Iowa 52001,52001,"? MH SUMH ? HI ? PSY ? AT ECT GT IPT PTM ? PVTN ? MC MD MI PI SF SI SMHA VAF ? SED ? 
CM DEC ? NRT NSC STU TCC ? SMON ? ADLT CHLD SNR YAD ? AH"
Unitypoint Finley Hospital Behavioral Health,350 North Grandview Street,Dubuque,Iowa 52002,52002,"? MH ? HI OP PHDT ? PSY ? AT BMT CBT CFT DBT GT IPT PTM TT ? PVTN ? MC MD MI PI SF 
SI ? SE TRMA ALZ PTSD ? NRT NSC STU TCC ? SMON ? ADLT SNR YAD ? AH"
Northeast Iowa Mental Health Center,911 Carter Street NW,Elkader,Iowa 52043,52043,"? MH SUMH ? OP ? CMHC ? BMT CBT CFT DBT GT IDD IPT TT ? PVTN ? CLF CMHG CSBG MC 
MD MI OSF PI SCJJ SEF SF SI SMHA SWFS ? SS ? COOT ? STU ? SMON ? ADLT CHLD SNR 
YAD ? AH"
Seasons Center for Behavioral Health Palo Alto County Office,3201 1st Street,Emmetsburg,Iowa 50536,50536,"? MH ? OP ? CMHC ? CBT CFT DBT IPT TT ? PVTN ? CLF CMHG MC MD MI OSF PI SF SI SMHA 
VAF ? SS ? COOT SPS ? SMON ? ADLT CHLD SNR YAD"
Seasons Center for Behavioral Health Emmet County Office,826 North 8th Street,Estherville,Iowa 51334,51334,"? MH ? OP ? CMHC ? CBT CFT DBT IPT TT ? PVTN ? CLF CMHG MC MD MI OSF PI SF SI SMHA 
VAF ? SS ? COOT SPS ? SMON ? ADLT CHLD SNR YAD"
Prairie View Management Inc,18569 Lane Road,Fayette,Iowa 52142,52142,"? MH SUMH ? RES ? RTCA ? AT BMT CBT GT PTM ? CIT ? PVTN ? CLF SF ? PA ? CJ CO SMI ? 
PRS ? SMPD ? ADLT SNR YAD"
Catholic Charities Diocese of Sioux City,3 North 17th Street Suite 1,Fort Dodge,Iowa 50501,50501,"? MH ? OP ? OMH ? BMT CBT CFT DBT IPT TT ? CIT ? PVTN ? CLF MC MD PI SCJJ SF SI 
SWFS ? PA SS ? TRMA PTSD ? COOT ES FPSY ? SMON ? ADLT CHLD SNR YAD"
Children and Families of Iowa,111 Avenue O West,Fort Dodge,Iowa 50501,50501,"? MH SUMH ? OP TELE ? OMH ? AT BMT CBT CFT DBT GT IDD IPT PTM TT ? PVTN ? CLF MD 
MI OSF PI SF SI SMHA SWFS ? SS ? CO PTSD SED ? CM COOT FPSY PRS SPS VRS ? TCC ? 
SMPD ? ADLT CHLD SNR YAD ? SP"
Community and Family Resources,211 Avenue M West,Fort Dodge,Iowa 50501,50501,"? MH SUMH ? OP TELE ? OMH ? AT CBT CFT GT IDD IPT PTM TT ? PVTN ? MC MD MI PI SCJJ 
SF SI SMHA SWFS VAF ? CO ? COOT ES FPSY ? NRT STU TCC ? SMON ? ADLT CHLD SNR 
YAD ? AH"
Richmond Center,211 Avenue M West,Fort Dodge,Iowa 50501,50501,"? MH SUMH ? OP TELE ? OMH ? AT BMT CBT CFT DBT GT IDD IPT PTM TT ? PVTN ? CLF MC 
MD MI PI SCJJ SF SI SWFS VAF ? CO ? COOT ES FPSY SPS ? NRT NSC STU TCC ? SMON ? 
ADLT CHLD SNR YAD ? AH"
UnityPoint Health Berryhill Center,720 Kenyon Road,Fort Dodge,Iowa 50501,50501,"? MH SUMH ? OP TELE ? CMHC ? AT BMT CBT CFT DBT GT IDD IPT PTM TT ? CIT WI ? PVTN ? 
CLF CMHG CSBG MC MD MI OSF PI SCJJ SEF SF SI SMHA SWFS VAF ? SS ? CO PTSD SED 
SMI ? ACT CDM CM COOT DEC ES FPSY ICM IMR IPC PRS SPS PEER ? STU TCC ? SMON ? 
ADLT CHLD SNR YAD ? AH"
Counseling Associates,"1014 Avenue H, Suite 1",Fort Madison,Iowa 52627,52627,"? MH SUMH ? OP ? OMH ? CBT CFT GT IDD IPT TT ? CIT ? PVTP ? CLF MC MD MI PI SCJJ SF 
SI ? CM SPS ? SMPD ? ADLT CHLD SNR YAD"
Myrtue Medical Center Behavioral Health,1303 Garfield Avenue,Harlan,Iowa 51537,51537,"? MH SUMH ? OP TELE ? OMH ? AT CBT CFT DBT GT IPT TT ? CIT WI ? PVTP ? CLF CMHG 
CSBG ITU MC MD MI OSF PI SCJJ SEF SF SI SMHA SWFS VAF ? CO ? COOT FPSY PRS SPS 
PEER ? NRT STU TCC ? SMON ? ADLT CHLD SNR YAD ? SP"
Plains Area Mental Health Center,"700 East 2nd Street, Suite 2",Ida Grove,Iowa 51445,51445,"? MH SUMH ? OP TELE ? CMHC ? AT BMT CBT CFT DBT GT IDD IPT PTM TT ? CIT WI ? PVTN 
? CLF CMHG CSBG MC MD MI OSF PI SF SI ? CM COOT ES FPSY IPC PEER ? STU ? SMON ? 
ADLT CHLD SNR YAD ? AH"
Abbe Ctr for Comm Mental Health,"2349 Jamestown Avenue, Suite 5",Independence,Iowa 50644,50644,"? MH SUMH ? OP ? CMHC ? CBT CFT IPT PTM TT ? PVTN ? CLF CSBG MC MD MI PI SCJJ SF 
SI SMHA SWFS VAF ? STU ? SMPD ? ADLT CHLD SNR YAD"
Mental Health Institute,2277 Iowa Avenue,Independence,Iowa 50644,50644,"? MH ? HI ? PSY ? AT CBT CFT GT IPT PTM TT ? CIT ? SMA ? CLF MC MD MI OSF PI SEF SF SI 
SMHA ? SED SMI ? CDM DEC ES FPSY ? NRT NSC STU TCC ? SMON ? ADLT CHLD SNR YAD 
? AH"
Abbe Ctr for Comm Mental Health,1039 Arthur Street,Iowa City,Iowa 52240,52240,"? MH SUMH ? OP ? CMHC ? CBT CFT IPT PTM ? PVTN ? CLF CMHG CSBG MC MD MI OSF PI 
SCJJ SF ? STU ? SMPD ? ADLT CHLD SNR YAD"
Chatham Oaks,4515 Melrose Avenue,Iowa City,Iowa 52246,52246,"? MH SUMH ? RES ? RTCA ? AT BMT GT IPT PTM ? PVTN ? CLF SF SMHA VAF ? CDM CM 
COOT IMR LAD PRS SPS ? NRT NSC TCC ? SMPD ? ADLT SNR YAD"
Iowa City VA Healthcare System Mental Health Service Line,601 Highway 6 West,Iowa City,Iowa 52246,52246,"? MH SUMH ? HI OP TELE ? AT BMT CBT CFT DBT ECT GT IDD IPT PTM TT ? WI ? VAMC ? MI 
PI VAF ? VET ? ACT CDM CM COOT DEC FPSY HS ICM IMR IPC PRS SEMP SH SPS VRS PEER 
? NRT NSC STU TCC ? SMON ? ADLT SNR YAD ? VO ? AH"
Mercy Hospital,500 East Market Street,Iowa City,Iowa 52245,52245,"? MH SUMH ? HI ? PSY ? AT BMT CBT DBT GT IPT PTM ? PVTN ? MC MD MI PI SF VAF ? TAY 
SE GL VET ADM MF CO TRMA PED PTSD SMI ? NRT NSC STU TCC ? SMON ? ADLT SNR YAD 
? AH"
University of Iowa Hospitals/Clinics UI Behavioral Health,200 Hawkins Drive,Iowa City,Iowa 52242,52242,"? MH SUMH ? HI OP PHDT TELE ? PSY ? AT BMT CBT CFT DBT ECT GT IDD IPT PTM TT ? CIT 
WI ? OSG ? CLF MC MD MI OSF PI SCJJ SEF SF SI SMHA SWFS VAF ? TAY SE GL VET MF CO 
ALZ PED PTSD SMI ? ACT CM COOT ES FPSY IPC ? NRT STU TCC ? SMON ? ADLT CHLD SNR 
YAD ? AH ? SP"
Youth Homes of Mid America,7225 NW 58th Street,Johnston,Iowa 50131,50131,"? MH SUMH ? OP TELE ? MSNH ? AT BMT CBT CFT DBT GT IDD IPT TT ? PVTN ? MD MI PI 
SCJJ SF SI SMHA SWFS ? PA SS ? TAY GL CO TRMA SED ? COOT ES FPSY PRS SPS TPC 
PEER ? SMPD ? ADLT CHLD SNR YAD"
Counseling Associates,1522 Morgan Street,Keokuk,Iowa 52632,52632,"? MH SUMH ? OP ? OMH ? CBT CFT GT IDD IPT TT ? CIT ? PVTP ? CLF MC MD MI PI SCJJ SF 
SI ? CM SPS ? SMPD ? ADLT CHLD SNR YAD"
Plains Area Mental Health Center,"180 10th Street SE, Suite 201",Le Mars,Iowa 51031,51031,"? MH SUMH ? OP TELE ? CMHC ? AT BMT CBT CFT DBT GT IDD IPT PTM TT ? CIT WI ? PVTN 
? CLF CMHG CSBG MC MD MI OSF PI SF SI ? CM COOT ES FPSY IPC PEER ? STU ? SMPD ? 
ADLT CHLD SNR YAD ? AH ? SP"
Heartland Family Service Logan Office,107 North 4th Avenue Suite A,Logan,Iowa 51546,51546,"? MH SUMH ? OP ? OMH ? BMT CBT CFT DBT GT IDD IPT TT ? CIT ? PVTN ? CLF CMHG CSBG 
MC MD MI OSF PI SF SWFS ? SS ? TAY SE GL VET CJ CO TRMA PTSD SED SMI ? CM COOT 
ES FPSY HS SEMP SPS ? STU TCC ? SMON ? ADLT CHLD SNR YAD ? AH"
Abbe Ctr for Comm Mental Health,721 South 5th Street,Manchester,Iowa 52057,52057,"? MH SUMH ? OP ? CMHC ? BMT CBT CFT IPT PTM TT ? WI ? PVTN ? CLF CMHG CSBG MC 
MD MI PI SCJJ SF SI ? CDM COOT IMR ? STU ? SMPD ? ADLT CHLD SNR YAD"
Hillcrest Family Services Jackson County Mental Health Center,117 South Olive Street,Maquoketa,Iowa 52060,52060,"? MH SUMH ? OP ? CMHC ? CBT CFT DBT IPT PTM TT ? CIT ? PVTN ? CLF CMHG CSBG MC 
MD MI OSF PI SCJJ SF SI SMHA SWFS ? COOT SPS ? STU ? SMON ? ADLT CHLD SNR YAD"
Center Associates,9 North 4th Avenue,Marshalltown,Iowa 50158,50158,"? MH ? OP TELE ? CMHC ? BMT CBT CFT GT IPT PTM TT ? PVTN ? CLF CMHG ITU MC MD MI 
OSF PI SCJJ SF SI SMHA SWFS VAF ? SMPD ? ADLT CHLD SNR YAD ? SP"
MercyOne Medical Center North Iowa Behavioral Health Inpatient Department,1000 4th Street SW,Mason City,Iowa 50401,50401,"? MH SUMH ? HI OP PHDT ? PSY ? AT CBT CFT DBT GT IPT PTM TT ? PVTN ? CLF MC MD MI 
PI SCJJ SEF SF SI SMHA SWFS VAF ? SED ? CM COOT ES FPSY ICM IPC ? SMON ? ADLT 
CHLD SNR YAD ? AH"
North Iowa Transition Center,408 1st Street NW,Mason City,Iowa 50401,50401,"? MH SUMH ? OP RES ? RTCA ? AT BMT CBT GT PTM ? PVTN ? CLF MD SF ? SMI ? IMR PRS 
SH ? NRT TCC ? SMPD ? ADLT SNR YAD"
Mediapolis Care Facility,142 North Orchard Street / P.O. Box 129,Mediapolis,Iowa 52637,52637,"? MH SUMH ? RES ? RTCA ? AT BMT CBT DBT PTM ? PVTP ? CLF CMHG CSBG ITU MC MD MI 
OSF PI SCJJ SEF SF SI SMHA SWFS VAF ? SMI ? DEC HS SH ? SMPD ? ADLT SNR YAD"
CHI Behavioral Services,704 North 8th Street,Missouri Valley,Iowa 51555,51555,"? MH ? OP TELE ? OMH ? CBT CFT DBT GT IPT PTM TT ? PVTN ? MC MD MI PI SF SI ? CDM 
COOT ES FPSY IMR ? SMON ? ADLT CHLD SNR YAD"
Hillcrest Family Services Henry County Mental Health Center,106 North Jackson Street,Mount Pleasant,Iowa 52641,52641,"? MH SUMH ? OP TELE ? CMHC ? CBT CFT DBT IPT PTM TT ? CIT ? PVTN ? CLF CMHG CSBG 
MC MD MI OSF PI SCJJ SF SI SMHA SWFS ? COOT SPS ? STU ? SMON ? ADLT CHLD SNR 
YAD ? SP"
Heritage Residence,2275 South Linn Avenue/ P.O. Box 110,New Hampton,Iowa 50659,50659,"? MH SUMH ? RES ? RTCA ? AT BMT CBT PTM ? PVTN ? CLF MD SF ? SE GL VET ADM MF CJ 
CO HV TRMA TBI PED PTSD SMI ? IPC PRS ? SMPD ? ADLT SNR YAD"
Capstone Behavioral Healthcare Inc,"1123 1st Avenue East, Suite 200",Newton,Iowa 50208,50208,"? MH SUMH ? OP ? CMHC ? AT BMT CBT CFT DBT GT IPT PTM TT ? WI ? PVTN ? CLF CSBG 
MC MD MI PI SF SI SMHA SWFS VAF ? SMI ? CM COOT ICM SPS PEER ? STU TCC ? SMPD ? 
ADLT CHLD SNR YAD"
Northeast Iowa Mental Health Center,36 South Frederick Avenue,Oelwein,Iowa 50662,50662,"? MH SUMH ? OP TELE ? CMHC ? CBT CFT DBT GT IDD IPT ? PVTN ? CLF CMHG CSBG MC 
MD MI OSF PI SCJJ SEF SF SI SMHA SWFS ? SS ? CM COOT ICM ? STU ? SMON ? ADLT CHLD 
SNR YAD ? AH"
Burgess Health Center Burgess Mental Health,1600 Diamond Street,Onawa,Iowa 51040,51040,"? MH ? OP TELE ? OMH ? AT BMT CBT CFT DBT GT IPT PTM TT ? WI ? PVTN ? CLF CMHG 
CSBG MC MD MI OSF PI SF SI VAF ? SED SMI ? ACT COOT FPSY ICM PRS SPS ? SMON ? 
ADLT CHLD SNR YAD"
Plains Area Mental Health Center,400 Cent Avenue NW,Orange City,Iowa 51041,51041,"? MH SUMH ? OP TELE ? CMHC ? BMT CBT CFT DBT GT IDD IPT PTM TT ? CIT ? PVTN ? CLF 
CMHG CSBG MC MD MI OSF PI SF SI ? CM ES IPC ? STU ? SMON ? ADLT CHLD SNR YAD ? 
AH"
Children and Families of Iowa,"105 East McLane Street, Suite 400",Osceola,Iowa 50213,50213,"? MH SUMH ? OP ? OMH ? BMT CBT CFT DBT IPT TT ? PVTN ? MD MI PI SF SI ? SS ? COOT 
FPSY ? SMON ? ADLT CHLD SNR YAD"
Crossroads Behavioral Health Services,405 East McLane Street,Osceola,Iowa 50213,50213,"? MH SUMH ? OP TELE ? CMHC ? AT BMT CBT CFT DBT GT IDD IPT PTM TT ? CIT WI ? PVTN ? 
FQHC ? CLF CMHG CSBG MC MD MI OSF PI SCJJ SF SI SMHA SWFS VAF ? PA SS ? TAY SE 
GL VET ADM MF CJ CO HV TRMA TBI ALZ PED PTSD SED SMI ? CM COOT ES FPSY SPS 
PEER ? STU TCC ? SMON ? ADLT CHLD SNR YAD ? AH ? SP"
First Resources Corporation Mental Health Therapy,117 1st Avenue West,Oskaloosa,Iowa 52577,52577,"? MH ? OP ? OMH ? BMT CBT CFT DBT GT IDD IPT TT ? PVTN ? CLF MD PI SCJJ SEF SF SI 
SMHA SWFS ? SS ? TRMA PTSD ? FPSY ? SMPD ? ADLT CHLD SNR YAD ? AH"
Southern Iowa Mental Health Center,"1229 C Avenue East, Suite 400",Oskaloosa,Iowa 52577,52577,"? MH SUMH ? OP TELE ? CMHC ? BMT CBT CFT DBT GT IDD IPT PTM TT ? CIT ? PVTN ? CLF 
CSBG MC MD MI PI SF SI SMHA SWFS VAF ? PA SS ? TAY SE GL CO TRMA PTSD SED SMI ? 
COOT ES FPSY SPS ? STU ? SMON ? ADLT CHLD SNR YAD ? AH"
First Resources Corporation Mental Health Services,102 North Hancock Street,Ottumwa,Iowa 52501,52501,"? MH SUMH ? OP ? OMH ? CBT CFT DBT GT IDD IPT TT ? PVTN ? CLF MD PI SCJJ SF SWFS ? 
SS ? COOT ? SMPD ? ADLT CHLD SNR YAD ? AH"
Southern Iowa Mental Health Center,1527 Albia Road,Ottumwa,Iowa 52501,52501,"? MH SUMH ? OP TELE ? CMHC ? BMT CBT CFT DBT GT IDD IPT PTM TT ? CIT WI ? PVTN ? 
CLF CMHG CSBG MC MD MI PI SF SI SMHA SWFS VAF ? PA SS ? TAY SE GL CO TRMA PTSD 
SED SMI ? ACT CM COOT ES FPSY ICM SPS PEER ? STU ? SMPD ? ADLT CHLD SNR YAD ? 
AH ? SP"
Pine Rest Christian Mental Health,2611 Washington Street,Pella,Iowa 50219,50219,"? MH SUMH ? OP TELE ? OMH ? AT BMT CBT CFT DBT GT IPT PTM TT ? PVTN ? FQHC ? CLF 
CMHG CSBG MC MD MI OSF PI SCJJ SEF SF SI SMHA SWFS VAF ? SE VET TRMA PED ? 
COOT FPSY SPS ? SMON ? ADLT CHLD SNR YAD ? AH"
Genesis Development Mental Health Program,610 10th Street,Perry,Iowa 50220,50220,"? MH ? OP ? OMH ? BMT CBT CFT DBT GT IDD IPT PTM TT ? WI ? PVTN ? CLF MC MD MI PI 
SF SI SWFS VAF ? PA ? GL VET ADM MF CJ CO TRMA PTSD ? COOT SPS ? NRT NSC STU TCC 
? SMON ? ADLT CHLD SNR YAD ? AH ? SP"
Creative Living Center PC,1905 10th Street,Rock Valley,Iowa 51247,51247,"? MH ? OP ? CMHC ? AT CBT CFT DBT GT IPT PTM TT ? CIT ? PVTP ? CLF CMHG MC MD MI PI 
SCJJ SEF SF SI SMHA SWFS ? SS ? TAY SE TRMA PTSD SED SMI ? COOT ES ? SMPD ? ADLT 
CHLD SNR YAD ? SP"
Counseling Services LLC,322 South 13th Street,Sac City,Iowa 50583,50583,"? MH SUMH ? OP ? OMH ? CBT CFT IDD IPT PTM TT ? WI ? PVTP ? CLF CMHG CSBG ITU MC 
MD MI OSF PI SCJJ SF SI SMHA SWFS VAF ? PA SS ? COOT SPS ? SMPD ? ADLT CHLD SNR 
YAD"
Catholic Charities Diocese of Sioux City,1601 Military Road,Sioux City,Iowa 51103,51103,"? MH ? OP ? OMH ? BMT CBT CFT GT IPT TT ? CIT ? PVTN ? CLF MC MD PI SCJJ SF SI SWFS 
? PA SS ? CJ TRMA PTSD ? COOT ES FPSY ? SMON ? ADLT CHLD SNR YAD ? SP"
Siouxland Mental Health Center,625 Court Street,Sioux City,Iowa 51101,51101,"? MH SUMH ? OP TELE ? CMHC ? BMT CBT CFT DBT GT IPT PTM TT ? CIT WI ? PVTN ? CLF 
CMHG CSBG ITU MC MD MI PI SCJJ SEF SF SI SMHA SWFS VAF ? PA SS ? TAY SE GL VET 
ADM MF CJ CO HV TRMA TBI ALZ PED PTSD SED SMI ? CDM CM COOT ES FPSY ICM PRS 
SPS PEER ? NRT NSC STU TCC ? SMON ? ADLT CHLD SNR YAD ? AH ? SP"
Seasons Center for Behavioral Health Oâ€™Brien County Office,112 North 2nd Avenue,Sheldon,Iowa 51201,51201,"? MH SUMH ? OP TELE ? CMHC ? CBT CFT DBT GT IDD IPT PTM TT ? CIT WI ? PVTN ? CLF 
MC MD MI PI SF SI VAF ? SS ? ACT CM COOT SPS ? SMON ? ADLT CHLD SNR YAD"
Seasons Center for Behavioral Health Osceola County Office,600 9th Avenue North,Sibley,Iowa 51249,51249,"? MH SUMH ? OP ? CMHC ? CBT CFT DBT IDD IPT TT ? PVTN ? CLF CMHG MC MD MI OSF PI 
SF SI VAF ? SS ? COOT SPS ? SMON ? ADLT CHLD SNR YAD"
First Resources Corporation Outpatient Mental Health Program,102 South Main Street,Sigourney,Iowa 52591,52591,"? MH SUMH ? OP ? OMH ? AT BMT CBT CFT DBT GT IDD IPT TT ? PVTN ? CLF CSBG MC MD 
MI OSF PI SCJJ SEF SF SI SMHA SWFS VAF ? SS ? GL CO TRMA PED PTSD SMI ? DEC ES 
FPSY PRS SPS ? SMON ? ADLT CHLD SNR YAD ? AH"
Boys and Girls Home and Family Services Inc,2101 Court Street,Sioux City,Iowa 51104,51104,"? MH ? OP RES ? RTCC ? CBT CFT DBT GT IPT PTM ? PVTN ? MD PI SF ? SED ? ES ? SMON ? 
CLHD"
Catholic Charities Diocese of Sioux City,607 1st Avenue West,Spencer,Iowa 51301,51301,"? MH ? OP ? OMH ? BMT CBT CFT DBT IPT TT ? CIT ? PVTN ? CLF MC MD PI SCJJ SF SI 
SWFS ? PA SS ? TRMA PTSD ? COOT ES ? SMON ? ADLT CHLD SNR YAD"
Seasons Center for Behavioral Health Clay County Office,201 East 11th Street,Spencer,Iowa 51301,51301,"? MH SUMH ? OP TELE ? CMHC ? CBT CFT DBT GT IDD IPT PTM TT ? CIT WI ? PVTN ? CLF 
CMHG MC MD MI OSF PI SCJJ SF SI SMHA SWFS VAF ? SS ? VET ADM MF ? ACT CM COOT 
SPS ? SMON ? ADLT SNR YAD ? SP"
Spencer Municipal Hospital Behavioral Health Services,1200 1st Avenue East,Spencer,Iowa 51301,51301,"? MH SUMH ? HI ? PSY ? AT DBT GT PTM ? LMG ? MC MD MI PI SF SI ? CO SMI ? DEC SPS ? 
NRT NSC STU TCC ? SMON ? ADLT SNR YAD ? AH"
Seasons Center for Behavioral Health Dickinson County Office,1401 Hill Avenue,Spirit Lake,Iowa 51360,51360,"? MH ? OP ? CMHC ? CBT CFT DBT GT IPT TT ? PVTN ? CLF CMHG MC MD MI OSF PI SF SI 
SMHA VAF ? SS ? COOT SPS ? SMON ? ADLT CHLD SNR YAD"
Buena Vista Regional Medical Center,1525 West 5th Street,Storm Lake,Iowa 50588,50588,"? MH ? HI ? PSY ? AT BMT CBT IPT PTM ? LMG ? MC MD PI SF SI ? SE ALZ ? CM DEC IPC ? 
NRT NSC STU TCC ? SMON ? SNR ? SP"
Plains Area Mental Health Center,728 Erie Street,Storm Lake,Iowa 50588,50588,"? MH SUMH ? OP TELE ? CMHC ? AT BMT CBT CFT DBT GT IDD IPT PTM TT ? CIT WI ? PVTN 
? CLF CMHG CSBG MC MD MI OSF PI SF SI ? CM COOT ES FPSY IPC ? STU ? SMPD ? ADLT 
CHLD SNR YAD ? AH"
Abbe Ctr for Comm Mental Health Benton County,309 1st Avenue,Vinton,Iowa 52349,52349,"? MH SUMH ? OP ? CMHC ? CBT CFT IPT PTM TT ? PVTN ? CLF CMHG CSBG MC MD MI PI 
SCJJ SF ? PEER ? STU ? SMPD ? ADLT CHLD SNR YAD"
Hillcrest Family Services Hillcrest Mental Health Center,218 North 2nd Street,Wapello,Iowa 52653,52653,"? MH SUMH ? OP TELE ? CMHC ? BMT CBT CFT DBT GT IPT PTM TT ? CIT ? PVTN ? CLF 
CMHG CSBG MC MD MI OSF PI SCJJ SF SI SMHA SWFS VAF ? COOT ES FPSY SPS ? STU 
TCC ? SMON ? ADLT CHLD SNR YAD ? AH"
Hillcrest Family Services Washington County MH Center,"2175 Lexington Boulevard , Building 2",Washington,Iowa 52353,52353,"? MH SUMH ? OP TELE ? CMHC ? CBT CFT DBT GT IPT PTM TT ? CIT WI ? PVTN ? CLF CMHG 
CSBG MC MD MI OSF PI SCJJ SF SI SMHA SWFS ? COOT SPS ? STU ? SMON ? ADLT CHLD 
SNR YAD ? SP"
Black Hawk Grundy MH Center Inc Outpatient,3251 West 9th Street,Waterloo,Iowa 50702,50702,"? MH SUMH ? OP TELE ? CMHC ? BMT CBT CFT GT IPT PTM TT ? WI ? PVTN ? CLF CMHG 
CSBG MC MD MI OSF PI SCJJ SEF SF SI SMHA SWFS VAF ? PA SS ? SED SMI ? CDM CM 
COOT ES FPSY ICM IMR IPC PRS SPS PEER ? NRT NSC STU ? SMPD ? ADLT CHLD SNR YAD 
? AH"
MercyOne Waterloo Medical Center Behavioral Health,3421 West 9th Street,Waterloo,Iowa 50702,50702,"? MH SUMH ? HI ? PSY ? AT CBT DBT GT IDD IPT PTM TT ? WI ? PVTN ? CLF CMHG CSBG ITU 
MC MD MI OSF PI SCJJ SEF SF SI SMHA SWFS VAF ? TAY GL VET ADM MF CJ CO HV TRMA 
TBI PTSD SED SMI ? CDM CM DEC ES IMR IPC SPS ? NRT STU TCC ? SMON ? ADLT CHLD 
SNR YAD ? AH"
Northeast Iowa Mental Health Center Allamakee Office,17 Allamakee Street,Waukon,Iowa 52172,52172,"? MH SUMH ? OP ? CMHC ? CBT CFT DBT IDD IPT TT ? PVTN ? CLF CMHG CSBG MC MD MI 
OSF PI SCJJ SEF SF SI SWFS ? SS ? COOT ? STU ? SMON ? ADLT CHLD SNR YAD ? AH"
Lutheran Services in Iowa Inc Bremwood Campus,106 16th Street SW,Waverly,Iowa 50677,50677,"? MH SUMH ? OP RES ? RTCC ? AT BMT CBT CFT GT IPT PTM TT ? PVTN ? CLF MD OSF PI 
SCJJ SF SI SMHA SWFS ? CJ TRMA PTSD SED ? CM ES FPSY IPC ? SMON ? CHLD ? AH"
Integrative Counseling Solutions Inc,"1200 Valley West Drive, Suite 508",West Des Moines,Iowa 50266,50266,"? MH ? OP TELE ? OMH ? BMT CBT CFT DBT IPT PTM TT ? PVTP ? CLF CMHG CSBG MD MI PI 
SEF SF ? SPS ? SMON ? ADLT CHLD SNR YAD"
Crossroads Behavioral Health Services,102 West Summitt Street,Winterset,Iowa 50273,50273,"? MH SUMH ? OP TELE ? CMHC ? BMT CBT CFT DBT GT IDD IPT PTM TT ? CIT ? PVTN ? CLF 
CMHG CSBG MC MD MI OSF PI SCJJ SF SI SMHA SWFS ? PA SS ? TAY CO TRMA PTSD SED 
SMI ? CM COOT FPSY PRS SPS ? STU TCC ? SMON ? ADLT CHLD SNR YAD ? SP"
