Name,Address,City,State,Zip,Services
Bell Mountain Village,620 North 6th Street,Bellevue,Idaho 83313,83313,"? MH ? RES TELE ? RTCA ? AT BMT CBT IDD IPT PTM ? PVTP ? MC MD PI SF SMHA ? SE VET 
ALZ ? CDM HS PRS ? SMPD ? SNR ? AH ? SP"
Positive Connections Plus LLC,"733 Main Street, Unit D",Bellevue,Idaho 83313,83313,"? MH SUMH ? OP TELE ? CMHC ? BMT CBT CFT DBT GT IDD IPT PTM TT ? PVTP ? FQHC ? 
CLF CMHG CSBG ITU MC MD MI OSF PI SCJJ SEF SF SI SMHA SWFS VAF ? PA SS ? CO HV ? 
CM COOT FPSY ICM PEER ? STU ? SMPD ? ADLT CHLD SNR YAD ? AH"
Family Pathways Cooperative,34 Louella Street,Blackfoot,Idaho 83221,83221,"? MH SUMH ? OP ? OMH ? BMT CBT CFT GT IPT TT ? CIT ? PVTP ? CLF MC MD PI SF ? SE 
TRMA TBI PTSD SMI ? ACT CM FPSY IMR PRS SPS ? SMPD ? ADLT CHLD SNR YAD"
Idaho State Hospital South,700 East Alice Street,Blackfoot,Idaho 83221,83221,"? MH ? HI TELE ? PSY ? AT BMT CBT CFT DBT GT IDD IPT PTM TT ? CIT ? SMA ? MC MD MI 
OSF PI SF SI SMHA SWFS ? SE CJ TRMA PTSD SED SMI ? CDM DEC ES FPSY HS IMR IPC 
SPS PEER ? NRT NSC STU TCC ? SMON ? ADLT CHLD SNR YAD ? AH ? SP"
J and M Mental Health Inc,60 North Broadway Street,Blackfoot,Idaho 83221,83221,"? MH ? OP ? CMHC ? BMT CBT CFT GT IPT PTM TT ? WI ? PVTP ? CLF MD OSF PI SCJJ SEF 
SF SMHA SWFS ? PA ? CM COOT FPSY PRS SPS PEER ? SMPD ? ADLT CHLD SNR YAD ? SP"
Redford Counseling and Fam Servs,1053 West Bridge Street,Blackfoot,Idaho 83221,83221,"? MH SUMH ? OP ? OMH ? BMT CBT CFT DBT GT IPT TT ? PVTP ? CLF ITU MC MD MI PI 
SCJJ SF SI SMHA SWFS VAF ? SE VET ADM MF CJ CO HV TRMA PTSD SMI ? CM COOT FPSY 
PEER ? SMPD ? ADLT CHLD SNR YAD"
Region VII Mental Health Services,720 East Alice Street,Blackfoot,Idaho 83221,83221,"? MH SUMH ? OP TELE ? OMH ? CBT GT IDD IPT PTM ? CIT ? SMA ? CMHG OSF PI SF SMHA 
SWFS ? PA SS ? CJ CO SED SMI ? ACT CM COOT FPSY PRS SPS TPC PEER ? SMPD ? ADLT 
CHLD SNR YAD ? AH ? SP"
Stillwaters Counseling,1309 Camas Street,Blackfoot,Idaho 83221,83221,"? MH SUMH ? OP TELE ? CMHC ? AT BMT CBT CFT DBT GT IDD IPT TT ? PVTP ? CLF CMHG 
CSBG MC MD MI OSF PI SCJJ SEF SF SI SMHA SWFS VAF ? SS ? ACT CM COOT ES FPSY 
ICM IPC PRS SPS ? SMPD ? ADLT CHLD SNR YAD"
All Seasons Mental Health,6933 West Emerald Street,Boise,Idaho 83704,83704,"? MH SUMH ? OP TELE ? OMH ? AT BMT CBT CFT DBT GT IDD IPT PTM TT ? WI ? PVTP ? 
FQHC ? CLF MC MD MI OSF PI SEF SF SI SMHA SWFS VAF ? PA SS ? MF CO TRMA PED 
PTSD SED SMI ? ACT CDM CM COOT DEC ES FPSY ICM IMR IPC PRS PEER ? NRT NSC STU 
TCC ? SMPD ? ADLT CHLD SNR YAD ? AH"
All Together Now Inc,1111 South Orchard Street Suite 230,Boise,Idaho 83705,83705,"? MH SUMH ? OP PHDT ? OMH ? AT CBT CFT DBT IPT TT ? PVTN ? MC MD MI PI SEF SF SI 
SMHA VAF ? SS ? SED SMI ? CM COOT ES FPSY PRS PEER ? SMPD ? ADLT CHLD SNR YAD 
? AH ? SP F28 F79"
Boise VAMC / Mental Health Division,500 West Fort Street,Boise,Idaho 83702,83702,"? MH SUMH ? HI OP RES TELE ? AT BMT CBT CFT DBT ECT GT IDD IPT PTM TT ? WI ? VAMC 
? MC MI PI SF VAF ? GL VET CJ CO TRMA TBI PTSD SMI ? ACT CDM CM COOT DEC FPSY HS 
ICM IPC LAD SEMP SH SPS VRS PEER ? NRT NSC STU TCC ? SMPD ? ADLT SNR YAD ? VO"
Brighter Future Health Inc,9196 West Emerald Street Suite 130,Boise,Idaho 83704,83704,"? MH SUMH ? OP ? OMH ? AT CBT CFT DBT GT IDD IPT TT ? PVTP ? MC MD MI PI SF ? SS ? 
SE GL VET ADM MF CJ CO TRMA TBI PTSD SED SMI ? CM FPSY HS ? SMPD ? ADLT CHLD 
SNR YAD"
Community Partnerships of Idaho Inc,"3076 North Five Mile Road, Suite A",Boise,Idaho 83713,83713,"? MH SUMH ? OP TELE ? OMH ? BMT CBT CFT DBT GT IDD IPT PTM TT ? PVTP ? MC MD PI 
SF SI ? TAY CO TRMA PTSD SED SMI ? CM COOT FPSY PRS SPS VRS ? STU ? SMPD ? ADLT 
CHLD SNR YAD ? SP"
Community Support Center,716 North Orchard Street,Boise,Idaho 83706,83706,"? MH SUMH ? OP PHDT TELE ? PH ? AT BMT CBT CFT DBT GT IPT TT ? PVTP ? MC MD PI SF 
SI SMHA ? SE GL VET ADM TRMA TBI PTSD SMI ? CM COOT ICM PRS ? SMPD ? ADLT SNR 
YAD"
Human Supports of Idaho Inc,4477 West Emerald Street Suite C-100,Boise,Idaho 83706,83706,"? MH SUMH ? OP TELE ? OMH ? BMT CBT CFT DBT GT IDD IPT PTM TT ? CIT WI ? PVTP ? 
MC MD PI SCJJ SF SI SMHA SWFS ? TAY SE CO PTSD SED SMI ? CM COOT FPSY IMR PRS 
SPS PEER ? STU ? SMPD ? ADLT CHLD SNR YAD"
Idaho Behavioral Health Boise,2273 South Vista Avenue Suite 190,Boise,Idaho 83705,83705,"? MH SUMH ? OP TELE ? OMH ? AT BMT CBT CFT DBT IDD IPT PTM TT ? CIT ? PVTP ? CLF 
CMHG CSBG ITU MC MD MI OSF PI SCJJ SEF SF SI SMHA SWFS VAF ? PA SS ? CM COOT 
FPSY PRS SPS PEER ? SMPD ? ADLT CHLD SNR YAD ? AH ? SP F25 F28 F30 F10"
Intermountain Hospital,303 North Allumbaugh Street,Boise,Idaho 83704,83704,"? MH SUMH ? HI PHDT ? PSY ? AT CBT GT IDD IPT PTM ? PVTP ? CLF ITU MC MD MI OSF PI 
SF SMHA SWFS VAF ? SE VET MF CO PTSD SED SMI ? CM ? NRT NSC STU ? SMPD ? ADLT 
CHLD SNR YAD ? SP"
Leyline Advocates,921 South Orchard Street Suite 100,Boise,Idaho 83705,83705,"? MH ? OP TELE ? CMHC ? AT BMT CBT CFT GT IPT TT ? CIT ? PVTP ? MD PI SF ? TRMA 
PTSD SED SMI ? CM COOT FPSY ICM PRS PEER ? SMPD ? ADLT CHLD SNR YAD ? AH ? SP 
F4 F25 F28 F70 F104 F46 F79 F88"
Leyline Advocates Mental Health,921 South Orchard Street,Boise,Idaho 83705,83705,"? MH SUMH ? OP TELE ? OMH ? AT BMT CBT CFT DBT IPT TT ? CIT ? PVTP ? MD PI SF ? SS 
? TAY SE GL CO HV TRMA TBI PED PTSD SED SMI ? ACT CM COOT FPSY PRS ? SMPD ? 
ADLT CHLD SNR YAD ? F86"
Pioneer Health Resources,545 North Benjamin Lane Suite 185,Boise,Idaho 83704,83704,"? MH ? OP TELE ? OMH ? AT BMT CBT CFT DBT GT IDD IPT PTM TT ? CIT ? PVTP ? CLF 
CMHG CSBG ITU MC MD OSF PI SCJJ SEF SF SMHA SWFS VAF ? SED SMI ? CM COOT ES 
FPSY HS ICM PRS PEER ? NSC ? SMPD ? ADLT CHLD SNR YAD"
Region IV Behavioral Health,"1720 Westgate Drive, Suite A-1",Boise,Idaho 83704,83704,"? MH ? OP ? CMHC ? CBT DBT GT IPT PTM ? CIT WI ? SMA ? CMHG OSF SF SMHA SWFS ? 
PA SS ? CJ CO SED SMI ? ACT CM COOT SPS VRS PEER ? SMON ? ADLT CHLD SNR YAD ? 
SP F70 F69"
Saint Alphonsus Behav Hlth Servs,131 North Allumbaugh Street,Boise,Idaho 83704,83704,"? MH SUMH ? HI OP ? PSY ? AT CBT DBT GT PTM ? PVTN ? CLF MC MD MI SI SMHA ? SS ? 
SED ? SPS ? SMON ? ADLT CHLD SNR YAD ? AH"
Terry Reilly Health Services / Comm Health Clinics/Boise Clinic,300 South 23rd Street,Boise,Idaho 83702,83702,"? MH SUMH ? OP ? OMH ? BMT CBT CFT DBT IDD IPT PTM TT ? WI ? FQHC ? CLF CMHG 
CSBG MC MD MI OSF PI SCJJ SEF SF SI SMHA SWFS ? PA SS ? TAY SE CJ CO SED SMI ? 
CDM CM COOT DEC ES IPC SPS ? STU TCC ? SMPD ? ADLT CHLD SNR YAD ? AH ? SP"
Terry Reilly Health Services Community Health Clinic,408 North Allumbaugh Road,Boise,Idaho 83704,83704,"? MH SUMH ? OP ? OMH ? BMT CBT CFT IPT TT ? FQHC ? CLF CMHG CSBG MC MD MI OSF 
PI SCJJ SEF SF SI SMHA SWFS ? PA SS ? TAY SE TRMA PTSD SED SMI ? SPS ? STU ? ADLT 
CHLD SNR YAD ? AH ? SP"
Tidwell Social Work Services and Consulting Inc,5999 West State Street,Boise,Idaho 83703,83703,"? MH ? OP ? OMH ? AT BMT CBT CFT DBT GT IPT TT ? PVTN ? CLF MD MI OSF PI SCJJ SEF 
SF SI SWFS ? PA SS ? TRMA PTSD ? CM FPSY PRS PEER ? SMPD ? ADLT CHLD SNR YAD ? 
AH"
Boulder Creek Academy,147 Emerson Lane,Bonners Ferry,Idaho 83805,83805,"? MH ? RES TELE ? RTCC ? AT BMT CBT CFT DBT GT IDD IPT PTM TT ? PVTP ? PI SEF SF ? 
CM DEC ES FPSY HS IMR PRS ? SMON ? CHLD"
IDHW Region 5 Burley,2241 Overland Avenue,Burley,Idaho 83318,83318,"? MH SUMH ? OP ? CMHC ? BMT CBT DBT GT IPT PTM TT ? CIT WI ? SMA ? CLF CMHG 
CSBG MC MD MI PI SF SI ? PA SS ? CJ ? ACT CM COOT FPSY PRS SPS PEER ? SMON ? 
ADLT CHLD SNR YAD ? AH ? SP"
Leyline Advocates Mental Health Burley Office,"1321 Oakley Avenue, Suite 2",Burley,Idaho 83318,83318,"? MH ? OP TELE ? CMHC ? AT BMT CBT CFT GT IPT TT ? CIT ? PVTP ? MD PI SF ? TRMA 
PTSD SED SMI ? CM COOT FPSY ICM PRS PEER ? SMPD ? ADLT CHLD SNR YAD ? SP"
Pathways Inc,"2311 Parke Avenue, Suite 8",Burley,Idaho 83318,83318,"? MH SUMH ? OP TELE ? OMH ? AT BMT CBT CFT IPT TT ? CIT ? PVTP ? MD PI SCJJ SF SI 
SMHA SWFS ? CM COOT FPSY PRS PEER ? SMPD ? ADLT CHLD SNR YAD ? SP"
Preferred Child and Family Services Burley,"2271 Overland Avenue, Suite 5",Burley,Idaho 83318,83318,"? MH SUMH ? OP ? OMH ? CBT CFT GT IPT TT ? CIT ? PVTP ? MD OSF PI SCJJ SF ? TAY SE 
GL VET CJ CO TRMA TBI PED PTSD SED SMI ? CM COOT ? SMPD ? ADLT CHLD SNR YAD"
ProActive Behavioral Health,2223 Overland SH Center,Burley,Idaho 83318,83318,"? MH SUMH ? OP TELE ? OMH ? AT BMT CBT CFT DBT GT IDD IPT TT ? WI ? PVTP ? CLF 
CMHG CSBG MD MI OSF PI SCJJ SEF SF SI SMHA SWFS ? SS ? TAY GL ADM MF CJ CO HV 
TRMA TBI SED SMI ? ACT CM COOT FPSY ICM IMR IPC PRS SPS PEER ? TCC ? SMPD ? 
ADLT CHLD SNR YAD ? AH"
Human Supports of Idaho Inc,314 Badiola Street,Caldwell,Idaho 83605,83605,"? MH SUMH ? OP TELE ? OMH ? BMT CBT CFT DBT GT IDD IPT PTM TT ? CIT WI ? PVTP ? 
MC MD PI SCJJ SF SI SMHA SWFS ? TAY SE CO PTSD SED SMI ? CM COOT FPSY IMR PRS 
SPS PEER ? STU ? SMPD ? ADLT CHLD SNR YAD"
Idaho Behavioral Health Inc Caldwell,524 South 9th Avenue Suite 103,Caldwell,Idaho 83605,83605,"? MH SUMH ? OP TELE ? OMH ? AT BMT CBT CFT DBT IDD IPT TT ? CIT ? PVTP ? CLF CSBG 
ITU MC MD MI OSF PI SCJJ SEF SF SI SMHA SWFS VAF ? PA SS ? CM COOT FPSY PRS SPS 
PEER ? SMPD ? ADLT CHLD SNR YAD ? AH ? SP F67"
IDHW Region 3 Caldwell,3402 Franklin Road,Caldwell,Idaho 83605,83605,"? MH SUMH ? OP ? CMHC ? CFT DBT GT IDD IPT PTM ? CIT ? SMA ? MI PI SF SMHA ? PA SS 
? CJ CO SED SMI ? ACT CM COOT FPSY IMR PRS SPS VRS PEER ? SMON ? ADLT CHLD SNR 
YAD ? AH ? SP"
Recovery 4 Life,709 Dearborn Street,Caldwell,Idaho 83605,83605,"? MH SUMH ? OP TELE ? OMH ? BMT CBT CFT DBT GT IDD IPT PTM TT ? PVTP ? CLF CMHG 
CSBG MC MD OSF PI SCJJ SEF SF SI SMHA SWFS VAF ? SS ? TAY VET CO TRMA PTSD SED 
SMI ? ACT CM COOT FPSY ICM ? STU ? SMPD ? ADLT CHLD SNR YAD"
Terry Reilly Health Services Community Health Clinic,2005 Arlington Avenue,Caldwell,Idaho 83605,83605,"? MH SUMH ? OP ? OMH ? BMT CBT CFT IPT PTM TT ? WI ? FQHC ? CLF CMHG CSBG MC 
MD MI OSF PI SCJJ SEF SF SMHA SWFS ? PA SS ? TAY SE CO SED SMI ? CDM CM DEC ES 
IPC SPS ? STU TCC ? SMPD ? ADLT CHLD SNR YAD ? AH ? SP"
West Valley Medical Center Behavioral Health Services,1717 Arlington Avenue,Caldwell,Idaho 83605,83605,"? MH SUMH ? HI OP PHDT ? PSY ? AT BMT CBT DBT ECT GT IPT PTM TT ? WI ? PVTP ? CLF 
ITU MC MD MI PI SCJJ SF SI SMHA SWFS VAF ? CM ES FPSY IPC SPS ? NRT NSC STU TCC ? 
SMON ? ADLT SNR YAD ? AH ? SP"
Highroad Human Services Inc CDA,7905 North Meadowlark Way Suite B,Coeur d Alene,Idaho 83815,83815,"? MH ? OP ? OMH ? AT BMT CBT CFT DBT IPT TT ? PVTP ? MD PI SCJJ SEF SF SMHA SWFS 
? CM COOT FPSY ? SMON ? ADLT CHLD SNR YAD"
Mann Grandstaff VAMC BHS (116) Coeur d Alene CBOC,915 West Emma Avenue,Coeur d Alene,Idaho 83814,83814,"? MH ? OP TELE ? CBT GT IDD IPT PTM TT ? VAMC ? VAF ? 
VET TRMA PTSD ? CM DEC FPSY HS IPC SH SPS PEER ? NRT NSC STU TCC ? SMON ? ADLT 
SNR YAD ? VO"
Mental Wellness Clinic of Coeur d Alene,1105 West Ironwood Drive,Coeur d Alene,Idaho 83814,83814,"? MH SUMH ? OP ? OMH ? AT BMT CBT CFT DBT GT IDD IPT PTM TT ? PVTP ? MC MD MI PI 
SCJJ SF SI SMHA SWFS ? CM FPSY PRS PEER ? SMPD ? ADLT CHLD SNR YAD"
Randi Korell,113 North Commercial Street,Emmett,Idaho 83617,83617,"? MH ? OP ? OMH ? BMT CBT DBT IPT TT ? PVTP ? CLF MD MI PI SCJJ SEF SF SI SWFS ? 
FPSY SPS ? SMPD ? ADLT CHLD YAD"
Hollis Mental Health Services LLC,620 South Idaho Avenue,Fruitland,Idaho 83619,83619,"? MH SUMH ? OP ? OMH ? BMT CBT CFT DBT GT IPT TT ? PVTP ? CLF MD MI OSF PI SCJJ 
SEF SF SWFS ? PA ? TAY SE GL VET MF CJ CO TRMA PTSD SED SMI ? COOT FPSY ? SMPD 
? ADLT CHLD SNR YAD"
Project Patch Youth Program,25 Miracle Lane,Garden Valley,Idaho 83622,83622,"? MH ? RES ? RTCC ? AT BMT CBT CFT DBT GT IPT PTM TT ? PVTN ? PI SCJJ SEF SF SI 
SWFS ? SS ? TRMA PTSD SED ? CM ES FPSY ? SMON ? CHLD"
Adams County Behav Health Servs Adams County Health Center,205 Berkley Avenue,Council,Idaho 83612,83612,"? MH ? OP ? OMH ? BMT CBT CFT IPT PTM ? WI ? PVTN ? FQHC ? CLF CMHG CSBG MC MD 
MI OSF PI SCJJ SEF SF SI SMHA SWFS VAF ? SS ? CDM CM COOT DEC ES IPC ? NSC STU 
TCC ? SMPD ? ADLT CHLD SNR YAD"
ProActive Behavioral Health,215 University Avenue,Gooding,Idaho 83330,83330,"? MH SUMH ? OP TELE ? OMH ? AT BMT CBT CFT DBT GT IDD IPT TT ? WI ? PVTP ? MC MD 
PI SCJJ SEF SF SI SWFS ? SS ? TAY SE GL VET ADM MF CJ CO HV TRMA TBI PED SED SMI ? 
ACT COOT ES FPSY ICM IMR IPC PRS SPS PEER ? TCC ? SMPD ? ADLT CHLD SNR YAD ? AH 
? SP"
Reddoor Rehabilitation Inc,85 South Main Street Driggs,Idaho 83422,Phone: (208) 354-3005,,"? MH SUMH ? OP ? OMH ? AT BMT CBT CFT DBT GT IDD IPT TT ? CIT WI ? PVTP ? MD PI SF 
SWFS ? PA SS ? TAY SE GL CO TRMA PED PTSD SED SMI ? CM COOT DEC PRS ? SMPD ? 
ADLT CHLD SNR YAD"
Emmett Csl and Psychiatric Services,"2007 East Quail Run Road, Suite 1",Emmett,Idaho 83617,83617,"? MH ? OP ? OMH ? AT BMT CBT CFT IPT PTM TT ? WI ? PVTP ? MC MD MI PI SCJJ SF SI 
VAF ? PA SS ? CM FPSY PRS PEER ? SMON ? ADLT CHLD SNR YAD ? AH"
Camas Professional Counseling LLC,304 North State Street,Grangeville,Idaho 83530,83530,"? MH SUMH ? OP ? OMH ? BMT CBT CFT DBT GT IDD IPT TT ? CIT ? PVTP ? CLF CMHG 
CSBG ITU MC MD MI OSF PI SCJJ SEF SF SI SMHA SWFS VAF ? SS ? SE ADM MF CO PED 
PTSD SMI ? ACT CM COOT SPS ? SMPD ? ADLT CHLD SNR YAD ? AH"
Region II Mental Health Center,216 South C Street,Grangeville,Idaho 83530,83530,"? MH ? OP TELE ? OMH ? CBT DBT GT IDD IPT PTM TT ? CIT WI ? OSG ? CMHG MC MI PI SF 
SMHA ? PA ? SED SMI ? CM COOT PRS SPS PEER ? SMPD ? ADLT CHLD SNR YAD"
Sant Lukes Clinic Mental Health Services,"1450 Aviation Drive, Suite 202",Hailey,Idaho 83333,83333,"? MH SUMH ? OP ? OMH ? BMT CBT CFT DBT GT IPT PTM TT ? PVTN ? MC MD MI PI SF SI ? 
SS ? COOT FPSY SPS ? STU TCC ? SMON ? ADLT CHLD SNR YAD ? AH"
Allstar Counseling Inc,"550 2nd Street, Suite 266",Idaho Falls,Idaho 83401,83401,"? MH ? OP ? OMH ? AT BMT CBT CFT DBT GT IDD IPT PTM TT ? CIT ? PVTP ? CLF CMHG 
CSBG MC MD OSF PI SCJJ SEF SF SI SMHA SWFS ? PA ? TAY SE GL CO TRMA TBI ALZ PED 
PTSD SED SMI ? ACT CM COOT DEC FPSY ICM PRS SPS PEER ? TCC ? SMPD ? ADLT CHLD 
SNR YAD ? AH ? SP F30"
Beehive Rehabilitation and Counseling,"490 Park Avenue, Suite 4",Idaho Falls,Idaho 83402,83402,"? MH SUMH ? OP ? OMH ? AT BMT CBT CFT DBT GT IDD IPT PTM TT ? CIT WI ? PVTP ? CLF 
MD OSF PI SCJJ SF SI SMHA SWFS ? TAY SE CO TRMA PTSD SMI ? CM ES FPSY IMR PRS 
SPS PEER ? SMPD ? ADLT CHLD SNR YAD ? AH"
Childrens Supportive Services,1565 East Lincoln Road,Idaho Falls,Idaho 83401,83401,"? MH ? OP ? CMHC ? BMT CBT CFT GT IPT PTM TT ? CIT ? PVTP ? CLF MD OSF PI SCJJ SEF 
SF SI SMHA SWFS ? PA SS ? TAY SED ? CM FPSY PRS ? SMPD ? ADLT CHLD YAD ? SP"
Community Mental Health Services,1400 Benton Street,Idaho Falls,Idaho 83401,83401,"? MH ? OP ? OMH ? CBT CFT DBT GT IPT TT ? PVTP ? MC 
MD PI SF SI VAF ? PA ? SMI ? CM PRS SPS PEER ? SMPD ? ADLT CHLD SNR YAD"
Counseling Clinic of Youth and Family Renewal Services/Ashton Mem Inc,1600 John Adams Parkway 102,Idaho Falls,Idaho 83401,83401,"? MH ? OP ? OMH ? BMT CBT CFT DBT GT IPT PTM TT ? CIT ? PVTN ? CLF MC MD MI PI 
SCJJ SF SMHA SWFS VAF ? TAY SE GL VET ADM MF CJ CO HV TRMA TBI PED PTSD SED SMI 
? COOT FPSY PRS ? SMPD ? ADLT CHLD SNR YAD"
Eastern Idaho Regional Medical Ctr Behavioral Healthcare,2280 East 25th Street,Idaho Falls,Idaho 83404,83404,"? MH ? HI RES TELE ? PSY ? AT BMT CBT CFT DBT ECT GT IPT PTM TT ? CIT ? PVTP ? CLF 
MC MD MI PI SCJJ SEF SF SI SMHA SWFS VAF ? SED SMI ? CM FPSY IPC SPS ? NRT STU 
TCC ? SMON ? ADLT CHLD SNR YAD ? AH"
Free Spirit Csl and Consulting,548 Lomax Street,Idaho Falls,Idaho 83401,83401,"? MH SUMH ? OP ? OMH ? AT BMT CBT CFT DBT GT IDD IPT TT ? PVTP ? CLF MC MD MI OSF 
PI SCJJ SEF SF SI SMHA SWFS VAF ? TAY SE GL VET ADM MF CJ CO HV TRMA TBI PED PTSD 
SED SMI ? CM COOT FPSY HS ICM SH ? TCC ? SMPD ? ADLT CHLD SNR YAD"
Healthy Care Solutions LLC,3522 Briar Creek Lane Idaho Falls,Idaho 83406,Phone: (208) 529-1660,,"? MH SUMH ? OP ? OMH ? BMT CBT CFT DBT GT IPT TT ? CIT ? PVTP ? MC MD PI SF SI 
SMHA SWFS ? PA SS ? TAY SE GL VET ADM MF CJ CO HV TRMA TBI ALZ PED PTSD SED SMI 
? CM ES FPSY PRS SPS PEER ? STU ? SMPD ? ADLT CHLD SNR YAD ? AH"
Human Dynamics and Diagnostics,2267 Teton Plaza,Idaho Falls,Idaho 83404,83404,"? MH SUMH ? OP TELE ? OMH ? CBT CFT DBT GT IPT PTM TT ? CIT ? PVTP ? MC MD MI PI 
SCJJ SF SI SMHA SWFS ? TAY SE GL CO TRMA TBI PED PTSD SED SMI ? CM COOT FPSY 
PRS PEER ? SMPD ? ADLT CHLD SNR YAD ? SP"
Idaho Recovery and Detox Children and Family Clinic,1327 East 17th,Idaho Falls,Idaho 83404,83404,"? MH SUMH ? OP PHDT TELE ? OMH ? AT BMT CBT CFT DBT GT IDD IPT PTM TT ? CIT WI ? 
PVTP ? CLF CMHG CSBG ITU MC MD MI OSF PI SCJJ SEF SF SI SMHA SWFS VAF ? PA SS ? 
CO SED ? CM COOT ES FPSY IPC PRS SPS PEER ? STU TCC ? SMPD ? ADLT CHLD SNR YAD 
? SP"
New Dawn Counseling LLC,703 John Adams Parkway,Idaho Falls,Idaho 83401,83401,"? MH ? OP TELE ? OMH ? AT BMT CBT CFT DBT IDD IPT TT ? PVTP ? MC MI PI SF VAF ? VET 
ADM MF CO TRMA TBI PTSD ? COOT FPSY ? TCC ? SMPD ? ADLT CHLD SNR YAD ? AH"
Pearl Health Clinic,2705 East 17th Street,Idaho Falls,Idaho 83406,83406,"? MH SUMH ? OP TELE ? OMH ? BMT CBT CFT DBT GT IDD IPT PTM TT ? CIT WI ? PVTP ? 
CLF CMHG CSBG MC MD MI OSF PI SCJJ SEF SF SI SMHA SWFS VAF ? PA SS ? CO PED 
PTSD SED ? ACT CDM CM COOT DEC FPSY IMR IPC PRS SPS PEER ? NSC TCC ? SMPD ? 
ADLT CHLD SNR YAD ? SP F17 F67"
Pettingill Counseling Services PC,1272 South Woodruff,Idaho Falls,Idaho 83404,83404,"? MH SUMH ? OP ? OMH ? AT BMT CBT CFT DBT GT IDD IPT PTM TT ? CIT ? PVTP ? CLF ITU 
MD MI OSF PI SCJJ SEF SF SI SMHA SWFS VAF ? TAY GL VET ADM MF TRMA PTSD SED SMI 
? ACT CM FPSY ICM PRS PEER ? STU ? SMPD ? ADLT CHLD YAD ? SP"
Region VII Behavioral Health / Adult and Child Mental Health Servs,"150 Shoup Avenue, Suite 17",Idaho Falls,Idaho 83402,83402,"? MH SUMH ? OP TELE ? OMH ? CBT GT IDD IPT PTM ? CIT ? SMA ? CMHG OSF PI SF SMHA 
SWFS ? PA SS ? CJ CO SED SMI ? ACT CM COOT FPSY PRS SEMP SPS TPC PEER ? SMPD ? 
ADLT CHLD SNR YAD ? AH ? SP"
Rehabilitative Health Services,"1675 Curlew Drive, Suite A",Idaho Falls,Idaho 83406,83406,"? MH SUMH ? OP TELE ? OMH ? AT BMT CBT CFT DBT GT IPT PTM TT ? CIT WI ? PVTP ? 
CLF ITU MC MD MI OSF PI SCJJ SF SI SMHA SWFS ? PA SS ? TAY SE GL CJ CO HV TRMA TBI 
PED PTSD SED SMI ? ACT CM COOT DEC ES FPSY IMR IPC PRS SH SPS PEER ? NSC STU 
TCC ? SMPD ? ADLT CHLD SNR YAD ? SP"
Snake River Counseling Services,1284 South Woodruff Avenue,Idaho Falls,Idaho 83404,83404,"? MH ? OP ? OMH ? BMT CBT CFT DBT GT IPT TT ? CIT ? PVTP ? FQHC ? CLF MD MI OSF PI 
SCJJ SEF SF SI SMHA SWFS VAF ? PA SS ? CDM ES FPSY ? SMPD ? ADLT CHLD SNR YAD"
Sullivan Mental Health Services LLC,1904 Jennie Lee Drive,Idaho Falls,Idaho 83404,83404,"? MH SUMH ? OP TELE ? OMH ? AT BMT CBT CFT DBT GT IDD IPT TT ? PVTP ? CLF CMHG 
CSBG ITU MD MI OSF PI SCJJ SEF SF SI SMHA SWFS VAF ? CO ? CM COOT FPSY IMR PRS 
SPS ? SMPD ? ADLT CHLD SNR YAD"
Tueller Counseling Services Inc,2275 West Broadway Street Suite G,Idaho Falls,Idaho 83402,83402,"? MH SUMH ? OP TELE ? OMH ? BMT CBT CFT DBT GT IDD IPT PTM TT ? CIT ? PVTP ? CLF 
MC MD MI OSF PI SCJJ SEF SF SI SMHA SWFS ? PA SS ? TAY SE CO TRMA PTSD SED SMI ? 
CDM CM COOT FPSY ICM IMR IPC PRS SPS PEER ? NRT NSC STU TCC ? SMPD ? ADLT 
CHLD SNR YAD ? SP"
Healthy Resolutions Kellogg Connie C Hahn PhD,135 McKinley Avenue Suite A,Kellogg,Idaho 83837,83837,"? MH ? OP ? OMH ? BMT CBT CFT IPT ? CIT ? SMA ? MD ? SED SMI ? ACT CM PRS ? SMPD 
? ADLT CHLD SNR YAD"
Northwest Childrens Home Residential Treatment Main Campus,419 22nd Avenue,Lewiston,Idaho 83501,83501,"? MH SUMH ? OP RES ? MSNH ? AT BMT CBT CFT DBT GT IPT PTM TT ? CIT ? PVTN ? ITU 
SCJJ SEF SF SI SMHA SWFS ? TAY GL CJ CO HV TRMA PED PTSD SED SMI ? CM ES FPSY 
PRS SEMP SPS ? STU ? SMON ? CHLD YAD"
Region II Mental Health Center,1118 F Street / P.O. Box B,Lewiston,Idaho 83501,83501,"? MH ? OP TELE ? OMH ? CBT DBT GT IDD IPT PTM TT ? CIT WI ? OSG ? CMHG MC MI PI SF 
SMHA ? PA ? CJ SED SMI ? ACT CM COOT PRS SPS PEER ? SMPD ? ADLT CHLD SNR YAD"
Saint Joseph Regional Medical Center Mental Health Clinic,428 6th Avenue,Lewiston,Idaho 83501,83501,"? MH SUMH ? HI ? PSY ? CBT CFT DBT GT IDD IPT PTM TT ? CIT ? PVTP ? MC MD MI PI SF 
SI ? CM SPS ? NRT STU TCC ? SMON ? ADLT SNR YAD ? AH"
Saint Joseph Regional Medical Center Mental Health Department,415 6th Street,Lewiston,Idaho 83501,83501,"? MH SUMH ? HI ? PSY ? AT CBT GT IPT PTM TT ? WI ? PVTP ? CLF CMHG CSBG ITU MC MD 
MI OSF PI SF SI SMHA VAF ? SE CO SMI ? CM DEC ES FPSY IMR SPS ? NRT NSC STU TCC ? 
SMON ? ADLT SNR YAD ? AH"
Sequoia Counseling Services Inc,531 Bryden Avenue,Lewiston,Idaho 83501,83501,"? MH SUMH ? OP ? OMH ? AT BMT CBT CFT DBT IPT TT ? CIT ? PVTP ? CLF MD MI OSF PI 
SCJJ SEF SF SI SMHA SWFS ? TAY SED SMI ? CM COOT FPSY PRS SPS ? SMPD ? ADLT 
CHLD SNR YAD ? AH"
Idaho Psychological Resources Mackay,4433 Beverland Road,Mackay,Idaho 83251,83251,"? MH SUMH ? OP ? OMH ? AT BMT CBT CFT DBT GT IDD IPT TT ? CIT ? PVTP ? CLF CMHG 
CSBG ITU MC MD MI OSF PI SCJJ SEF SF SMHA SWFS VAF ? TAY SE GL CJ CO TRMA TBI 
PTSD SED SMI ? CDM CM COOT FPSY PRS SPS PEER ? SMPD ? ADLT CHLD SNR YAD"
Access Living,690 South Industry Way Suite 45,Meridian,Idaho 83642,83642,"? MH ? OP ? OMH ? AT CBT CFT GT IPT PTM TT ? PVTP ? MD MI PI SF ? PA SS ? SE GL MF 
TRMA PTSD SMI ? CM FPSY PRS ? SMPD ? ADLT CHLD SNR YAD ? AH"
Family Counseling Services Inc,1799 North Lakes Place,Meridian,Idaho 83646,83646,"? MH ? OP ? OMH ? BMT CBT CFT DBT GT IPT TT ? PVTP ? CLF CMHG CSBG ITU MD OSF PI 
SCJJ SEF SF SMHA SWFS ? SS ? COOT ES FPSY PRS SPS PEER ? SMPD ? ADLT CHLD SNR 
YAD Journey Mental Health 3288 East Pine Avenue Meridian 
Idaho 83642 
Phone: (208) 888-8886
? MH ? OP ? OMH ? BMT CBT CFT IDD IPT TT ? PVTP ? MD MI PI SF SI SMHA SWFS ? FPSY 
SPS ? SMPD ? ADLT CHLD SNR YAD"
MidValley Healthcare,2321 East Gala Street Suite 3,Meridian,Idaho 83642,83642,"? MH ? OP ? OMH ? CBT CFT DBT GT IDD IPT PTM TT ? PVTP ? MC MI PI SF VAF ? CO ? ACT 
SPS ? SMON ? ADLT SNR YAD"
Warm Springs Counseling Center,1833 South Millennium Way Suite 120,Meridian,Idaho 83642,83642,"? MH SUMH ? OP ? OMH ? AT BMT CBT CFT GT IDD IPT PTM TT ? CIT ? PVTN ? MC MD MI PI 
SCJJ SF SI SMHA SWFS ? PA SS ? SED ? COOT FPSY ? SMON ? ADLT CHLD SNR YAD ? AH ? 
SP"
Bear Lake Memorial Hospital MH,822 Washington Street,Montpelier,Idaho 83254,83254,"? MH SUMH ? OP TELE ? OMH ? AT BMT CBT CFT DBT GT IDD IPT TT ? CIT ? LMG ? CLF MC 
MD MI OSF PI SF SI SMHA SWFS ? TAY SE VET MF CJ CO TRMA TBI PTSD SED SMI ? FPSY 
SPS ? SMON ? ADLT CHLD SNR YAD"
Region II Mental Health Center,"1350 Troy Road, Suite 2",Moscow,Idaho 83843,83843,"? MH ? OP TELE ? OMH ? CBT DBT GT IDD IPT PTM TT ? CIT WI ? OSG ? CMHG MC MI PI SF 
SMHA ? PA ? CJ SED SMI ? ACT CM COOT PRS SPS PEER ? SMPD ? ADLT CHLD SNR YAD"
Scott Community Care PLLC,"317 West 6th Street, Suite 208",Moscow,Idaho 83843,83843,"? MH SUMH ? OP ? CMHC ? AT BMT CBT CFT DBT GT IDD IPT TT ? CIT ? PVTP ? CLF CSBG 
MC MD MI OSF PI SCJJ SEF SF SI SMHA SWFS VAF ? SS ? TAY SE GL TRMA PTSD SED SMI ? 
CM FPSY IMR PRS SPS PEER ? SMPD ? ADLT CHLD SNR YAD"
Idaho Behavioral Health Moutain Home,2420 American Legion Boulevard,Mountain Home,Idaho 83647,83647,"? MH SUMH ? OP TELE ? OMH ? AT BMT CBT CFT DBT IDD IPT PTM TT ? CIT ? PVTP ? CLF 
CMHG CSBG ITU MC MD MI OSF PI SCJJ SEF SF SI SMHA SWFS VAF ? PA SS ? CM COOT 
FPSY PRS SPS PEER ? SMPD ? ADLT CHLD SNR YAD ? AH ? SP"
Inspiring Change Inc,140 East 2nd North,Mountain Home,Idaho 83647,83647,"? MH SUMH ? OP ? OMH ? CBT CFT GT IDD IPT ? CIT ? PVTP ? CLF MD PI SCJJ SEF SF SI 
SMHA SWFS ? SE GL VET CJ CO TRMA PTSD SED SMI ? CM COOT ES PRS SPS PEER ? 
SMON ? ADLT CHLD SNR YAD"
Acacia Wellness Center,217 West Georgia Avenue Suite 120,Nampa,Idaho 83686,83686,"? MH SUMH ? OP TELE ? OMH ? BMT CBT CFT DBT GT IDD IPT PTM TT ? WI ? PVTP ? MC 
MD MI PI SCJJ SEF SF SI SMHA SWFS VAF ? TAY SE GL VET ADM MF CJ CO HV TRMA TBI 
ALZ PED PTSD SED SMI ? CDM CM COOT DEC FPSY IPC SPS PEER ? NRT NSC STU TCC ? 
SMPD ? ADLT CHLD SNR YAD"
Access Behavioral Health Services,"3307 Caldwell Boulevard, Suites 102-104",Nampa,Idaho 83651,83651,"? MH SUMH ? OP TELE ? OMH ? AT BMT CBT CFT DBT GT IDD IPT PTM TT ? CIT ? PVTP ? 
CLF CMHG CSBG ITU MC MD MI OSF PI SCJJ SEF SF SI SMHA SWFS VAF ? SS ? GL CO 
TRMA PTSD SED SMI ? CM COOT ES FPSY PRS PEER ? STU ? SMPD ? ADLT CHLD SNR YAD 
? SP"
Allied Mental Health Services PLLC,220 10th Avenue South,Nampa,Idaho 83651,83651,"? MH SUMH ? OP ? OMH ? AT BMT CBT CFT DBT GT IPT PTM TT ? CIT WI ? PVTP ? CLF MD 
OSF PI SCJJ SEF SF SI SMHA SWFS ? SS ? CM FPSY PRS SPS PEER ? STU TCC ? SMPD ? 
ADLT CHLD SNR YAD ? AH ? SP"
Brighter Future Health Inc,316 12th Avenue Road,Nampa,Idaho 83686,83686,"? MH SUMH ? OP ? OMH ? CBT CFT DBT GT IPT TT ? WI ? PVTP ? FQHC ? MC MD MI PI SF 
SI ? TAY SE GL VET ADM MF CJ CO HV TRMA PTSD SED SMI ? CM COOT ES FPSY IMR IPC 
PEER ? SMPD ? ADLT CHLD SNR YAD"
Community Health Clinics Nampa II,207 1st Street South,Nampa,Idaho 83653,83653,"? MH SUMH ? OP ? OMH ? BMT CBT CFT IPT PTM TT ? WI ? FQHC ? CLF CMHG CSBG MC 
MD MI OSF PI SCJJ SEF SF SI SMHA SWFS ? PA SS ? TAY SE CO SED SMI ? CDM CM DEC ES 
IPC SPS ? STU TCC ? SMPD ? ADLT CHLD SNR YAD ? AH ? SP"
Idaho Behavioral Health Inc Nampa,1811 East Karcher Road,Nampa,Idaho 83687,83687,"? MH SUMH ? OP TELE ? OMH ? AT BMT CBT CFT DBT IDD IPT PTM TT ? CIT ? PVTP ? CLF 
CMHG CSBG ITU MC MD MI OSF PI SCJJ SEF SF SI SMHA SWFS VAF ? PA SS ? CM COOT 
FPSY PRS SPS PEER ? SMPD ? ADLT CHLD SNR YAD ? AH ? SP F67"
Montgomery Counseling Center Phyllis Montgomery,323 12th Avenue Road,Nampa,Idaho 83686,83686,"? MH SUMH ? OP ? MSNH ? AT CBT CFT GT IDD IPT TT ? PVTP ? CLF MD MI PI SF SI ? PA ? 
TAY ? CDM COOT DEC ES FPSY IPC SPS ? NRT STU TCC ? SMPD ? ADLT CHLD SNR YAD ? 
SP"
A to Z Counseling Orofino,1275 Riverside Avenue / P.O. Box 1124,Orofino,Idaho 83544,83544,"? MH SUMH ? OP ? OMH ? BMT CBT CFT DBT GT IDD IPT TT ? CIT ? PVTP ? CLF CMHG 
CSBG ITU MC MD MI OSF PI SCJJ SEF SF SMHA SWFS VAF ? CO SED SMI ? CM COOT FPSY 
IMR PRS PEER ? SMPD ? ADLT CHLD SNR YAD"
State Hospital North,300 Hospital Drive,Orofino,Idaho 83544,83544,"? MH SUMH ? HI ? PSY ? AT CBT DBT GT IDD IPT PTM ? SMA ? CLF OSF PI SF SI SMHA ? CO 
SMI ? CDM CM DEC ES IPC PRS ? SMON ? ADLT SNR YAD ? AH"
Emmett Csl and Psychiatric Servs DBA Payette Csl and Psych Servs,"501 North 16th Street, Suite 110",Payette,Idaho 83661,83661,"? MH ? OP ? OMH ? AT BMT CBT CFT IPT PTM TT ? WI ? PVTP ? MC MD MI PI SCJJ SF SI 
VAF ? PA SS ? CM FPSY PRS PEER ? SMON ? ADLT CHLD SNR YAD ? AH"
IDHW Region 3 Payette,515 North 16th Street,Payette,Idaho 83661,83661,"? MH ? OP ? CMHC ? GT IPT PTM ? SMA ? MI PI SF SMHA ? PA SS ? SED SMI ? CM SPS VRS 
? SMON ? ADLT CHLD SNR YAD ? AH ? SP"
Allies Family Solutions,818 East Lander Street,Pocatello,Idaho 83201,83201,"? MH ? OP ? OMH ? AT BMT CBT CFT GT IPT TT ? PVTP ? MC MD PI SF ? TAY SE GL VET 
ADM MF TRMA TBI PTSD SED SMI ? CM COOT ES FPSY HS PRS SEMP ? SMPD ? ADLT CHLD 
SNR YAD ? SP"
Community Mental Health Services,720 East Lander Street,Pocatello,Idaho 83201,83201,"? MH ? OP ? OMH ? CBT CFT DBT GT IPT TT ? PVTP ? MC MD PI SF SI VAF ? PA ? SMI ? CM 
PRS SPS PEER ? SMPD ? ADLT CHLD SNR YAD"
Consumer Care LLC,645 West Clark Street,Pocatello,Idaho 83204,83204,"? MH SUMH ? OP PHDT ? OMH ? AT BMT CBT CFT DBT GT IDD IPT TT ? CIT ? PVTP ? MC MD 
SF SI ? CO TRMA TBI PTSD SMI ? CM COOT PRS PEER ? SMPD ? ADLT SNR YAD"
Mental Health Specialists,210 West Burnside Avenue Suite A,Pocatello,Idaho 83202,83202,"? MH ? OP TELE ? OMH ? AT BMT CBT CFT DBT GT IPT PTM TT ? PVTP ? CLF MC MD MI OSF 
PI SCJJ SF SI SWFS ? TAY SE GL VET ADM MF CJ CO HV TRMA TBI ALZ PED PTSD SED SMI ? 
ACT CDM CM COOT ES FPSY HS ICM IMR PRS SH SPS PEER ? NSC TCC ? SMPD ? ADLT 
CHLD SNR YAD ? AH ? SP F70"
Mental Wellness Centers Inc,"1777 East Clark Street, Suite 330",Pocatello,Idaho 83201,83201,"? MH SUMH ? OP ? OMH ? BMT CBT CFT DBT GT IDD IPT PTM TT ? CIT ? PVTP ? CLF CMHG 
CSBG ITU MC MD MI OSF PI SCJJ SEF SF SI SMHA SWFS VAF ? PA SS ? SE GL VET MF CJ 
CO TRMA PTSD SED SMI ? ACT CM COOT FPSY PRS PEER ? NSC ? SMPD ? ADLT CHLD SNR 
YAD"
New Horizons Mental Wellness Pocatello,611 Wilson Avenue,Pocatello,Idaho 83201,83201,"? MH SUMH ? OP TELE ? OMH ? BMT CBT CFT DBT IDD IPT PTM TT ? CIT ? PVTP ? CLF 
CMHG CSBG ITU MC MD MI OSF PI SCJJ SEF SF SI SMHA SWFS VAF ? TAY SE GL VET ADM 
MF CJ CO HV TRMA TBI ALZ PED PTSD SED SMI ? SPS PEER ? NRT NSC TCC ? SMPD ? 
ADLT CHLD SNR YAD ? SP"
Portneuf Medical Center Behavioral Health,777 Hospital Way,Pocatello,Idaho 83201,83201,"? MH SUMH ? HI ? PSY ? AT DBT GT PTM ? WI ? PVTP ? CLF CMHG CSBG ITU MC MD MI 
OSF PI SF SI SMHA SWFS VAF ? SS ? SE VET CO TRMA PTSD SMI ? DEC ES FPSY LAD SPS 
? NRT NSC STU ? SMON ? ADLT SNR YAD ? AH"
Portneuf Valley Family Center Inc,"444 Hospital Way, Suite 477",Pocatello,Idaho 83201,83201,"? MH SUMH ? OP ? CMHC ? BMT CBT CFT DBT IDD IPT PTM TT ? CIT ? PVTP ? MC MD MI 
OSF PI SCJJ SF SI SMHA SWFS ? PA SS ? TAY SE GL VET ADM MF CJ CO HV TRMA PED 
PTSD SED SMI ? CM COOT FPSY PRS SPS PEER ? SMPD ? ADLT CHLD SNR YAD ? AH"
Redford Counseling and Family Servs,"707 North 7th Avenue, Suite D",Pocatello,Idaho 83201,83201,"? MH SUMH ? OP ? OMH ? AT BMT CBT CFT GT IDD IPT TT ? PVTP ? CLF CMHG CSBG ITU 
MC MD MI OSF PI SCJJ SEF SF SI SMHA SWFS VAF ? VET ADM MF CO ? ACT CM COOT FPSY 
ICM PRS SPS PEER ? SMPD ? ADLT CHLD SNR YAD ? SP"
Region VI Division of Behav Hlth State of Idaho Health and Welfare,421 Memorial Drive,Pocatello,Idaho 83201,83201,"? MH SUMH ? OP ? OMH ? BMT CBT CFT DBT GT IDD IPT PTM ? CIT WI ? OSG ? CMHG PI SF 
? PA SS ? CO SED SMI ? ACT CM COOT ES FPSY HS ICM IMR PRS SEMP SPS VRS PEER ? 
SMPD ? ADLT CHLD SNR YAD ? SP"
Salt Lake City VA Medical Center Pocatello CBOC,"444 Hospital Way, Suite 801",Pocatello,Idaho 83201,83201,"? MH SUMH ? OP TELE ? CBT CFT DBT GT IDD IPT PTM TT ? VAMC ? ITU MC MI VAF ? SE GL 
VET ADM MF CJ CO HV TRMA TBI ALZ PED PTSD SMI ? CDM CM COOT DEC FPSY HS IPC 
LAD SPS ? NRT NSC STU TCC ? SMPD ? ADLT SNR YAD ? VO"
Priestley Mental Health Inc,75 South 1st West,Preston,Idaho 83263,83263,"? MH ? OP ? OMH ? AT BMT CBT CFT DBT GT IDD IPT TT ? PVTP ? MC MD PI SF SI SWFS ? 
ACT CM COOT FPSY PRS ? SMPD ? ADLT CHLD SNR YAD ? SP"
Rathdrum Counseling Center LLC,14954 Couer D Alene Street,Rathdrum,Idaho 83858,83858,"? MH SUMH ? OP ? OMH ? AT BMT CBT CFT DBT GT IDD IPT PTM TT ? CIT WI ? PVTP ? CLF 
CMHG CSBG ITU MC MD MI OSF PI SCJJ SEF SF SI SMHA SWFS VAF ? PA SS ? TAY SE GL 
VET ADM MF CJ CO TRMA PED PTSD SED SMI ? CM COOT ES FPSY ICM PRS SPS PEER ? 
SMPD ? ADLT CHLD SNR YAD"
Child and Family Resources,316 North 3rd East,Rexburg,Idaho 83440,83440,"? MH SUMH ? OP ? OMH ? BMT CBT CFT DBT IPT TT ? CIT ? PVTP ? MD MI PI SF ? CM COOT 
? SMON ? ADLT CHLD SNR YAD"
Ostermiller Counseling Services Inc,"242 East 7th North, Suite 4",Rexburg,Idaho 83440,83440,"? MH SUMH ? OP ? OMH ? AT BMT CBT CFT DBT GT IDD IPT TT ? CIT ? PVTP ? CLF CMHG 
CSBG MC MD MI OSF PI SCJJ SF SI SMHA SWFS VAF ? TRMA ? CM COOT FPSY ICM PRS 
SPS PEER ? SMPD ? ADLT CHLD SNR YAD ? SP F67"
Region VII Behavioral Health / Adult and Child Mental Health Servs,333 Walker Drive,Rexburg,Idaho 83440,83440,"? MH SUMH ? OP TELE ? OMH ? CBT GT IDD IPT PTM ? CIT ? SMA ? CMHG OSF PI SF SMHA 
SWFS ? PA SS ? CJ CO SED SMI ? ACT CM COOT FPSY PRS SPS TPC PEER ? SMPD ? ADLT 
CHLD SNR YAD ? AH ? SP"
Rexburg Counseling,"2590 South 2000 West, Suite 2",Rexburg,Idaho 83440,83440,"? MH SUMH ? OP ? OMH ? AT BMT CBT CFT IDD IPT TT ? PVTP ? CLF MD MI OSF PI SCJJ SF 
SI SMHA SWFS ? PA SS ? SPS ? SMPD ? ADLT CHLD SNR YAD"
Tuller Counseling Inc,295 North 3855 East,Rigby,Idaho 83442,83442,"? MH SUMH ? OP TELE ? OMH ? BMT CBT CFT DBT GT IDD IPT PTM TT ? CIT WI ? PVTP ? 
CLF MC MD MI OSF PI SCJJ SF SI SMHA SWFS VAF ? PA SS ? TAY SE GL VET ADM MF CJ CO 
HV TRMA TBI PED PTSD SED SMI ? CDM CM COOT DEC ES FPSY IPC PRS SPS PEER ? NRT 
NSC STU TCC ? SMPD ? ADLT CHLD SNR YAD ? SP"
Upper Valley Resource and Counsel Ctr,530 Rigby Lake Drive,Rigby,Idaho 83442,83442,"? MH SUMH ? OP TELE ? OMH ? BMT CBT CFT DBT GT IDD IPT PTM TT ? CIT ? PVTP ? CLF 
CMHG CSBG ITU MC MD MI OSF PI SCJJ SEF SF SI SMHA SWFS VAF ? PA SS ? CM COOT 
FPSY PRS ? SMPD ? ADLT CHLD SNR YAD"
Boise VAMC,705 Lena Street,Salmon,Idaho 83467,83467,"? MH ? OP TELE ? BMT CBT CFT DBT GT IDD IPT PTM TT ? CIT WI ? VAMC ? VET PTSD ? 
ACT CDM CM COOT FPSY SPS ? NRT NSC STU TCC ? SMPD ? ADLT SNR YAD ? VO"
Lemhi Valley Social Services,"1301 Main Street, Suite 3-B",Salmon,Idaho 83467,83467,"? MH SUMH ? OP ? OMH ? AT BMT CBT CFT DBT GT IPT TT ? PVTP ? CLF MC MD MI OSF PI 
SCJJ SF ? SS ? CM COOT PEER ? STU ? SMPD ? ADLT CHLD SNR YAD"
North Idaho Childrens Mental Health,1717 West Ontario Avenue,Sandpoint,Idaho 83864,83864,"? MH ? OP ? OMH ? BMT CBT CFT DBT GT IDD IPT TT ? CIT ? PVTP ? CLF CMHG CSBG MD 
MI OSF PI SCJJ SEF SF SI SMHA SWFS ? SS ? TAY GL CJ CO TRMA TBI PTSD SED SMI ? CM 
COOT FPSY PRS SPS PEER ? SMPD ? ADLT CHLD SNR YAD"
Sandpoint Psychotherapy and Assoc,506 North 4th Avenue,Sandpoint,Idaho 83864,83864,"? MH SUMH ? OP ? OMH ? AT BMT CBT CFT DBT GT IDD IPT TT ? CIT ? PVTP ? MC MD MI PI 
SCJJ SEF SF SI SMHA SWFS VAF ? SS ? CM COOT FPSY ICM PRS SPS ? SMPD ? ADLT CHLD 
SNR YAD ? AH"
Loving Care and More Inc,104 Wind River Drive,Silverton,Idaho 83867,83867,"? MH SUMH ? OP TELE ? OMH ? BMT CBT CFT DBT GT IDD IPT TT ? PVTP ? CLF CMHG 
CSBG MC MD OSF PI SCJJ SEF SF SI SMHA SWFS ? CM COOT DEC ES FPSY IPC SPS ? 
SMPD ? ADLT CHLD SNR YAD"
Portneuf Valley Family Center Inc,"15 West Center Street, Suite 2",Soda Springs,Idaho 83276,83276,"? MH SUMH ? OP ? OMH ? BMT CBT CFT DBT IPT PTM TT ? CIT ? PVTP ? CLF MC MD MI 
OSF PI SCJJ SEF SF SI SMHA VAF ? PA SS ? TAY SE GL VET ADM MF CJ CO HV TRMA PED 
PTSD SED SMI ? CM COOT FPSY PRS PEER ? SMPD ? ADLT CHLD SNR YAD ? AH"
Allied Mental Health Services PLLC,11104 West State Street,Star,Idaho 83669,83669,"? MH SUMH ? OP ? OMH ? AT BMT CBT CFT DBT GT IPT PTM TT ? CIT WI ? PVTP ? CLF MD 
OSF PI SCJJ SEF SF SI SMHA SWFS ? SS ? CM FPSY PRS SPS PEER ? STU TCC ? SMPD ? 
ADLT CHLD SNR YAD ? AH ? SP"
Upper Valley Resource and Csl Ctr,1223 South Railroad Avenue,Sugar City,Idaho 83448,83448,"? MH SUMH ? OP TELE ? OMH ? BMT CBT CFT DBT GT IDD IPT PTM TT ? CIT ? PVTP ? CLF 
CMHG CSBG ITU MC MD MI OSF PI SCJJ SEF SF SI SMHA SWFS VAF ? PA SS ? CM COOT 
FPSY PRS ? SMPD ? ADLT CHLD SNR YAD"
Alliance Family Services Inc,550 Polk Street,Twin Falls,Idaho 83301,83301,"? MH SUMH ? OP TELE ? OMH ? BMT CBT CFT DBT GT IPT PTM TT ? CIT ? PVTP ? CLF MC 
MD MI PI SCJJ SF SWFS ? PA SS ? SED ? CM COOT FPSY PRS ? SMPD ? ADLT CHLD SNR 
YAD ? SP F4 F25 F141"
Crosspointe Mental Health LLC DBA Crosspointe Family Services,1363 Fillmore Street,Twin Falls,Idaho 83301,83301,"? MH SUMH ? OP ? OMH ? AT BMT CBT CFT DBT GT IDD IPT PTM TT ? WI ? PVTP ? CLF MC 
MD MI OSF PI SCJJ SEF SF SI SWFS ? PA SS ? SE CJ CO TRMA SED SMI ? CM ES FPSY ICM 
PRS SPS ? NSC STU TCC ? SMON ? ADLT CHLD SNR YAD ? AH ? SP"
Healthier Bodies,336 Main Avenue South,Twin Falls,Idaho 83301,83301,"? MH SUMH ? OP TELE ? OMH ? AT BMT CBT CFT IDD IPT TT ? PVTN ? MC PI SF ? PA SS ? 
TAY SE GL VET MF CO TRMA TBI PED PTSD SED ? COOT DEC ES FPSY SPS ? STU ? SMPD ? 
ADLT CHLD SNR YAD"
IDHW Region 5 Twin Falls,823 Harrison Street,Twin Falls,Idaho 83301,83301,"? MH SUMH ? OP ? CMHC ? AT BMT CBT DBT GT IDD IPT PTM TT ? CIT WI ? SMA ? CLF 
CMHG CSBG MC MD MI PI SF SI 
? PA SS ? CJ CO ? ACT CM COOT FPSY HS PRS SEMP SPS VRS PEER ? NSC ? SMON ? 
ADLT SNR YAD ? AH ? SP"
Positive Connections LLC Twin Falls,1373 Fillmore Street,Twin Falls,Idaho 83301,83301,"? MH SUMH ? OP PHDT TELE ? MSNH ? AT BMT CBT CFT DBT GT IDD IPT PTM TT ? CIT WI ? 
PVTP ? CLF MC MD MI OSF PI SCJJ SEF SF SI SMHA SWFS VAF ? PA SS ? TAY SE GL VET 
ADM MF CJ CO HV TRMA TBI ALZ PED PTSD SED SMI ? CDM CM COOT DEC ES FPSY ICM 
IMR IPC PRS SPS PEER ? NRT NSC STU TCC ? SMPD ? ADLT CHLD SNR YAD ? AH"
ProActive Behavioral Health,264 Main Avenue South,Twin Falls,Idaho 83301,83301,"? MH ? OP TELE ? OMH ? AT BMT CBT CFT DBT GT IDD IPT TT ? WI ? PVTP ? CLF CMHG MC 
MD MI PI SCJJ SEF SF SI SWFS ? SS ? TAY SE GL ADM MF CJ CO HV TRMA TBI PED PTSD 
SED SMI ? CM COOT ES FPSY IMR IPC PRS SPS ? SMPD ? ADLT CHLD SNR YAD ? AH ? SP"
Pathways Inc,115 West Idaho Street,Weiser,Idaho 83672,83672,"? MH SUMH ? OP ? MSNH ? AT BMT CBT CFT DBT GT IPT TT ? CIT ? PVTN ? MD MI PI SF SI ? 
PA SS ? TAY SE GL VET ADM MF CJ CO HV TRMA TBI ALZ PED PTSD SED SMI ? CM COOT ? 
SMPD ? ADLT CHLD SNR YAD ? AH ? SP"
