Name,Address,City,State,Zip,Services
Otis R Bowen Ctr for Human Servs Albion Office,101 East Park Drive,Albion,Indiana 46701,46701,"? MH SUMH ? OP TELE ? CMHC ? AT BMT CBT CFT DBT GT IDD IPT PTM TT ? CIT WI ? 
PVTN ? CLF CSBG MC MD OSF PI SCJJ SEF SF SI SMHA SWFS ? SS ? CJ CO PTSD SED 
SMI ? CM COOT ES FPSY ICM IMR IPC PRS SEMP SPS VRS ? NSC TCC ? SMPD ? ADLT 
CHLD SNR YAD ? AH ? SP"
Aspire Indiana,1933 Chase Street,Anderson,Indiana 46016,46016,"? MH SUMH ? OP TELE ? CMHC ? CBT CFT DBT GT IDD IPT PTM TT ? CIT ? PVTN ? CLF 
CMHG MC MD MI OSF PI SF SI SMHA SWFS ? SS ? CO HV TRMA PTSD SED SMI ? CDM CM 
COOT HS ICM IMR IPC PRS SEMP SH SPS PEER ? NRT NSC STU TCC ? SMON ? ADLT 
CHLD SNR YAD ? AH"
Aspire Indiana,2020 Brown Street,Anderson,Indiana 46016,46016,"? MH SUMH ? OP TELE ? CMHC ? CBT CFT DBT GT IDD IPT PTM TT ? CIT ? PVTN ? FQHC ? 
CLF CMHG MC MD MI OSF PI SF SI SMHA SWFS ? SS ? CO HV TRMA PTSD SED SMI ? CDM 
CM COOT HS ICM IMR IPC PRS SEMP SH SPS PEER ? NRT STU TCC ? SMON ? ADLT CHLD 
SNR YAD ? AH"
Aspire Indiana,2009 Brown Street,Anderson,Indiana 46016,46016,"? MH SUMH ? OP TELE ? CMHC ? CBT CFT DBT GT IDD IPT PTM TT ? CIT ? PVTN ? CLF 
CMHG MC MD MI OSF PI SF SI SMHA SWFS ? SS ? CO HV TRMA PTSD SED SMI ? CDM CM 
COOT HS ICM IMR IPC PRS SEMP SH SPS PEER ? NRT STU TCC ? SMON ? ADLT CHLD 
SNR YAD ? AH"
Community Behavioral Health Anderson Crestview Center,3125 South Scatterfield Road Suite 200,Anderson,Indiana 46013,46013,"? MH ? OP ? OMH ? CBT CFT GT IDD IPT PTM TT ? CIT ? PVTN ? MC MD MI OSF PI SCJJ SF 
SI SMHA SWFS ? SS ? CO TRMA PTSD ? ACT CDM CM COOT PRS SPS ? NSC ? SMON ? 
ADLT CHLD SNR YAD ? AH"
Saint Vincent Anderson Regional Hosp Anderson Center,2210 Jackson Street,Anderson,Indiana 46016,46016,"? MH SUMH ? HI OP PHDT RES TELE ? PSY ? AT BMT CBT CFT DBT ECT GT IDD IPT PTM TT 
? CIT WI ? PVTN ? MC MD MI PI SEF SF SWFS ? CO TRMA PTSD ? ACT COOT ES FPSY IMR 
IPC SPS PEER ? STU ? SMON ? ADLT CHLD SNR YAD ? AH"
Northeastern Center Inc Steuben Cnty Satellite/Comm Support,3265 Intertech Drive,Angola,Indiana 46703,46703,"? MH SUMH ? OP TELE ? CMHC ? CBT CFT DBT GT IDD IPT PTM TT ? CIT WI ? PVTN ? CLF 
CMHG MC MD MI OSF PI SCJJ SF SI SMHA SWFS ? PA SS ? SE CJ CO TRMA PTSD SED SMI 
? CM COOT ES FPSY IPC PRS SEMP SPS VRS ? STU ? SMPD ? ADLT CHLD SNR YAD ? AH"
Otis R Bowen Ctr for Human Servs Angola Office,200 Hoosier Drive Suite E,Angola,Indiana 46703,46703,"? MH SUMH ? OP ? CMHC ? BMT CBT CFT DBT GT IDD IPT PTM TT ? CIT WI ? PVTN ? CLF 
CMHG CSBG ITU MC MD MI OSF PI SCJJ SEF SF SI SMHA SWFS VAF ? SS ? TAY SE GL VET 
MF CJ CO TRMA TBI PTSD SED SMI ? CM COOT ES FPSY ICM IMR IPC PRS SPS ? STU TCC 
? SMON ? ADLT CHLD SNR YAD ? AH"
Valley Oaks Health Outpatient Service,41 North Long Avenue,Attica,Indiana 47918,47918,"? MH SUMH ? OP ? CMHC ? CBT CFT GT IPT PTM ? PVTN ? CLF MC MD MI OSF PI SCJJ SF 
SI SMHA SWFS ? SS ? CM ? STU ? SMON ? ADLT CHLD SNR YAD ? AH"
Northeastern Center Inc DeKalb County Office OP,1800 Wesley Road,Auburn,Indiana 46706,46706,"? MH SUMH ? OP TELE ? CMHC ? AT BMT CBT CFT DBT GT IDD IPT PTM TT ? CIT ? PVTN ? 
CLF MC MD MI PI SCJJ SF SI SMHA SWFS ? PA SS ? CO TRMA SED SMI ? CM COOT FPSY 
ICM IMR SPS ? STU ? SMPD ? ADLT CHLD SNR YAD ? AH"
Northeastern Center Inc IP Unit,1850 Wesley Road,Auburn,Indiana 46706,46706,"? MH SUMH ? HI ? PSY ? AT BMT CBT GT IDD PTM TT ? CIT WI ? PVTN ? CLF MC MD PI 
SCJJ SF SI SMHA SWFS ? SS ? CM FPSY SPS ? NRT STU TCC ? SMON ? ADLT SNR YAD ? 
AH"
Otis R Bowen Ctr for Human Servs Auburn Office,923 Cardinal Court,Auburn,Indiana 46706,46706,"? MH SUMH ? OP ? CMHC ? BMT CBT CFT DBT GT IDD IPT TT ? PVTN ? CLF MC MD MI OSF 
PI SCJJ SEF SF SI SMHA SWFS ? TAY SE GL VET CJ CO HV TRMA PTSD SED SMI ? CDM CM 
COOT FPSY HS ICM IMR IPC PRS SH SPS ? STU TCC ? SMON ? ADLT CHLD SNR YAD ? AH 
? SP"
Centerstone of Indiana Inc Centerstone Austin,45 West Main Street,Austin,Indiana 47102,47102,"? MH SUMH ? OP ? CMHC ? CBT CFT GT IDD IPT TT ? CIT WI ? PVTN ? CLF CMHG CSBG 
MC MD MI OSF PI SCJJ SEF SF SI SMHA SWFS VAF ? CJ CO TRMA PTSD SMI ? CM DEC 
PRS SEMP SPS ? STU TCC ? SMON ? ADLT SNR YAD ? AH"
LifeSpring Inc Austin Medical Center,825 North Highway 31,Austin,Indiana 47102,47102,"? MH SUMH ? OP TELE ? CMHC ? AT BMT CBT CFT DBT GT IDD IPT PTM TT ? CIT ? PVTN ? 
FQHC ? CLF CMHG CSBG MC MD MI OSF PI SCJJ SF SI SMHA SWFS ? PA SS ? CO SMI ? 
CDM CM COOT DEC IMR IPC SPS ? NRT NSC STU TCC ? SMON ? ADLT SNR YAD ? AH"
Cummins BH Systems Inc,6655 East U.S. Highway 36,Avon,Indiana 46123,46123,"? MH SUMH ? OP TELE ? CMHC ? BMT CBT CFT DBT GT IDD IPT PTM TT ? CIT WI ? PVTN ? 
CLF MC MD MI OSF PI SCJJ SF SI SWFS ? SS ? TAY CO SED SMI ? CDM CM COOT DEC 
FPSY HS ICM IMR IPC PRS SEMP SH SPS VRS PEER ? NRT NSC STU TCC ? SMON ? ADLT 
CHLD SNR YAD ? AH"
Community Mental Health Center Inc Batesville North Depot Street Office,15 North Depot Street,Batesville,Indiana 47006,47006,"? MH SUMH ? OP RES ? CMHC ? AT BMT CBT CFT DBT GT IPT PTM TT ? CIT WI ? PVTN ? 
CLF CMHG CSBG ITU MC MD MI OSF PI SCJJ SEF SF SI SMHA SWFS VAF ? SS ? TAY SE 
SMI ? CDM CM COOT ES FPSY HS ICM IMR IPC SEMP SPS VRS ? STU TCC ? SMON ? ADLT 
SNR YAD ? AH ? SP"
Community Mental Health Center Inc Batesville Office,215 East George Street,Batesville,Indiana 47006,47006,"? MH SUMH ? OP ? CMHC ? AT BMT CBT CFT DBT GT IPT PTM TT ? CIT WI ? PVTN ? CLF 
CMHG CSBG ITU MC MD MI OSF PI SCJJ SEF SF SI SMHA SWFS VAF ? SS ? TAY SE CO SED 
SMI ? CDM CM COOT ES FPSY HS ICM IMR IPC SEMP SPS VRS ? STU TCC ? SMON ? ADLT 
CHLD SNR YAD ? AH ? SP"
Community Mental Health Center Inc Batesville Park Avenue Office,16 North Park Avenue,Batesville,Indiana 47006,47006,"? MH SUMH ? OP ? CMHC ? AT BMT CBT CFT DBT GT IPT PTM TT ? CIT WI ? PVTN ? CLF 
CMHG CSBG ITU MC MD MI OSF PI SCJJ SEF SF SI SMHA SWFS VAF ? SS ? TAY SE CO ALZ 
4
PED PTSD SMI ? CDM CM COOT ES FPSY HS ICM IMR IPC SEMP SPS VRS ? STU TCC ? 
SMON ? ADLT SNR YAD ? AH ? SP"
Centerstone of Indiana Inc Centerstone Bedford,1315 Hillcrest Road,Bedford,Indiana 47421,47421,"? MH SUMH ? OP TELE ? CMHC ? CBT CFT GT IDD IPT PTM TT ? CIT WI ? PVTN ? CLF 
CMHG CSBG MC MD MI OSF PI SCJJ SEF SF SI SMHA SWFS VAF ? TAY CJ CO TRMA PTSD 
SED SMI ? CM DEC FPSY PRS SEMP SPS ? NRT NSC STU TCC ? SMON ? ADLT CHLD SNR 
YAD ? AH"
Bloomington VA Outpatient Clinic,1332 West Arch Haven Avenue Suite A,Bloomington,Indiana 47403,47403,"? MH SUMH ? OP TELE ? OMH ? CBT CFT GT IPT PTM TT ? CIT WI ? VAMC ? MC MD PI SF ? 
VET ? CDM COOT DEC ES FPSY HS ICM IMR IPC PRS SH PEER ? NRT ? SMPD ? ADLT SNR 
YAD ? VO"
Centerstone of Indiana Inc Centerstone Bloomington,645 South Rogers Street,Bloomington,Indiana 47403,47403,"? MH SUMH ? OP TELE ? CMHC ? CBT CFT DBT GT IDD IPT PTM TT ? CIT WI ? PVTN ? CLF 
CMHG CSBG MC MD MI OSF PI SCJJ SEF SF SI SMHA SWFS VAF ? TAY CJ CO TRMA PTSD 
SED SMI ? ACT CM DEC FPSY ICM IMR IPC PRS SEMP SPS ? NRT NSC STU TCC ? SMON ? 
ADLT CHLD SNR YAD ? AH"
Indiana University Health Bloomington Outp Behav Health Servs,727 West 2nd Street,Bloomington,Indiana 47403,47403,"? MH SUMH ? OP PHDT TELE ? OMH ? AT CBT CFT DBT GT IDD IPT PTM TT ? PVTN ? MC 
MD MI PI SF SI SMHA ? SE CO TRMA PTSD ? COOT FPSY IMR IPC PRS SPS ? NRT NSC STU 
? SMON ? ADLT SNR YAD ? AH ? SP"
Meadows Hospital,3600 North Prow Road,Bloomington,Indiana 47404,47404,"? MH SUMH ? HI TELE ? PSY ? AT BMT CBT DBT GT IDD IPT PTM TT ? WI ? PVTP ? MC MD 
MI PI SCJJ SEF SF SI SMHA SWFS ? CO TRMA ? CM FPSY PRS SPS ? NSC STU ? SMON ? 
ADLT CHLD SNR YAD"
Saint Vincent Warrick,1116 Millis Avenue,Boonville,Indiana 47601,47601,"? MH SUMH ? HI ? PSY ? AT BMT CBT GT IPT PTM TT ? CIT WI ? PVTN ? CLF MC MI OSF PI 
SF SMHA VAF ? PA ? SE ALZ ? CM FPSY IMR SPS ? STU TCC ? SMON ? ADLT SNR ? AH"
Southwestern Behav Healthcare Inc Warrick Regional Services,315 South 3rd Street,Boonville,Indiana 47601,47601,"? MH SUMH ? OP ? CMHC ? CBT CFT GT IPT PTM ? PVTN ? CLF MC MD MI OSF PI SCJJ SF 
SI SMHA SWFS ? SS ? TRMA ? CM SPS ? STU ? SMON ? ADLT CHLD SNR YAD ? AH"
Hamilton Center Inc Brazil Office,1211 East National Avenue,Brazil,Indiana 47834,47834,"? MH ? OP TELE ? CMHC ? CBT CFT GT IPT PTM TT ? CIT ? PVTN ? FQHC ? CLF CMHG MC 
MD MI OSF PI SCJJ SF SI SMHA SWFS VAF ? SS ? SED SMI ? CM ICM PRS SPS ? STU ? 
SMON ? ADLT CHLD SNR YAD ? AH"
Doctors NeuroPsychiatric Hospital,417 South Whitlock Street,Bremen,Indiana 46506,46506,"? MH SUMH ? HI ? PSY ? AT BMT CBT DBT GT IDD IPT PTM TT ? CIT WI ? PVTP ? MC MD PI 
SF SI ? SE GL VET MF CJ CO HV TRMA TBI ALZ PED PTSD SMI ? CDM CM DEC ES FPSY IPC 
PRS SPS ? NRT NSC STU TCC ? SMON ? ADLT SNR YAD ? AH ? SP F28 F42 F70"
Franklin County Counseling Center,9127 Oxford Pike,Brookville,Indiana 47012,47012,"? MH SUMH ? OP ? CMHC ? AT BMT CBT CFT DBT GT IPT PTM TT ? CIT WI ? PVTN ? CLF 
CMHG CSBG ITU MC MD MI OSF PI SCJJ SEF SF SI SMHA SWFS VAF ? SS ? TAY SE CO SED 
SMI ? CDM CM COOT ES FPSY HS ICM IMR IPC SEMP SPS VRS ? STU TCC ? SMON ? ADLT 
CHLD SNR YAD ? AH ? SP"
Aspire Indiana,697 Pro Med Lane,Carmel,Indiana 46032,46032,"? MH SUMH ? OP TELE ? CMHC ? CBT CFT DBT GT IDD IPT PTM TT ? CIT ? PVTN ? FQHC ? 
CLF CMHG MC MD MI OSF PI SF SI SMHA SWFS ? SS ? CO HV TRMA PTSD SED SMI ? CDM 
CM COOT HS ICM IMR IPC PRS SEMP SH SPS PEER ? NRT STU TCC ? SMON ? ADLT CHLD 
SNR YAD ? AH"
Hamilton Center Inc Clinton Office,510 South Main Street,Clinton,Indiana 47842,47842,"? MH ? OP TELE ? CMHC ? CBT CFT DBT GT IPT PTM TT ? CIT WI ? PVTN ? CLF CMHG MC 
MD MI OSF PI SCJJ SF SI SMHA SWFS VAF ? SS ? SED SMI ? CM ICM PRS SPS ? STU ? 
SMON ? ADLT CHLD SNR YAD ? AH"
Valley Professionals Community Health Center (VPCHC),777 South Main Street Suite 100,Clinton,Indiana 47842,47842,"? MH SUMH ? OP TELE ? OMH ? AT BMT CBT CFT DBT GT IDD IPT PTM TT ? CIT WI ? PVTN 
? FQHC ? CLF CMHG CSBG ITU MC MD MI OSF PI SCJJ SEF SF SI SMHA SWFS VAF ? SS ? 
CO ? CDM CM COOT DEC ES FPSY HS ICM IMR IPC PRS SEMP SH SPS VRS ? NRT NSC 
STU TCC ? SMON ? ADLT CHLD SNR YAD"
Otis R Bowen Ctr for Human Servs Columbia City Office,119 West Market Street,Columbia City,Indiana 46725,46725,"? MH SUMH ? OP TELE ? CMHC ? BMT CBT CFT DBT GT IDD IPT PTM TT ? CIT WI ? PVTN ? 
CLF MC MD MI PI SCJJ SF SI SMHA SWFS ? PA SS ? TAY GL CJ CO SED SMI ? CM COOT 
IMR PRS SEMP SH SPS ? NSC STU TCC ? SMON ? ADLT CHLD SNR YAD ? AH ? SP F12"
Adult and Child Health Columbus Office,3920 East 25th Street,Columbus,Indiana 47203,47203,"? MH ? OP ? CMHC ? BMT CBT CFT GT IPT PTM TT ? PVTN ? CMHG MC MD MI PI SCJJ SF 
SI SWFS ? PA SS ? CO ? CM COOT SPS ? STU ? SMON ? ADLT CHLD SNR YAD"
Centerstone of Indiana Inc Centerstone Columbus,720 North Marr Road,Columbus,Indiana 47201,47201,"? MH SUMH ? OP TELE ? CMHC ? CBT CFT DBT GT IDD IPT PTM TT ? CIT WI ? PVTN ? CLF 
CMHG CSBG MC MD MI OSF PI SCJJ SEF SF SI SMHA SWFS VAF ? TAY CJ CO TRMA PTSD 
SED SMI ? ACT CM DEC FPSY ICM IMR PRS SEMP SPS ? NRT NSC STU TCC ? SMON ? 
ADLT CHLD SNR YAD ? AH"
Columbus Behavioral Center for Children and Adolescents,2223 Poshard Drive,Columbus,Indiana 47203,47203,"? MH ? RES ? RTCC ? AT BMT CBT CFT DBT GT IPT PTM TT ? PVTP ? MD MI PI SEF SF SI 
SMHA SWFS ? TRMA PTSD ? ES FPSY SPS ? SMON ? CHLD ? AH"
Columbus Regional Hospital,2400 East 17th Street,Columbus,Indiana 47201,47201,"? MH ? HI OP ? PSY ? AT CBT CFT GT IPT PTM ? CIT WI ? PVTN ? MC MD MI OSF PI SF SI ? 
SE SMI ? CM DEC FPSY IPC SPS ? NRT NSC STU TCC ? SMON ? ADLT SNR YAD ? AH"
Centerstone of Indiana Inc Centerstone Connersville,390 East Erie Avenue,Connersville,Indiana 47331,47331,"? MH SUMH ? OP TELE ? CMHC ? CBT CFT GT IDD IPT PTM TT ? CIT WI ? PVTN ? CLF 
CMHG CSBG MC MD MI OSF PI SCJJ SEF SF SI SMHA SWFS VAF ? TAY CJ CO TRMA PTSD 
SED SMI ? CM DEC FPSY IPC PRS SEMP SPS ? NRT NSC STU TCC ? SMON ? ADLT CHLD 
SNR YAD ? AH"
Fayette Memorial Hospital Fayette Regional Care Pavillion,450 Erie Avenue P.O. Box 929,Connersville,Indiana 47331,47331,"? MH SUMH ? HI OP RES TELE ? PSY ? AT BMT CBT CFT DBT GT IPT PTM TT ? WI ? PVTN ? 
MC MD MI PI SCJJ SF SI SMHA SWFS ? GL CJ CO TRMA PED PTSD SED ? ES FPSY ICM ? 
STU ? SMON ? ADLT CHLD YAD"
LifeSpring Inc Harrison County Office,535 Country Club Road SE,Corydon,Indiana 47112,47112,"? MH ? OP ? CMHC ? AT BMT CBT CFT DBT IDD IPT PTM TT ? CIT ? PVTN ? CLF CMHG 
CSBG MC MD MI OSF PI SF SI SMHA SWFS ? PA SS ? SED SMI ? CDM CM COOT IMR SPS ? 
NRT STU TCC ? SMON ? ADLT CHLD SNR YAD ? AH"
Cummins BH Systems Inc Montgomery Cnty Behavioral Hlth Servs,701 North Englewood Drive,Crawfordsville,Indiana 47933,47933,"? MH SUMH ? OP ? CMHC ? BMT CBT CFT DBT GT IPT PTM TT ? CIT ? PVTN ? MC MD MI PI 
SCJJ SEF SF SI SMHA SWFS ? SS ? CM COOT FPSY IPC SEMP SPS ? STU TCC ? SMON ? 
ADLT CHLD SNR YAD ? AH"
Franciscan Health Crawfordsville Behavioral Health Generations Unit,1710 Lafayette Road,Crawfordsville,Indiana 47933,47933,"? MH ? HI ? PSY ? AT BMT CBT GT IPT PTM ? PVTN ? MC MD MI PI SF SI ? SE ALZ ? NRT 
NSC STU TCC ? SMON ? SNR ? AH"
Valley Oaks Health Outpatient Service,1480 Darlington Avenue,Crawfordsville,Indiana 47933,47933,"? MH SUMH ? OP TELE ? CMHC ? CBT CFT GT IPT PTM ? WI ? PVTN ? CLF MC MD MI PI 
SCJJ SF SI SMHA SWFS ? SS ? SMI ? CM ? STU ? SMON ? ADLT CHLD SNR YAD ? AH"
Adam Benjamin Jr VA CBOC,9301 Madison Street,Crown Point,Indiana 46307,46307,"? MH SUMH ? OP TELE ? AT BMT CBT CFT GT IDD IPT PTM TT ? CIT WI ? VAMC ? MC MD MI 
PI SF VAF ? VET CJ CO PTSD SMI ? CM COOT DEC ES FPSY HS IPC SEMP SPS VRS PEER ? 
NRT NSC STU TCC ? SMON ? ADLT SNR YAD ? VO ? AH"
Park Center Inc Decatur Counseling Services,809 High Street,Decatur,Indiana 46733,46733,"? MH SUMH ? OP ? CMHC ? CBT CFT DBT GT IPT PTM TT ? PVTN ? CLF CMHG MC MD MI 
PI SCJJ SF SI SMHA SWFS ? CJ CO ? CM COOT FPSY ICM IMR PRS SPS ? STU TCC ? 
SMON ? ADLT CHLD SNR YAD ? AH"
Valley Oaks Health Outpatient Service,1265 North Bradford Drive,Delphi,Indiana 46923,46923,"? MH SUMH ? OP ? CMHC ? CBT CFT GT IPT PTM ? WI ? PVTN ? CLF MC MD MI PI SCJJ SF 
SI SMHA SWFS ? SS ? CM ? STU ? SMON ? ADLT CHLD SNR YAD ? AH"
Franciscan Alliance Inc Franciscan Health Dyer,24 Joliet Street,Dyer,Indiana 46311,46311,"? MH SUMH ? HI OP PHDT RES TELE ? PSY ? AT BMT CBT CFT DBT ECT GT IDD IPT PTM TT 
? WI ? PVTN ? CLF MC MD MI PI SF SI SWFS ? CDM CM COOT DEC ES FPSY IMR IPC LAD 
SPS PEER ? NRT NSC STU TCC ? SMON ? ADLT CHLD SNR YAD ? AH ? SP"
Regional Mental Health Center,3903 Indianapolis Boulevard Building Stark,East Chicago,Indiana 46312,46312,"? MH SUMH ? OP ? CMHC ? BMT CBT CFT GT IDD IPT PTM TT ? CIT WI ? PVTN ? FQHC ? 
CLF CMHG MC MD MI PI SCJJ SF SI SMHA SWFS ? SS ? CO SMI ? ACT CDM CM COOT DEC 
FPSY ICM IPC SEMP PEER ? NRT NSC STU TCC ? SMON ? ADLT CHLD SNR YAD ? SP"
Saint Catherine Hospital Behavioral Health Services,4321 Fir Street,East Chicago,Indiana 46312,46312,"? MH SUMH ? HI OP PHDT ? PSY ? AT BMT CBT CFT DBT ECT GT IPT PTM ? CIT ? PVTN ? 
MC MD MI OSF PI SF SI SWFS VAF ? PA ? CDM COOT FPSY IMR IPC ? NRT NSC STU TCC ? 
SMON ? ADLT SNR YAD ? AH ? SP"
Oaklawn Psychiatric Center Inc,2600 Oakland Avenue,Elkhart,Indiana 46517,46517,"? MH ? OP ? CMHC ? CBT CFT DBT GT IDD IPT PTM TT ? CIT ? PVTN ? CLF CSBG MC MD PI 
SF SI SMHA SWFS ? PA SS ? CO SED SMI ? CM COOT FPSY ICM IMR PEER ? STU ? SMON 
? ADLT CHLD SNR YAD ? AH ? SP"
Aspire Indiana,10731 North State Road 13,Elwood,Indiana 46036,46036,"? MH SUMH ? OP TELE ? CMHC ? CBT CFT DBT GT IDD IPT PTM TT ? CIT ? PVTN ? FQHC ? 
CLF CMHG MC MD MI OSF PI SF SI SMHA SWFS ? SS ? CO HV TRMA PTSD SED SMI ? CDM 
CM COOT HS ICM IMR IPC PRS SEMP SH SPS PEER ? NRT STU TCC ? SMON ? ADLT CHLD 
SNR YAD ? AH"
LifeSpring Health Systems,523 Main Street,English,Indiana 47118,47118,"? MH SUMH ? OP TELE ? CMHC ? BMT CBT CFT DBT GT IPT PTM ? PVTN ? CLF CMHG 
CSBG MC MD MI OSF PI SCJJ SF SI SMHA SWFS VAF ? PA SS ? CM COOT ES IMR PRS SH ? 
STU TCC ? SMON ? ADLT CHLD SNR YAD ? AH"
Deaconess Cross Pointe,7200 East Indiana Street,Evansville,Indiana 47715,47715,"? MH SUMH ? HI OP PHDT ? PSY ? AT CBT ECT GT IPT PTM ? CIT ? PVTN ? CLF MC MD MI 
PI SF SI SMHA SWFS VAF ? CO SMI ? CM COOT FPSY SPS ? NSC STU TCC ? SMON ? ADLT 
CHLD SNR YAD"
Deaconess Cross Pointe OP Services,445 Cross Pointe Boulevard Suite 320,Evansville,Indiana 47715,47715,"? MH SUMH ? OP PHDT ? OMH ? CBT CFT ECT GT IDD IPT PTM TT ? PVTN ? ITU MC MD MI 
PI SF SI SMHA SWFS VAF ? CO ? CDM IMR ? SMON ? ADLT CHLD SNR YAD ? AH"
Evansville Healthcare Center,6211 East Waterford Boulevard,Evansville,Indiana 47715,47715,"? MH SUMH ? OP TELE ? BMT CBT CFT DBT GT IDD IPT PTM TT ? CIT WI ? VAMC ? MI SF 
VAF ? SE GL VET MF CO TRMA PTSD SMI ? CDM CM DEC FPSY HS ICM IPC SEMP SPS VRS 
PEER ? NRT NSC STU TCC ? SMPD ? ADLT SNR YAD ? VO ? AH"
Evansville Psychiatric Childrens Ctr (EPCC),3300 East Morgan Avenue,Evansville,Indiana 47715,47715,"? MH ? HI ? PSY ? AT BMT CBT CFT GT IPT PTM TT ? SMA ? MD OSF PI SF SMHA ? SED ? 
DEC ES FPSY PRS SPS ? STU ? SMON ? CHLD"
Saint Vincent Evansville Adult Behavioral Health,3700 Washington Avenue,Evansville,Indiana 47714,47714,"? MH SUMH ? HI ? PSY ? AT BMT CBT ECT GT IPT PTM ? CIT ? PVTN ? CLF ITU MC MD MI 
OSF PI SF SI SMHA SWFS VAF ? CO SMI ? CM SPS ? NRT NSC STU TCC ? SMON ? ADLT 
SNR YAD ? AH"
Southwestern Behav Healthcare Inc Community Support Services,410 Mulberry Street,Evansville,Indiana 47713,47713,"? MH SUMH ? OP ? CMHC ? IDD IPT PTM ? PVTN ? CLF MC MD MI PI SCJJ SF SI SMHA ? 
SS ? TRMA SMI ? ACT CM COOT DEC HS ICM IMR LAD PRS SPS PEER ? STU ? SMON ? 
ADLT SNR YAD ? AH"
Southwestern Behav Healthcare Inc Moran Center,60 South Stockwell Road,Evansville,Indiana 47714,47714,"? MH SUMH ? OP ? CMHC ? CBT CFT DBT GT IPT PTM TT ? PVTN ? CLF MC MD MI PI SCJJ 
SF SI SMHA SWFS ? SS ? TAY TRMA SED ? CM FPSY SPS ? STU ? SMON ? ADLT CHLD SNR 
YAD ? AH"
Southwestern Behav Healthcare Inc Moulton Center,1 North Barker Avenue,Evansville,Indiana 47712,47712,"? MH SUMH ? OP ? CMHC ? CBT CFT DBT GT IPT PTM TT ? PVTN ? CLF MC MD MI PI SCJJ 
SF SI SMHA ? SS ? TAY TRMA SED ? CM IMR SPS ? STU ? SMON ? ADLT CHLD SNR YAD ? 
AH"
Southwestern Behav Healthcare Inc Robert M Spear Building,415 Mulberry Street,Evansville,Indiana 47713,47713,"? MH SUMH ? OP ? CMHC ? CBT CFT DBT GT IPT PTM TT ? CIT WI ? PVTN ? CLF MC MD MI 
PI SCJJ SF SI SMHA SWFS ? SS ? CO TRMA SMI ? IMR SPS ? STU ? SMON ? ADLT CHLD 
SNR YAD ? AH"
Center for Brief Therapy PC Indiana Center for CBT,423 Airport North Office Park,Fort Wayne,Indiana 46825,46825,"? MH SUMH ? OP ? OMH ? AT BMT CBT CFT DBT IDD IPT PTM TT ? CIT ? PVTP ? MC MI PI 
SF VAF ? CDM CM COOT DEC ES FPSY ICM IMR IPC PRS SPS ? NRT NSC STU TCC ? SMON 
? ADLT CHLD SNR YAD"
Crossroad Child and Family Servs Inc,1825 Beacon Street,Fort Wayne,Indiana 46805,46805,"? MH ? OP RES ? MSNH ? AT CBT CFT DBT GT IPT PTM TT ? PVTN ? MD OSF PI SCJJ SEF 
SF SWFS ? SED ? CM COOT ES FPSY PRS ? STU ? SMON ? ADLT CHLD SNR YAD"
Family and Childrens Services Inc DBA Headwaters Counseling,2712 South Calhoun Street,Fort Wayne,Indiana 46807,46807,"? MH ? OP ? OMH ? BMT CBT CFT GT IPT TT ? PVTN ? CLF MC MD MI PI SF SI SMHA SWFS 
? SS ? COOT ? STU TCC ? SMPD ? ADLT CHLD SNR YAD"
Otis R Bowen Ctr for Human Servs Allen County Office,2100 Goshen Road,Fort Wayne,Indiana 46808,46808,"? MH SUMH ? OP TELE ? CMHC ? BMT CBT CFT DBT GT IDD IPT PTM TT ? WI ? PVTN ? 
CMHG CSBG MC MD MI OSF PI SCJJ SEF SF SI SMHA SWFS ? CO TRMA PTSD SED SMI ? 
CDM CM COOT FPSY IMR PRS SPS ? NSC STU TCC ? SMON ? ADLT CHLD SNR YAD ? AH ? 
SP F4 F25 F30 F43 F47 F70 F12"
Park Center Inc Carew,1909 Carew Street,Fort Wayne,Indiana 46805,46805,"? MH SUMH ? HI OP RES ? PSY ? GT IDD IPT PTM ? CIT ? PVTN ? CLF CMHG CSBG MC MD 
PI SF SI SMHA SWFS ? SS ? CJ CO SMI ? CM COOT FPSY ICM IMR PRS ? SMON ? ADLT 
SNR YAD ? AH"
Park Center Inc Leslie House,2827 East Tillman Road,Fort Wayne,Indiana 46816,46816,"? MH SUMH ? RES ? RTCC ? BMT CBT CFT DBT GT IDD IPT PTM TT ? CIT ? PVTN ? MC MD 
PI SEF SI SMHA SWFS ? CJ CO PTSD SED ? CM DEC FPSY IPC PRS SPS ? SMON ? CHLD ? 
AH ? SP"
Park Center Inc Noel House,2821 Elmdale Drive,Fort Wayne,Indiana 46816,46816,"? MH SUMH ? RES ? RTCC ? AT BMT CBT CFT DBT GT IDD IPT PTM TT ? CIT ? PVTN ? MC 
MD PI SEF SI SMHA SWFS ? CJ CO PTSD SED ? CM DEC FPSY IPC PRS SPS ? SMON ? 
CHLD ? AH ? SP"
Park Center Inc Quinn House,2605 East State Boulevard,Fort Wayne,Indiana 46805,46805,"? MH SUMH ? RES ? RTCA ? GT PTM ? CIT ? PVTN ? MC MD PI SCJJ SF SI SMHA SWFS ? 
SS ? SE GL CO HV TRMA PED PTSD SMI ? CM ICM IMR ? SMPD ? ADLT SNR YAD"
Park Center Inc The Redwoods,3225 Wells Street,Fort Wayne,Indiana 46808,46808,"? MH SUMH ? RES ? RTCC ? AT BMT CBT CFT DBT GT IDD IPT PTM TT ? CIT ? PVTN ? MC 
MD PI SEF SI SMHA SWFS ? CJ CO PTSD SED ? CM DEC FPSY IPC PRS SPS ? SMON ? 
CHLD ? AH ? SP 
12"
Parkview Behavioral Health,1720 Beacon Street,Fort Wayne,Indiana 46805,46805,"? MH SUMH ? HI OP TELE ? PSY ? AT BMT CBT CFT DBT ECT GT IDD IPT PTM TT ? CIT WI ? 
PVTN ? CMHG MC MD MI PI SF SI SWFS ? SE CO ALZ SED SMI ? CDM CM COOT DEC ES 
FPSY IMR IPC ? NRT NSC STU TCC ? SMON ? ADLT CHLD SNR YAD ? AH"
Phoenix Associates Inc,"2200 Lake Avenue, Suite 260",Fort Wayne,Indiana 46805,46805,"? MH SUMH ? OP ? OMH ? AT BMT CBT CFT GT IPT TT ? PVTP ? CLF CMHG CSBG ITU MC 
MD MI OSF PI SCJJ SEF SF SI SMHA SWFS VAF ? CO ? COOT ? SMPD ? ADLT CHLD SNR 
YAD ? AH"
Saint Joseph Hospital,700 Broadway,Fort Wayne,Indiana 46802,46802,"? MH SUMH ? HI ? PSY ? AT CBT CFT DBT GT IDD IPT PTM TT ? PVTP ? MC MD MI PI SF 
VAF ? SE ? SMON ? ADLT SNR YAD ? AH"
VA Northern Indiana Healthcare System,2500 East State Boulevard,Fort Wayne,Indiana 46805,46805,"? MH SUMH ? HI OP TELE ? AT BMT CBT CFT GT IDD IPT PTM TT ? CIT WI ? VAMC ? MI PI 
VAF ? SE GL VET MF CJ CO TRMA TBI ALZ PTSD SMI ? ACT CDM CM COOT DEC ES FPSY 
HS ICM IMR IPC LAD PRS SEMP SH SPS VRS PEER ? NRT NSC STU TCC ? SMPD ? ADLT 
SNR YAD ? VO"
Community Howard Regional Health Community Counseling Center,205 North Jackson Street,Frankfort,Indiana 46041,46041,"? MH SUMH ? OP ? CMHC ? AT CBT CFT DBT GT IDD IPT PTM TT ? CIT ? PVTN ? CLF CMHG 
CSBG MC MD MI OSF PI SCJJ SEF SF SI SMHA SWFS ? SS ? CJ CO TRMA PTSD SED SMI ? 
CM COOT FPSY IMR SPS VRS ? STU ? SMPD ? ADLT CHLD SNR YAD ? AH"
Adult and Child Health Franklin Outpatient Services,86 Drake Road,Franklin,Indiana 46131,46131,"? MH SUMH ? OP TELE ? CMHC ? CBT CFT DBT GT IDD IPT PTM TT ? CIT ? PVTN ? CMHG 
MC MD MI PI SCJJ SF SI SMHA SWFS ? PA SS ? TAY SE GL CJ CO TRMA PTSD SED SMI ? 
CM COOT FPSY IMR SEMP SPS ? STU TCC ? SMON ? ADLT CHLD SNR YAD ? AH ? SP"
Edgewater Behav Health Services Rapid Access Center,4747 West 24th Avenue,Gary,Indiana 46406,46406,"? MH SUMH ? RES ? RTCA ? BMT CBT CFT GT IDD IPT PTM ? CIT ? PVTN ? CLF CMHG 
CSBG MC MD OSF PI SCJJ SF SI SMHA SWFS ? SS ? SE GL VET MF CJ CO HV TRMA PTSD 
SMI ? CM ES FPSY HS SPS PEER ? NRT NSC STU TCC ? SMON ? ADLT SNR YAD ? AH"
Edgewater Health,1100 West 6th Avenue,Gary,Indiana 46402,46402,"? MH SUMH ? HI OP PHDT RES TELE ? OMH ? AT BMT CBT CFT DBT GT IDD IPT PTM TT ? 
CIT WI ? PVTN ? FQHC ? CLF CMHG CSBG MC MD MI PI SCJJ SEF SF SI SMHA SWFS VAF ? 
SS ? SED ? ACT CM COOT DEC ES FPSY HS ICM IMR IPC LAD PRS SEMP SH SPS TPC VRS 
PEER ? NRT STU TCC ? SMON ? ADLT CHLD SNR YAD ? AH"
Methodist Hosp/North Lake Campus Behavioral Health Services,600 Grant Street,Gary,Indiana 46402,46402,"? MH SUMH ? HI TELE ? PSY ? AT BMT GT IDD IPT PTM TT ? WI ? PVTP ? CLF CMHG CSBG 
ITU MC MD MI PI SCJJ SEF SF SI SMHA SWFS VAF ? SE GL VET ADM MF CJ CO HV TRMA 
PTSD SMI ? CM DEC ICM SPS ? NRT NSC STU TCC ? SMON ? ADLT SNR YAD"
Oaklawn Psychiatric Center Inc,330 Lakeview Drive,Goshen,Indiana 46528,46528,"? MH ? HI OP ? CMHC ? CBT CFT DBT GT IDD IPT PTM TT ? CIT ? PVTN ? CLF CMHG MC 
MD PI SF SI SMHA SWFS ? PA SS ? CO SMI ? CM COOT FPSY IMR PEER ? NRT NSC STU ? 
SMON ? ADLT CHLD SNR YAD ? AH ? SP F178 
VA"
Northern Indaina Healthcare System Goshen CBOC,20606 Peddlers Village Road Suite 210,Goshen,Indiana 46526,46526,"? MH ? OP TELE ? CBT IPT PTM TT ? VAMC ? MI PI VAF ? VET ? SPS ? STU TCC ? SMPD ? 
ADLT SNR YAD ? VO"
Cummins BH Systems Inc Greencastle Clinic,308 Medic Way,Greencastle,Indiana 46135,46135,"? MH SUMH ? OP ? CMHC ? BMT CBT CFT DBT GT IPT PTM TT ? CIT ? PVTN ? CLF MC MD 
MI PI SCJJ SEF SF SI SMHA SWFS ? SS ? CM COOT FPSY IPC SEMP SPS ? STU TCC ? 
SMON ? ADLT CHLD SNR YAD ? AH"
Hamilton Center Inc Greencastle Office,239 Hillsdale Avenue,Greencastle,Indiana 46135,46135,"? MH ? OP TELE ? CMHC ? CBT CFT DBT GT IPT PTM TT ? CIT WI ? PVTN ? CLF CMHG MC 
MD MI OSF PI SCJJ SF SI SMHA SWFS VAF ? TAY VET CO ? CM ICM PRS SPS ? STU ? 
SMON ? ADLT CHLD SNR YAD ? AH"
Families First,13 North State Street Suite 141,Greenfield,Indiana 46140,46140,"? MH ? OP ? OMH ? CBT CFT GT IPT TT ? PVTN ? MD PI SF SI SWFS ? TRMA ? COOT FPSY 
? SMON ? ADLT YAD ? SP"
Hancock Regional Hospital Senior Mental Health Services,801 North State Street,Greenfield,Indiana 46140,46140,"? MH ? HI ? PSY ? AT CBT GT IPT PTM ? PVTN ? MC MD PI ? SE ALZ ? CM DEC FPSY SPS ? 
NRT STU TCC ? SMON ? SNR ? AH"
Centerstone of Indiana Inc Centerstone Greensburg,1530 Commerce Park West Drive,Greensburg,Indiana 47240,47240,"? MH SUMH ? OP TELE ? CMHC ? CBT CFT GT IDD IPT PTM TT ? CIT WI ? PVTN ? CLF 
CMHG CSBG MC MD MI OSF PI SCJJ SEF SF SI SMHA SWFS VAF ? TAY CJ CO TRMA PTSD 
SED SMI ? CM DEC FPSY PRS SEMP SPS ? NRT NSC STU TCC ? SMON ? ADLT CHLD SNR 
YAD ? AH"
Adult and Child Health Southside Office,"107 North State Road 135, Suite 101",Greenwood,Indiana 46142,46142,"? MH SUMH ? OP ? CMHC ? AT BMT CBT CFT GT IPT TT ? CIT ? PVTN ? CLF CMHG MC MD 
MI OSF PI SCJJ SEF SF SI SMHA SWFS VAF ? PA SS ? GL CJ CO TRMA PTSD SED ? CM 
FPSY SPS ? STU ? SMON ? CHLD ? AH"
Centerstone of Indiana Inc Greenwood,896 East Main Street,Greenwood,Indiana 46143,46143,"? MH SUMH ? OP TELE ? CMHC ? CBT CFT GT IDD IPT PTM TT ? CIT WI ? PVTN ? CLF 
CMHG CSBG MC MD MI OSF PI SCJJ SEF SF SI SMHA SWFS VAF ? CO TRMA PTSD SMI ? 
CM DEC PRS SEMP SPS ? NRT NSC STU TCC ? SMON ? ADLT SNR YAD ? AH"
Valle Vista Hospital,898 East Main Street,Greenwood,Indiana 46143,46143,"? MH ? HI OP PHDT RES TELE ? PSY ? AT BMT CBT CFT DBT GT IDD IPT PTM TT ? CIT WI ? 
PVTP ? MC MD MI PI SF SI SMHA SWFS VAF ? CO ? DEC ES FPSY ? NRT NSC STU TCC ? 
SMON ? ADLT CHLD SNR YAD ? AH"
Regional Mental Health Center Rose Child and Family Services,4016 Hohman Avenue,Hammond,Indiana 46327,46327,"? MH ? OP ? CMHC ? BMT CBT CFT GT IPT TT ? PVTN ? CMHG MC MD MI PI SCJJ SF SI 
SMHA SWFS ? SS ? TRMA PTSD SED ? CM COOT FPSY ICM ? SMON ? CHLD YAD"
Grant Blackford Mental Health Inc Hester Hollis Concern Center,118 East Washington Street,Hartford City,Indiana 47348,47348,"? MH SUMH ? OP ? CMHC ? BMT CBT CFT DBT GT IDD IPT PTM TT ? CIT ? PVTN ? CLF 
CMHG CSBG MC MD MI OSF PI SCJJ SF SI SMHA SWFS VAF ? SS ? CM COOT DEC FPSY 
PRS SPS ? NRT NSC STU TCC ? SMON ? ADLT CHLD SNR YAD ? AH"
Regional Mental Health Center Lakeside Counseling Center,2600 Highway Avenue,Highland,Indiana 46322,46322,"? MH SUMH ? OP ? CMHC ? BMT CBT CFT DBT GT IDD IPT TT ? PVTN ? CMHG MC MD MI PI 
SF SI SMHA SWFS ? SS ? TRMA PTSD ? STU ? SMON ? ADLT CHLD SNR YAD ? AH"
Regional Mental Health Center Ridgewood,7783 East Ridge Road,Hobart,Indiana 46342,46342,"? MH SUMH ? OP ? CMHC ? CBT CFT GT IDD IPT PTM TT ? PVTN ? CMHG MC MD MI PI SF 
SI SMHA SWFS ? SS ? CO ? COOT ? NRT NSC STU TCC ? SMON ? ADLT CHLD SNR YAD"
Otis R Bowen Ctr for Human Servs Huntington County Office,2860 Northpark Avenue,Huntington,Indiana 46750,46750,"? MH SUMH ? OP TELE ? CMHC ? AT CBT CFT DBT GT IDD IPT PTM TT ? CIT WI ? PVTN ? 
FQHC ? CLF CMHG MC MD MI OSF PI SCJJ SF SI SMHA SWFS ? SS ? GL VET ADM MF CO 
TRMA PTSD SED SMI ? CM COOT IMR PRS SPS ? STU TCC ? SMON ? ADLT CHLD SNR YAD 
? AH"
Adult and Child Health,8320 Madison Avenue,Indianapolis,Indiana 46227,46227,"? MH SUMH ? OP TELE ? CMHC ? AT BMT CBT CFT DBT GT IDD IPT PTM TT ? CIT WI ? 
PVTN ? FQHC ? CLF CMHG CSBG MC MD MI OSF PI SCJJ SEF SF SI SMHA SWFS VAF ? PA 
SS ? TAY SE GL VET CJ CO TRMA PTSD SED SMI ? CDM CM COOT DEC ES FPSY HS ICM 
IMR IPC PRS SEMP SH SPS TPC VRS PEER ? NRT NSC STU TCC ? SMON ? ADLT CHLD 
SNR YAD ? AH ? SP F149"
Adult and Child Health,"8404 Siear Terrace, Suite 100",Indianapolis,Indiana 46227,46227,"? MH ? OP TELE ? CMHC ? AT CBT CFT DBT GT IDD IPT TT ? CIT WI ? PVTN ? CLF CMHG 
MC MD MI OSF PI SCJJ SF SI SMHA SWFS ? PA SS ? TAY SE GL CJ CO TRMA PTSD SED SMI 
? CM COOT FPSY IMR SEMP SPS TPC ? STU TCC ? SMON ? ADLT CHLD SNR YAD ? AH ? 
SP"
Adult and Child Health East Washington Office,603 East Washington Street,Indianapolis,Indiana 46204,46204,"? MH ? OP ? CMHC ? BMT CBT CFT GT IPT TT ? CIT ? PVTN ? CLF CMHG MC MD MI OSF PI 
SCJJ SF SI SMHA SWFS ? PA SS ? TAY GL CJ CO TRMA PTSD SED ? CM COOT ES FPSY 
SPS TPC ? STU TCC ? SMON ? CHLD YAD ? AH ? SP"
Aspire Indiana,"2506 Willowbrook Parkway, Suite 300",Indianapolis,Indiana 46205,46205,"? MH SUMH ? OP TELE ? CMHC ? CBT CFT DBT GT IDD IPT PTM TT ? CIT ? PVTN ? FQHC ? 
CLF CMHG MC MD MI OSF PI SF SI SMHA SWFS ? SS ? CO HV TRMA PTSD SED SMI ? CDM 
CM COOT HS ICM IMR IPC PRS SEMP SH SPS PEER ? NRT STU TCC ? SMON ? ADLT CHLD 
SNR YAD ? AH"
Community Health Network Behavioral Health Pavillion,7165 Clearvista Drive,Indianapolis,Indiana 46256,46256,"? MH SUMH ? HI TELE ? PSY ? AT BMT CBT CFT DBT GT IDD PTM TT ? CIT WI ? PVTN ? MC 
MD MI PI SF SI SWFS ? SS ? SE CO SMI ? CM DEC FPSY SPS ? NRT NSC STU TCC ? SMON 
? ADLT CHLD SNR YAD ? AH"
Cummins BH Systems Inc Marion County,5638 Professional Circle,Indianapolis,Indiana 46241,46241,"? MH SUMH ? OP ? CMHC ? BMT CBT CFT DBT GT IDD IPT PTM TT ? CIT WI ? PVTN ? MC 
MD MI PI SCJJ SF SI SMHA SWFS ? PA SS ? CO ? CM COOT FPSY PRS SEMP SPS VRS 
PEER ? STU TCC ? SMON ? ADLT CHLD SNR YAD ? AH ? SP"
Riley Hospital for Children,"1002 Wishard Boulevard, Suite 41110",Indianapolis,Indiana 46202,46202,"? MH SUMH ? OP TELE ? OMH ? CBT CFT IDD IPT PTM ? PVTN ? FQHC ? MC MD PI SF SI 
SMHA SWFS ? CO ? STU TCC ? SMPD ? CHLD"
Eskenazi Health Midtown Adult Outpatient Clinic,1700 North Illinois Street,Indianapolis,Indiana 46202,46202,"? MH SUMH ? OP PHDT ? CMHC ? CBT CFT DBT GT IDD IPT PTM TT ? CIT ? OSG ? CLF 
CMHG CSBG MC MD OSF PI SF SI SMHA SWFS ? CO ? ACT CM COOT IMR LAD PRS SEMP 
SPS PEER ? STU TCC ? SMON ? ADLT SNR YAD ? AH ? SP"
Eskenazi Health Midtown Child and Adolescent Clinic,3171 North Meridian Street,Indianapolis,Indiana 46208,46208,"? MH SUMH ? OP ? CMHC ? AT CBT CFT GT IDD IPT PTM TT ? CIT ? OSG ? CLF CMHG 
CSBG MC MD MI OSF PI SF SI SMHA SWFS ? TAY GL CO TRMA PED PTSD SED ? CM COOT 
ES FPSY SPS ? NRT NSC STU TCC ? SMON ? CHLD YAD ? AH ? SP"
Eskenazi Health Midtown CMHC Pedigo Health Center,1033 East Washington Street,Indianapolis,Indiana 46202,46202,"? MH SUMH ? OP ? OMH ? CBT CFT DBT GT IDD IPT PTM TT ? CIT WI ? OSG ? CLF CMHG 
CSBG MC MD OSF PI SI SMHA ? SE GL VET MF CJ CO HV TRMA TBI PTSD SMI ? CDM CM 
COOT DEC HS ICM IMR IPC PRS SEMP SPS ? NRT NSC STU TCC ? SMPD ? ADLT SNR YAD 
? AH"
Eskenazi Health Midtown Mental Health Recovery Center,720 Eskenazi Drive,Indianapolis,Indiana 46202,46202,"? MH SUMH ? HI ? PSY ? AT CBT DBT GT IDD IPT PTM TT ? CIT ? OSG ? CLF CMHG CSBG 
MC MD MI OSF PI SCJJ SF SI SMHA SWFS ? CO TRMA SMI ? CDM CM DEC ES HS IMR IPC 
LAD PRS SPS PEER ? NRT NSC STU TCC ? SMON ? ADLT SNR YAD ? AH ? SP"
Eskenazi Health Midtown Westside Center,"5610 Crawfordsville Road, Suite 2201, Building 22",Indianapolis,Indiana 46224,46224,"? MH SUMH ? OP ? CMHC ? BMT CBT CFT DBT GT IDD IPT PTM TT ? CIT ? OSG ? CLF 
CMHG CSBG MC MD OSF PI SF SI SMHA ? CM FPSY HS PRS SPS ? NRT NSC STU TCC ? 
SMON ? ADLT YAD ? AH ? SP"
Franciscan Health Indianapolis Outpatient BH Services,"5230 East Stop 11 Road, Suite 350",Indianapolis,Indiana 46237,46237,"? MH SUMH ? OP PHDT ? OMH ? BMT CBT CFT DBT GT IDD IPT TT ? CIT WI ? PVTN ? MC 
MD PI SF SI ? CO TRMA ? FPSY SPS ? STU ? SMON ? ADLT CHLD SNR YAD ? AH"
Gallahue Mental Health Services,6950 Hillsdale Court,Indianapolis,Indiana 46250,46250,"? MH SUMH ? OP PHDT ? CMHC ? BMT CBT CFT DBT GT IDD IPT PTM TT ? CIT ? PVTN ? 
MC MD MI PI SF SI SMHA SWFS ? SS ? CO TRMA PTSD SED ? FPSY SPS ? NSC STU ? 
SMON ? ADLT CHLD SNR YAD ? AH"
Gallahue Mental Health Services Community Support Services,5470 East 16th Street,Indianapolis,Indiana 46218,46218,"? MH SUMH ? OP ? CMHC ? AT BMT CBT CFT DBT GT IDD IPT PTM TT ? PVTN ? MC MD PI 
SF ? SS ? SE VET CO SMI ? CM COOT DEC FPSY ICM IMR IPC PRS SEMP SPS PEER ? NSC 
STU TCC ? SMON ? ADLT SNR YAD"
Hamilton Center Inc Illinois Street Office,2160 North Illinois Street,Indianapolis,Indiana 46202,46202,"? MH ? OP TELE ? CMHC ? CBT CFT DBT GT IPT PTM TT ? CIT WI ? PVTN ? CLF CMHG MC 
MD MI OSF PI SCJJ SF SI SMHA SWFS VAF ? SED SMI ? CM ICM PRS SPS ? STU ? SMON ? 
ADLT CHLD SNR YAD ? AH"
IU Health Methodist Hospital,"1701 North Senate Boulevard Building C, Suite 324",Indianapolis,Indiana 46202,46202,"? MH ? HI OP PHDT ? PSY ? AT CBT ECT GT PTM ? WI ? PVTN ? MC MD MI PI SF SI ? CO ? 
COOT DEC FPSY SPS PEER ? NRT NSC STU ? SMON ? ADLT SNR YAD ? AH"
Lutheran Child and Family Services Lutherwood Residential Treatment,1525 North Ritter Avenue,Indianapolis,Indiana 46219,46219,"? MH SUMH ? RES ? RTCC ? BMT CBT CFT GT IPT PTM TT ? PVTN ? CLF MD OSF SCJJ SEF 
SMHA SWFS ? CO TRMA PTSD SED ? CM ES FPSY HS IPC ? STU ? SMON ? CHLD ? SP"
NeuroDiagnostic Institute,5435 East 16th Street,Indianapolis,Indiana 46218,46218,"? MH SUMH ? HI TELE ? PSY ? AT BMT CBT DBT ECT GT IDD IPT PTM TT ? OSG ? MC MD 
PI SEF SF SI SMHA ? TAY SE CJ CO HV TRMA TBI PTSD SED SMI ? CDM DEC ES FPSY IMR 
IPC PRS SPS ? NRT NSC STU TCC ? SMON ? ADLT CHLD SNR YAD ? AH"
Options Behavioral Health System,5602 Caito Drive,Indianapolis,Indiana 46226,46226,"? MH SUMH ? HI OP PHDT TELE ? PSY ? AT BMT CBT CFT DBT GT IDD IPT PTM TT ? WI ? 
PVTP ? CLF MC MD MI OSF PI SCJJ SEF SF SI SMHA SWFS ? SE GL VET ADM MF CJ CO HV 
TRMA TBI ALZ PED PTSD SMI ? DEC ES FPSY ? STU TCC ? SMPD ? ADLT CHLD SNR YAD ? 
AH"
Resource Treatment Center,1404 South State Avenue,Indianapolis,Indiana 46203,46203,"? MH ? RES ? RTCC ? AT BMT CBT CFT DBT GT IDD IPT PTM TT ? CIT ? PVTP ? CLF ITU MD 
MI OSF PI SCJJ SEF SF SI SMHA SWFS VAF ? GL MF TRMA PTSD SED ? ACT CM ES FPSY 
ICM ? SMPD ? CHLD ? AH"
Richard L Roudebush VAMC Mental Health Services (116A),1481 West 10th Street,Indianapolis,Indiana 46202,46202,"? MH SUMH ? HI OP PHDT RES TELE ? AT BMT CBT CFT DBT ECT GT IDD IPT PTM TT ? CIT 
WI ? VAMC ? MI VAF ? SE GL VET ADM MF CJ CO HV TRMA TBI ALZ PTSD SMI ? ACT CDM 
CM COOT DEC ES FPSY HS ICM IMR IPC LAD PRS SEMP SH SPS TPC VRS PEER ? NRT 
NSC STU TCC ? SMPD ? ADLT SNR YAD ? VO ? AH ? SP F4"
LifeSpring Health Systems Dubois County Services,480 Eversman Drive,Jasper,Indiana 47546,47546,"? MH SUMH ? OP TELE ? CMHC ? BMT CBT CFT DBT GT IPT PTM TT ? CIT ? PVTN ? CLF 
CMHG CSBG MC MD MI OSF PI SCJJ SF SI SMHA SWFS VAF ? PA SS ? CM COOT ES IMR 
PRS SH ? STU TCC ? SMON ? ADLT CHLD SNR YAD ? AH"
Memorial Counseling Center,"721 West 13th Street, Suite 121",Jasper,Indiana 47546,47546,"? MH ? OP ? OMH ? BMT CBT CFT DBT IPT PTM ? CIT ? PVTN ? MC MD MI PI SF ? ES FPSY 
IPC SPS ? SMON ? ADLT CHLD SNR YAD ? AH"
Memorial Hospital and Healthcare Ctr Behavioral Health,800 West 9th Street,Jasper,Indiana 47546,47546,"? MH SUMH ? HI OP ? PSY ? AT BMT CBT CFT GT IDD IPT PTM TT ? CIT WI ? PVTN ? MC MD 
MI PI SF SI ? SS ? SE CO TRMA ALZ PTSD SMI ? DEC ES FPSY IMR IPC PRS SPS ? NRT 
NSC STU TCC ? SMON ? ADLT CHLD SNR YAD ? AH"
Centerstone of Indiana Inc Centerstone Jeffersonville,321 East Market Street,Jeffersonville,Indiana 47130,47130,"? MH SUMH ? OP ? CMHC ? CBT CFT GT IDD IPT TT ? CIT WI ? PVTN ? CLF CMHG CSBG 
MC MD MI OSF PI SCJJ SEF SF SI SMHA SWFS VAF ? TRMA PTSD SED ? CM FPSY PRS SPS 
? STU TCC ? SMON ? CHLD ? AH"
Clark Memorial Hospital Behavioral Health Services,1220 Missouri Avenue,Jeffersonville,Indiana 47130,47130,"? MH SUMH ? HI OP PHDT ? PSY ? AT BMT CBT CFT DBT GT IDD IPT PTM TT ? CIT WI ? 
PVTP ? MC MD MI OSF PI SF VAF ? SE CJ CO TRMA ALZ PED PTSD SMI ? CM COOT ES 
FPSY IMR SPS ? NRT NSC STU TCC ? SMON ? ADLT SNR YAD ? AH"
Family and Childrens Place,100 West Court Avenue Suite 102,Jeffersonville,Indiana 47130,47130,"? MH ? OP ? OMH ? BMT CBT CFT DBT GT IPT TT ? CIT ? PVTN ? FQHC ? CLF MD OSF 
SCJJ SF SWFS ? PA ? CO TRMA PTSD ? FPSY LAD SPS ? SMON ? ADLT CHLD SNR YAD ? 
AH ? SP"
Lifespring Inc Integrated Treatment Center,1036 Sharon Drive,Jeffersonville,Indiana 47130,47130,"? MH SUMH ? OP ? CMHC ? AT BMT CBT CFT DBT GT IDD IPT PTM TT ? CIT ? PVTN ? 
FQHC ? CLF CMHG CSBG MC MD MI OSF PI SCJJ SF SI SMHA SWFS ? PA SS ? CO ? CDM 
CM COOT DEC IMR IPC SPS ? NRT NSC STU TCC ? SMON ? ADLT SNR YAD ? AH"
LifeSpring Inc DBA LifeSpring Health Systems,404 Spring Street,Jeffersonville,Indiana 47130,47130,"? MH SUMH ? OP ? CMHC ? BMT CBT CFT DBT GT IPT PTM TT ? CIT ? PVTN ? CLF CMHG 
CSBG MC MD MI OSF PI SCJJ SF SI SMHA SWFS ? PA SS ? SMI ? ACT CDM CM COOT ICM 
IMR SEMP SPS ? NRT NSC STU TCC ? SMON ? ADLT SNR YAD ? AH"
Wellstone Regional Hospital,2700 Vissing Park Road,Jeffersonville,Indiana 47130,47130,"? MH SUMH ? HI OP PHDT ? PSY ? AT CBT DBT GT IDD PTM ? CIT WI ? PVTP ? MC MD MI PI 
SF SI SWFS ? SE ALZ ? COOT IMR SPS ? STU ? SMON ? ADLT CHLD SNR YAD ? AH"
Northeastern Center Inc Pioneer Lodge I,409 South Lincoln Street,Kendallville,Indiana 46755,46755,"? MH SUMH ? OP TELE ? OMH ? AT BMT CBT CFT DBT GT IDD IPT PTM TT ? CIT WI ? PVTN 
? CLF CMHG CSBG MC MD MI OSF PI SCJJ SEF SF SI SMHA SWFS ? SS ? TAY SE GL VET 
ADM MF CJ CO HV PTSD SED SMI ? CM COOT DEC FPSY ICM IMR PRS SPS ? NSC STU ? 
SMPD ? ADLT CHLD SNR YAD ? AH"
Northeastern Center Inc Promise House,0116 County Road 22,Kendallville,Indiana 46755,46755,"? MH ? RES ? RTCA ? AT BMT PTM ? CIT ? PVTN ? MC MD PI SF SI SMHA ? SS ? CJ HV SMI 
? CDM CM COOT DEC HS ICM IMR IPC PRS SEMP SH VRS PEER ? NRT NSC STU TCC ? 
SMPD ? ADLT SNR YAD"
Porter Starke Services Inc,1001 South Edgewood Drive Suite 1,Knox,Indiana 46534,46534,"? MH ? RES ? RTCA ? AT BMT PTM ? CIT ? PVTN ? MC MD PI SF SI SMHA ? SS ? CJ SMI ? 
CDM CM COOT DEC ICM IMR PRS ? SMPD ? ADLT SNR YAD"
Community Howard Regional Health Behavioral Health Inpatient,3500 South Lafountain Street,Kokomo,Indiana 46902,46902,"? MH SUMH ? OP TELE ? CMHC ? AT BMT CBT CFT DBT GT IPT PTM TT ? CIT WI ? PVTN ? 
CLF CMHG CSBG MC MD MI PI SCJJ SF SMHA SWFS ? SS ? SED SMI ? CM COOT DEC 
FPSY HS IMR IPC PRS SPS PEER ? NRT NSC STU TCC ? SMON ? ADLT CHLD SNR YAD ? AH"
Community Howard Regional Health CHRH Behavioral Health,322 North Main Street,Kokomo,Indiana 46901,46901,"? MH SUMH ? HI ? PSY ? AT GT PTM ? CIT ? PVTN ? MC MD MI PI SF SI SMHA VAF ? CM ? 
NRT NSC STU TCC ? SMON ? ADLT SNR YAD ? AH"
Community Howard Regional Health Frances House,3322 Frances Lane Frances House,Kokomo,Indiana 46902,46902,"? MH SUMH ? OP ? CMHC ? CBT CFT DBT GT IDD IPT PTM TT ? CIT ? PVTN ? CLF CMHG 
MC MD MI OSF PI SCJJ SF SI SMHA SWFS ? SS ? CJ CO TRMA PTSD SED SMI ? CM COOT 
IMR SH SPS VRS PEER ? STU TCC ? SMPD ? ADLT CHLD SNR YAD ? AH"
St Josephs Hosp/St Vincent Kokomo Behavioral Services/Trinity House,1907 West Sycamore Street,Kokomo,Indiana 46901,46901,"? MH SUMH ? RES ? RTCA ? GT IPT PTM ? PVTN ? CLF CMHG CSBG MC MD MI OSF PI 
SCJJ SEF SF SI SMHA SWFS ? SS ? SMI ? CM FPSY IMR PEER ? SMPD ? ADLT SNR YAD ? 
AH"
Midwest Ctr for Youth and Families,1012 West Indiana Street,Kouts,Indiana 46347,46347,"? MH SUMH ? HI OP PHDT ? PSY ? AT CBT CFT DBT ECT GT IDD IPT PTM ? CIT WI ? PVTN 
? CMHG CSBG MC MD MI PI SF SI SMHA VAF ? CM FPSY SPS PEER ? NRT NSC STU TCC ? 
SMON ? ADLT CHLD SNR YAD ? AH"
Sycamore Springs LLC,833 Park East Boulevard,Lafayette,Indiana 47905,47905,"? MH SUMH ? RES ? RTCC ? AT CBT DBT GT IPT PTM TT ? PVTP ? CLF MD MI PI SCJJ SEF 
SF SI SWFS ? GL MF CO TRMA PED PTSD ? CM ES FPSY SPS ? SMON ? CHLD ? SP"
Valley Oaks Health,415 North 26th Street Suite 103,Lafayette,Indiana 47904,47904,"? MH SUMH ? HI OP PHDT ? PSY ? AT CBT CFT DBT GT IDD PTM TT ? WI ? PVTP ? MC MD 
MI PI SF SI VAF ? CO SMI ? DEC FPSY ? NRT NSC STU TCC ? SMPD ? ADLT SNR YAD ? SP"
Valley Oaks Health Assertive Community Treatment,610 Main Street,Lafayette,Indiana 47901,47901,"? MH SUMH ? OP TELE ? CMHC ? BMT CBT CFT GT IPT TT ? WI ? PVTN ? CLF CMHG CSBG 
ITU MC MD MI OSF PI SCJJ SEF SF SI SMHA SWFS VAF ? PA SS ? CM COOT FPSY ICM PRS 
SPS ? STU TCC ? SMON ? CHLD YAD ? AH"
Valley Oaks Health Comm Supp Prog/Valley Enterprises,217 Farabee Drive North,Lafayette,Indiana 47905,47905,"? MH SUMH ? OP ? CMHC ? CBT CFT DBT GT IDD IPT PTM TT ? CIT WI ? PVTN ? CLF 
CMHG CSBG MC MD MI SCJJ SF SMHA SWFS ? PA SS ? CJ CO PED SMI ? ACT CM DEC ? 
TCC ? SMON ? ADLT SNR YAD ? AH"
Valley Oaks Health Outpatient Service,610 Main Street,Lafayette,Indiana 47901,47901,"? MH SUMH ? OP ? CMHC ? CBT CFT GT IPT PTM TT ? WI ? PVTN ? MC MD MI PI SF SI 
SMHA SWFS ? SS ? SMI ? CM COOT FPSY ICM PRS SPS VRS ? STU ? SMON ? ADLT SNR 
YAD ? AH ? SP"
Northeastern Center Inc Lagrange County Office (OP),2155 North State Road 9 / P.O. Box 191,Lagrange,Indiana 46761,46761,"? MH SUMH ? OP ? CMHC ? CBT CFT GT IPT ? WI ? PVTN ? CLF MC MD MI PI SCJJ SF SI 
SMHA SWFS ? SS ? ACT CM ? STU ? SMON ? ADLT CHLD SNR YAD ? AH ? SP"
Otis R Bowen Ctr for Human Servs,836 North Detroit Street,Lagrange,Indiana 46761,46761,"? MH SUMH ? OP TELE ? CMHC ? CBT CFT DBT GT IDD IPT PTM TT ? CIT WI ? PVTN ? CLF 
CMHG MC MD MI PI SCJJ SF SI SMHA SWFS ? PA SS ? TAY SE CJ CO TRMA PTSD SED SMI 
? CM COOT FPSY ICM IMR SPS ? STU TCC ? SMPD ? ADLT CHLD SNR YAD"
La Porte Cnty Comp MH Council Inc Swanson Center LaPorte Outpatient,"1230 West State Road 2, Suite B",La Porte,Indiana 46350,46350,"? MH SUMH ? OP ? CMHC ? BMT CBT CFT DBT GT IDD IPT PTM TT ? CIT WI ? PVTN ? CLF 
CMHG CSBG MC MD MI OSF PI SCJJ SEF SF SI SMHA SWFS ? SS ? TAY CJ CO TRMA SED 
SMI ? CM COOT ES FPSY ICM IMR IPC PRS SPS ? STU TCC ? SMON ? ADLT CHLD SNR YAD 
? AH ? SP"
Community Mental Health Center Inc,285 Bielby Road,Lawrenceburg,Indiana 47025,47025,"? MH SUMH ? OP ? CMHC ? BMT CBT CFT GT IDD IPT PTM TT ? CIT ? PVTN ? CLF CMHG 
CSBG MC MD MI OSF PI SCJJ SEF SF SI SMHA SWFS ? SS ? CO ? CM COOT FPSY ICM PRS 
SPS ? STU TCC ? SMON ? ADLT CHLD SNR YAD ? AH"
Community Mental Health Center Inc,710 Eads Parkway,Lawrenceburg,Indiana 47025,47025,"? MH SUMH ? HI OP ? PSY ? AT BMT CBT CFT DBT GT IPT PTM TT ? CIT WI ? PVTN ? CLF 
CMHG CSBG ITU MC MD MI OSF PI SCJJ SEF SF SI SMHA SWFS VAF ? PA SS ? TAY SE CO 
ALZ PTSD SED SMI ? CDM CM COOT ES FPSY HS ICM IMR IPC SEMP SPS VRS ? STU TCC 
? SMON ? ADLT CHLD SNR YAD ? AH"
Community Mental Health Center Inc,283 Bielby Road,Lawrenceburg,Indiana 47025,47025,"? MH SUMH ? OP ? CMHC ? AT BMT CBT CFT DBT GT IPT PTM TT ? CIT WI ? PVTN ? CLF 
CMHG CSBG ITU MC MD MI OSF PI SCJJ SEF SF SI SMHA SWFS VAF ? SS ? TAY SE CO SED 
SMI ? CDM CM COOT ES FPSY HS ICM IMR IPC SEMP SPS VRS ? STU TCC ? SMON ? ADLT 
CHLD SNR YAD ? AH ? SP"
Community Mental Health Center Inc Ludlow Offices,281 Bielby Road,Lawrenceburg,Indiana 47025,47025,"? MH SUMH ? OP PHDT RES ? CMHC ? AT BMT CBT CFT DBT GT IPT PTM TT ? CIT WI ? 
PVTN ? CLF CMHG CSBG ITU MC MD MI OSF PI SCJJ SEF SF SI SMHA SWFS VAF ? SS ? 
TAY SE CO SMI ? CDM CM COOT ES FPSY HS ICM IMR IPC SEMP SPS VRS ? STU TCC ? 
SMON ? ADLT SNR YAD ? AH ? SP 
24"
Community Mental Health Center Inc Outpatient Services,401 West Eads Parkway Suite 450,Lawrenceburg,Indiana 47025,47025,"? MH SUMH ? OP PHDT RES ? CMHC ? AT BMT CBT CFT DBT GT IPT PTM TT ? CIT WI ? 
PVTN ? CLF CMHG CSBG ITU MC MD MI OSF PI SCJJ SEF SF SI SMHA SWFS VAF ? SS ? 
TAY SE CO SMI ? CDM CM COOT ES FPSY HS ICM IMR IPC SEMP SPS VRS ? STU TCC ? 
SMON ? ADLT SNR YAD ? AH ? SP"
Dearborn County CBOC,1600 Flossie Drive,Lawrenceburg,Indiana 47025,47025,"? MH SUMH ? OP ? CMHC ? AT BMT CBT CFT DBT GT IDD IPT PTM TT ? WI ? PVTN ? CLF 
MC MD MI PI SCJJ SF SI SMHA SWFS ? PA SS ? TAY SE CO SED SMI ? COOT FPSY PRS 
SPS PEER ? STU ? SMPD ? ADLT CHLD SNR YAD ? AH ? SP"
Unity Health,608 Wilson Creek Road,Lawrenceburg,Indiana 47025,47025,"? MH SUMH ? OP TELE ? CBT CFT DBT GT IPT PTM TT ? WI ? VAMC ? MI PI VAF ? VET 
PTSD ? COOT DEC HS ICM LAD SEMP SH SPS VRS ? NRT NSC STU TCC ? SMPD ? ADLT 
SNR YAD ? VO"
Aspire Indiana,1600 West Main Street,Lebanon,Indiana 46052,46052,"? MH SUMH ? RES ? RTCA ? AT BMT CBT CFT DBT GT IDD IPT PTM TT ? CIT WI ? PVTN ? 
CLF CMHG CSBG MC MD MI OSF PI SCJJ SEF SF SI SMHA SWFS VAF ? TAY SE CO SMI ? 
CDM CM COOT ES FPSY HS ICM IMR IPC SEMP SPS VRS ? STU ? SMON ? ADLT SNR YAD ? 
AH ? SP"
Cummins BH Systems Inc Boone County,940 Lasley Drive,Lebanon,Indiana 46052,46052,"? MH SUMH ? OP TELE ? CMHC ? CBT CFT DBT GT IDD IPT PTM TT ? CIT ? PVTN ? FQHC ? 
CLF CMHG MC MD MI OSF PI SF SI SMHA SWFS ? SS ? CO HV TRMA PTSD SED SMI ? CDM 
CM COOT HS ICM IMR IPC PRS SEMP SH SPS PEER ? NRT STU TCC ? SMON ? ADLT CHLD 
SNR YAD ? AH"
Hamilton Center Inc Linton Office,County Road 1000 West Lonetree / P.O. Box 553,Linton,Indiana 47441,47441,"? MH ? HI ? PSY ? AT BMT GT PTM ? PVTN ? MC PI SF ? SE ALZ ? CDM CM ? SMON ? SNR 
? AH"
Four County Counseling Center,408 North Street,Logansport,Indiana 46947,46947,"? MH ? OP TELE ? CMHC ? CBT CFT DBT GT IPT PTM TT ? CIT WI ? PVTN ? CLF CMHG MC 
MD MI OSF PI SCJJ SF SI SMHA SWFS VAF ? SS ? SED SMI ? CM ICM PRS SPS ? STU ? 
SMON ? ADLT CHLD SNR YAD ? AH"
Four County Counseling Center Main Center Cass County Office,1015 Michigan Avenue,Logansport,Indiana 46947,46947,"? MH SUMH ? OP ? CMHC ? AT DBT GT ? CIT WI ? PVTN ? CLF CMHG CSBG MC MD MI PI 
SCJJ SF SI SMHA SWFS ? SS ? TAY CO TRMA SMI ? ACT CDM CM FPSY PRS SEMP SPS 
PEER ? STU TCC ? SMON ? ADLT CHLD SNR YAD ? AH ? SP"
Good Samaritan Hospital Samaritan Center,200 South JFK Avenue,Loogootee,Indiana 47553,47553,"? MH SUMH ? HI OP TELE ? CMHC ? AT CBT CFT DBT GT IPT PTM TT ? CIT WI ? PVTN ? 
CLF CMHG CSBG MC MD MI PI SCJJ SF SI SMHA SWFS ? SS ? CO TRMA SED SMI ? ACT 
CDM CM COOT FPSY ICM IPC PRS SEMP SPS TPC ? NRT NSC STU TCC ? SMON ? ADLT 
CHLD SNR YAD ? AH ? SP"
Centerstone of Indiana Inc Centerstone Madison,3008 North Bevcher Drive,Madison,Indiana 47250,47250,"? MH SUMH ? OP ? CMHC ? CBT CFT DBT GT IDD IPT PTM TT ? LMG ? CLF CMHG CSBG 
MC MD MI PI SCJJ SF SI SMHA SWFS ? SS ? CO ? CM COOT ES FPSY ICM ? NRT NSC STU 
TCC ? SMON ? ADLT CHLD SNR YAD ? AH"
LifeSpring Inc Jefferson County Office,1405 Bear Street,Madison,Indiana 47250,47250,"? MH SUMH ? OP TELE ? CMHC ? CBT CFT GT IDD IPT PTM TT ? CIT WI ? PVTN ? CLF 
CMHG CSBG MC MD MI OSF PI SCJJ SEF SF SI SMHA SWFS VAF ? TAY CJ CO TRMA PTSD 
SED SMI ? CM DEC FPSY PRS SEMP SPS ? NRT NSC STU TCC ? SMON ? ADLT CHLD SNR 
YAD ? AH"
Madison State Hospital,711 Green Road,Madison,Indiana 47250,47250,"? MH SUMH ? OP ? CMHC ? AT BMT CBT CFT DBT IDD IPT PTM TT ? CIT ? PVTN ? CLF 
CMHG CSBG MC MD MI OSF PI SF SI SMHA SWFS ? PA SS ? SED SMI ? CDM CM COOT IMR 
SPS ? NRT NSC STU TCC ? SMON ? ADLT CHLD SNR YAD ? AH"
Grant Blackford Mental Health Inc Branson Place,925 South Branson Street,Marion,Indiana 46953,46953,"? MH SUMH ? HI TELE ? PSY ? AT BMT CBT CFT DBT GT IDD IPT PTM TT ? OSG ? CLF MC 
MD MI OSF PI SF SI SMHA VAF ? SE CJ CO ALZ PTSD SMI ? DEC ES FPSY IPC PRS SEMP 
SPS VRS ? NRT NSC STU TCC ? SMON ? ADLT SNR YAD ? AH"
Grant Blackford Mental Health Inc Community Support Program,206 West 8th Street,Marion,Indiana 46953,46953,"? MH SUMH ? RES ? RTCA ? GT ? CIT ? PVTN ? CLF CMHG CSBG MC MD MI OSF PI SCJJ 
SF SI SMHA SWFS VAF ? SS ? CM DEC HS PRS ? TCC ? SMPD ? ADLT SNR YAD ? AH"
Grant Blackford Mental Health Inc Stepping Stone,1623 West 6th Street,Marion,Indiana 46953,46953,"? MH SUMH ? OP ? CMHC ? AT BMT CBT DBT GT IDD IPT PTM TT ? CIT ? PVTN ? CLF 
CMHG CSBG MC MD MI OSF PI SCJJ SF SI SMHA SWFS VAF ? SS ? CM DEC HS ICM IPC 
PRS SEMP SH SPS VRS PEER ? NRT NSC STU TCC ? SMPD ? ADLT SNR YAD ? AH"
Grant Blackford Mental Health Inc Cornerstone Behavioral Health,505 North Wabash Avenue,Marion,Indiana 46952,46952,"? MH SUMH ? RES ? RTCA ? GT ? CIT ? PVTN ? CLF CMHG CSBG MC MD MI OSF PI SCJJ 
SF SI SMHA SWFS VAF ? SS ? CM DEC HS PRS ? TCC ? SMPD ? ADLT SNR YAD ? AH"
VA Northern Indiana Healthcare System,1700 East 38th Street,Marion,Indiana 46953,46953,"? MH SUMH ? HI OP TELE ? PSY ? BMT CBT CFT DBT GT IDD IPT PTM TT ? CIT WI ? PVTN 
? CLF CMHG CSBG MC MD MI OSF PI SCJJ SF SI SMHA SWFS VAF ? SS ? CM COOT DEC 
ES FPSY SPS ? NRT NSC STU TCC ? SMON ? ADLT CHLD SNR YAD ? AH"
Martinsville CBOC,2200 John R Wooden Drive Suite 100,Martinsville,Indiana 46151,46151,"? MH SUMH ? HI OP PHDT RES TELE ? BMT CBT CFT GT IDD IPT PTM TT ? CIT WI ? VAMC ? 
MI PI VAF ? SE GL VET MF CJ CO TRMA ALZ PTSD SMI ? CDM CM COOT DEC HS ICM IMR 
IPC LAD PRS SEMP SH SPS VRS PEER ? NRT NSC STU TCC ? SMPD ? ADLT SNR YAD ? VO"
Regional Mental Health Center Merrillville Outpatient,1441 East 84th Place Borto Building,Merrillville,Indiana 46410,46410,"? MH SUMH ? OP TELE ? CMHC ? CBT CFT GT IDD IPT PTM TT ? CIT WI ? PVTN ? CLF 
CMHG CSBG MC MD MI OSF PI SCJJ SEF SF SI SMHA SWFS VAF ? TAY CJ CO TRMA PTSD 
SED SMI ? CM DEC FPSY PRS SEMP SPS ? NRT NSC STU TCC ? SMON ? ADLT CHLD SNR 
YAD ? AH"
Southlake Mental Health Center Inc DBA Regional Mental Health Center,"8555 Taft Street, Strawhun Building",Merrillville,Indiana 46410,46410,"? MH SUMH ? OP TELE ? OMH ? AT BMT CBT CFT DBT GT IDD IPT PTM TT ? WI ? VAMC ? 
MI PI SF VAF ? SE VET CO PTSD SMI ? ACT CDM CM COOT DEC FPSY ICM IMR IPC PRS 
SEMP SPS VRS PEER ? NRT NSC STU TCC ? SMON ? ADLT SNR YAD ? VO"
Franciscan Saint Anthony Michigan City Psychiatric Services,3500 Franciscan Way,Michigan City,Indiana 46360,46360,"? MH SUMH ? OP ? CMHC ? BMT CBT CFT DBT GT IDD IPT PTM TT ? PVTN ? CMHG MC MD 
MI PI SCJJ SF SI SMHA SWFS ? SS ? TRMA PTSD SED ? CM FPSY ICM ? NRT NSC STU TCC 
? SMON ? ADLT CHLD SNR YAD"
La Porte Cnty Comp MH Council Inc Swanson Center,7224 West 400 North,Michigan City,Indiana 46360,46360,"? MH SUMH ? HI OP PHDT ? CMHC ? AT CBT CFT GT IDD IPT PTM TT ? CIT WI ? PVTN ? 
FQHC ? CMHG MC MD MI PI SCJJ SF SI SMHA SWFS ? SS ? CO SMI ? CDM CM COOT DEC 
FPSY IMR IPC PRS SEMP PEER ? NRT NSC STU TCC ? SMON ? ADLT CHLD SNR YAD"
RiverCrest Specialty Hospital DBA Medical Behavioral Hospital,1625 East Jefferson Boulevard,Mishawaka,Indiana 46545,46545,"? MH SUMH ? HI TELE ? PSY ? CBT DBT IDD ? CIT WI ? PVTN ? CLF CMHG CSBG ITU MC 
MD MI OSF PI SEF SF SI SMHA SWFS VAF ? PA ? SMI ? SPS ? STU TCC ? SMON ? ADLT 
SNR YAD ? AH"
VA Northern Indiana Healthcare System St Joseph CBOC,1540 Trinity Place,Mishawaka,Indiana 46545,46545,"? MH SUMH ? OP PHDT ? CMHC ? BMT CBT CFT DBT GT IDD IPT PTM TT ? CIT ? PVTN ? 
CLF CMHG CSBG MC MD MI OSF PI SCJJ SEF SF SI SMHA SWFS VAF ? SS ? CJ CO PTSD 
SED SMI ? CM COOT FPSY HS ICM IPC PRS SPS ? STU TCC ? SMON ? ADLT CHLD SNR 
YAD ? AH"
Valley Oaks Health Outpatient Service,920 Executive Drive,Monticello,Indiana 47960,47960,"? MH SUMH ? HI ? PSY ? AT CBT GT IPT PTM ? CIT ? PVTP ? MC MD MI PI SF ? SE GL VET 
ADM MF CJ CO HV TRMA TBI ALZ PED PTSD SMI ? DEC LAD SPS ? NRT NSC STU TCC ? 
SMON ? ADLT SNR YAD ? AH"
Centerstone of Indiana Inc Centerstone Mooresville,11370 North State Road 67,Mooresville,Indiana 46158,46158,"? MH SUMH ? OP TELE ? CBT CFT GT IDD IPT PTM TT ? CIT WI ? VAMC ? MI PI VAF ? GL 
VET CJ CO TRMA PTSD ? CDM COOT DEC HS IMR IPC LAD SPS ? STU TCC ? SMPD ? ADLT 
SNR YAD ? VO"
Franciscan Health Collaborative Care Clinic,"1001 Hadley Road, Suite 103",Mooresville,Indiana 46158,46158,"? MH SUMH ? OP ? CMHC ? CBT CFT GT IPT PTM ? PVTN ? CLF MC MD MI OSF PI SCJJ SF 
SI SMHA SWFS ? SS ? CM ? STU ? SMON ? ADLT CHLD SNR YAD ? AH"
Southwestern Behav Healthcare Inc Posey Regional Services,309 North Sawmill Street,Mount Vernon,Indiana 47620,47620,"? MH SUMH ? OP ? CMHC ? CBT CFT GT IDD IPT TT ? CIT WI ? PVTN ? CLF CMHG CSBG 
MC MD MI OSF PI SCJJ SEF SF SI SMHA SWFS VAF ? TRMA PTSD SED ? CM FPSY PRS 
SEMP SPS ? STU TCC ? SMON ? ADLT CHLD SNR YAD ? AH"
Centerstone of Indiana Inc Centerstone Muncie,421 South Walnut Street Suite 200,Muncie,Indiana 47305,47305,"? MH ? OP ? OMH ? BMT CBT CFT DBT GT IPT PTM TT ? CIT WI ? PVTN ? MC MD PI SF SI ? 
FPSY SPS ? STU ? SMON ? ADLT CHLD SNR YAD ? AH"
Meridian Health Services Geropsychiatric Services,2401 West University Avenue 3rd Floor,Muncie,Indiana 47304,47304,"? MH SUMH ? OP ? CMHC ? CBT CFT DBT GT IPT PTM TT ? PVTN ? CLF MC MD MI PI SCJJ 
SF SI SMHA SWFS ? SS ? TRMA SED ? CM SPS ? STU ? SMON ? ADLT CHLD SNR YAD ? AH"
Meridian Services Corp,1944 West 8th Street,Muncie,Indiana 47302,47302,"? MH SUMH ? OP TELE ? CMHC ? CFT GT IDD IPT PTM TT ? CIT WI ? PVTN ? CLF CMHG 
CSBG MC MD MI OSF PI SCJJ SEF SF SI SMHA SWFS VAF ? TAY CJ CO TRMA PTSD SED 
SMI ? CM DEC FPSY PRS SEMP SPS ? STU TCC ? SMON ? ADLT CHLD SNR YAD ? AH"
VA Northern Indiana Healthcare System Muncie CBOC,2600 West White River Boulevard,Muncie,Indiana 47303,47303,"? MH SUMH ? HI ? PSY ? AT BMT CBT GT IPT PTM TT ? PVTN ? MC MD PI SF SI SMHA VAF 
? PA ? SE CO TRMA ALZ PTSD ? CM ? NRT NSC STU TCC ? SMON ? SNR ? AH"
Youth Opportunity Center,3700 West Kilgore Avenue,Muncie,Indiana 47304,47304,"? MH SUMH ? RES TELE ? RTCA ? CBT GT PTM ? PVTN ? MC MD PI SF SI ? CM ? STU ? 
SMPD ? ADLT SNR YAD ? AH"
Centerstone of Indiana Inc Centerstone Nashville,1156 Old State Road 46,Nashville,Indiana 47448,47448,"? MH SUMH ? OP TELE ? CBT GT IPT PTM TT ? VAMC ? MI PI VAF ? VET ? SPS ? STU TCC 
? SMPD ? ADLT SNR YAD ? VO"
LifeSpring Inc Floyd County Office,2820 Grant Line Road,New Albany,Indiana 47150,47150,"? MH SUMH ? OP RES ? MSNH ? BMT CBT CFT DBT GT IDD IPT PTM TT ? CIT ? PVTN ? MC 
MD MI PI SCJJ SEF SWFS ? GL CJ CO TRMA PTSD SED ? ACT CM COOT DEC ES FPSY IPC 
SPS ? TCC ? SMON ? ADLT CHLD YAD"
Louisville VAMC VA Healthcare Center/New Albany,4347 Security Parkway,New Albany,Indiana 47150,47150,"? MH SUMH ? OP TELE ? CMHC ? CBT CFT GT IDD IPT PTM TT ? CIT WI ? PVTN ? CLF 
CMHG CSBG MC MD MI OSF PI SCJJ SEF SF SI SMHA SWFS VAF ? TAY CJ CO TRMA PTSD 
SED SMI ? CM COOT DEC FPSY PRS SEMP SPS ? NRT NSC STU TCC ? SMON ? ADLT CHLD 
SNR YAD ? AH"
Brentwood Springs,4488 Roslin Road,Newburgh,Indiana 47630,47630,"? MH SUMH ? OP ? CMHC ? AT BMT CBT CFT DBT IDD IPT PTM TT ? CIT ? PVTN ? CLF 
CMHG CSBG MC MD MI OSF PI SCJJ SF SI SMHA SWFS ? PA SS ? SED SMI ? CDM CM 
COOT IMR SPS ? NRT NSC STU TCC ? SMON ? ADLT CHLD SNR YAD ? AH"
Centerstone of Indiana Inc Centerstone New Castle,3337 South State Road 3,New Castle,Indiana 47362,47362,"? MH SUMH ? OP TELE ? AT IPT ? WI ? VAMC ? PI SF VAF ? VET MF CO TRMA PED PTSD ? 
ACT HS SEMP VRS ? SMPD ? ADLT SNR YAD ? VO ? AH"
Centerstone of Indiana Inc Centerstone North Vernon,216 North State Street,North Vernon,Indiana 47265,47265,"? MH SUMH ? HI PHDT TELE ? PSY ? AT BMT CBT CFT DBT GT IDD IPT PTM TT ? CIT WI ? 
PVTP ? MC MD MI PI SF SI VAF ? ADM CO SMI ? DEC FPSY IMR IPC SPS PEER ? NRT NSC 
STU TCC ? SMPD ? ADLT SNR YAD ? AH"
Valley Oaks Health,606 Limerick Lane,Otterbein,Indiana 47970,47970,"? MH SUMH ? OP ? CMHC ? CBT CFT GT IDD IPT PTM TT ? CIT WI ? PVTN ? CLF CMHG 
CSBG MC MD MI OSF PI SCJJ SEF SF SI SMHA SWFS VAF ? TRMA PTSD SED ? CM FPSY 
PRS SEMP SPS TPC ? NSC STU TCC ? SMON ? ADLT CHLD SNR YAD ? AH"
LifeSpring Health Systems,488 West Hospital Road,Paoli,Indiana 47454,47454,"? MH SUMH ? OP TELE ? CMHC ? CBT CFT GT IDD IPT PTM TT ? CIT WI ? PVTN ? CLF 
CMHG CSBG MC MD MI OSF PI SCJJ SEF SF SI SMHA SWFS VAF ? TAY CJ CO TRMA PTSD 
SED SMI ? CM DEC FPSY PRS SEMP SPS ? NRT NSC STU TCC ? SMON ? ADLT CHLD SNR 
YAD ? AH"
Four County Counseling Center Miami County Satellite Office,1000 North Broadway Street,Peru,Indiana 46970,46970,"? MH SUMH ? OP ? CMHC ? CBT CFT GT IPT PTM ? WI ? PVTN ? CLF MC MD MI PI SCJJ SF 
SI SMHA SWFS ? SS ? CM ? STU ? SMON ? ADLT CHLD SNR YAD ? AH"
VA Northern Indiana Healthcare System Peru CBOC,750 North Broadway,Peru,Indiana 46970,46970,"? MH SUMH ? OP TELE ? CMHC ? BMT CBT CFT DBT GT IPT PTM TT ? CIT WI ? PVTN ? CLF 
CMHG CSBG MC MD MI OSF PI SCJJ SF SI SMHA SWFS VAF ? PA SS ? CM COOT ES IMR 
PRS SH ? STU TCC ? SMON ? ADLT CHLD SNR YAD ? AH"
Good Samaritan Hospital Samaritan Center,"611 Main Street, Suite 110",Petersburg,Indiana 47567,47567,"? MH SUMH ? OP TELE ? CMHC ? AT CBT CFT DBT GT IPT PTM TT ? CIT WI ? PVTN ? CLF 
CMHG CSBG MC MD MI PI SCJJ SF SI SMHA SWFS ? SS ? CO TRMA SED SMI ? CDM CM 
COOT FPSY ICM PRS SEMP SPS TPC ? NRT NSC STU TCC ? SMON ? ADLT CHLD SNR YAD 
? AH ? SP"
Otis R Bowen Ctr for Human Servs Inpatient Unit,9 Pequignot Drive,Pierceton,Indiana 46562,46562,"? MH ? OP TELE ? CBT IPT PTM TT ? VAMC ? MI PI VAF ? VET ? SPS ? STU TCC ? SMPD ? 
ADLT SNR YAD ? VO"
Hamilton Center Inc Plainfield Office,900 Southfield Drive,Plainfield,Indiana 46168,46168,"? MH SUMH ? OP ? CMHC ? CBT CFT DBT GT IDD IPT PTM TT ? CIT ? LMG ? CLF CMHG 
CSBG MC MD MI PI SCJJ SF SI SMHA SWFS ? SS ? CO ? CM COOT ES FPSY ICM ? NRT 
NSC STU TCC ? SMON ? ADLT CHLD SNR YAD ? AH"
Brighter Tomorrows Inc,310 North Michigan Street Suite 208,Plymouth,Indiana 46563,46563,"? MH SUMH ? HI ? PSY ? AT BMT CBT DBT GT IDD IPT PTM TT ? CIT WI ? PVTN ? CLF 
CMHG CSBG MC MD MI OSF PI SCJJ SF SI SMHA SWFS VAF ? PA SS ? SE GL VET CO TRMA 
TBI PTSD SMI ? CDM CM ES FPSY IMR PRS SPS PEER ? NRT NSC STU TCC ? SMON ? ADLT 
SNR YAD ? SP"
Otis R Bowen Ctr for Human Servs,925 Dora Lane,Plymouth,Indiana 46563,46563,"? MH SUMH ? OP ? OMH ? AT BMT CBT CFT DBT IDD IPT TT ? PVTP ? MC MD MI PI SF SI ? 
SS ? FPSY ? TCC ? SMON ? ADLT CHLD SNR YAD"
Otis R Bowen Ctr for Human Servs Plymouth Office,990 Illinois Street,Plymouth,Indiana 46563,46563,"? MH SUMH ? HI OP RES ? PSY ? AT CFT DBT GT IDD IPT PTM TT ? WI ? PVTP ? MC MD MI 
OSF PI SF SI SMHA SWFS VAF ? CO TRMA ? DEC ES FPSY SPS ? NRT NSC STU TCC ? 
SMON ? ADLT CHLD SNR YAD ? AH"
Otis R Bowen Ctr for Human Servs Russell House,1525 West Harrison Street,Plymouth,Indiana 46563,46563,"? MH SUMH ? OP TELE ? CMHC ? BMT CBT CFT DBT GT IDD IPT PTM TT ? CIT WI ? PVTN ? 
CLF MC MD MI OSF PI SCJJ SF SI SMHA SWFS ? TAY SE CO TBI SED SMI ? CM COOT ES 
FPSY IMR IPC PRS SEMP SH SPS ? STU TCC ? SMON ? ADLT CHLD SNR YAD ? AH ? SP"
Porter Starke Services Inc,3176 Lancer Street,Portage,Indiana 46368,46368,"? MH SUMH ? OP TELE ? CMHC ? BMT CBT CFT DBT GT IDD IPT PTM TT ? CIT ? PVTN ? 
CLF MC MD MI OSF PI SCJJ SF SI SMHA SWFS ? TAY CO SED SMI ? CM COOT ES FPSY IMR 
IPC PRS SEMP SH SPS ? NRT NSC STU TCC ? SMON ? ADLT CHLD SNR YAD ? AH ? SP"
IU Health Jay,500 West Votaw Street,Portland,Indiana 47371,47371,"? MH ? RES ? RTCA ? CBT CFT DBT GT IPT PTM TT ? CIT ? PVTN ? MD SF ? SMI ? CDM CM 
DEC FPSY IMR IPC PRS SEMP SH SPS ? NRT NSC STU TCC ? SMPD ? ADLT SNR YAD"
Southwestern Behav Healthcare Inc Gibson Regional Office,320 South 5th Avenue,Princeton,Indiana 47670,47670,"? MH SUMH ? OP TELE ? CMHC ? AT BMT CBT CFT DBT GT IPT PTM TT ? CIT WI ? PVTN ? 
CLF CMHG CSBG MC MD MI PI SCJJ SF SMHA SWFS ? SS ? SED SMI ? CM COOT DEC 
FPSY HS IMR IPC PRS SPS ? NRT NSC STU TCC ? SMON ? ADLT CHLD SNR YAD ? AH ? SP"
Valley Oaks Health Outpatient Service,131 West Drexel Parkway,Rensselaer,Indiana 47978,47978,"? MH SUMH ? HI ? PSY ? AT BMT CBT CFT DBT GT IPT PTM ? CIT ? PVTN ? MC MD MI PI SF 
SI ? FPSY SPS ? NRT NSC STU TCC ? SMPD ? ADLT SNR YAD ? AH"
Centerstone of Indiana Inc Centerstone Richmond,831 Dillon Drive,Richmond,Indiana 47374,47374,"? MH SUMH ? OP ? CMHC ? CBT CFT DBT GT IPT PTM TT ? WI ? PVTN ? CLF MC MD MI PI 
SCJJ SF SI SMHA SWFS ? SS ? TRMA ? CM IMR SPS ? STU ? SMON ? ADLT CHLD SNR YAD 
? AH"
Centerstone of Indiana Inc Community Support Services,54 South 15th Street,Richmond,Indiana 47374,47374,"? MH SUMH ? OP ? CMHC ? CBT CFT GT IPT PTM ? WI ? PVTN ? CLF MC MD MI OSF PI 
SCJJ SF SI SMHA SWFS ? SS ? CJ ? CM ? STU ? SMON ? ADLT CHLD SNR YAD ? AH ? SP"
Centerstone of Indiana Inc Samuel Gaar Resource Center,200 North 13th Street,Richmond,Indiana 47374,47374,"? MH SUMH ? OP TELE ? CMHC ? CBT CFT GT IDD IPT PTM TT ? CIT WI ? PVTN ? CLF 
CMHG CSBG MC MD MI OSF PI SCJJ SEF SF SI SMHA SWFS VAF ? TAY CJ CO TRMA PTSD 
SED SMI ? CM FPSY ICM PRS SEMP SPS ? NRT NSC STU TCC ? SMON ? ADLT CHLD SNR 
YAD ? AH"
Meridian Health Services,630 East Main Street Suite 200,Richmond,Indiana 47374,47374,"? MH ? OP TELE ? CMHC ? CBT CFT GT IPT PTM TT ? CIT WI ? PVTN ? CLF CMHG CSBG 
MC MD MI OSF PI SCJJ SEF SF SI SMHA SWFS VAF ? CJ SMI ? CM DEC IMR PRS SEMP SPS 
? NRT NSC STU TCC ? SMON ? ADLT SNR YAD ? AH 
33"
Reid Health,1100 Reid Parkway,Richmond,Indiana 47374,47374,"? MH SUMH ? OP ? CMHC ? CBT CFT DBT IDD IPT TT ? CIT ? PVTN ? CLF CMHG CSBG MC 
MD MI OSF PI SCJJ SEF SF SI SMHA SWFS VAF ? CO HV TRMA PTSD SMI ? CM IMR PRS 
SEMP SPS ? STU TCC ? SMON ? ADLT SNR YAD ? AH"
Richmond State Hospital,498 NW 18th Street,Richmond,Indiana 47374,47374,"? MH SUMH ? OP TELE ? CMHC ? CBT CFT DBT GT IPT PTM TT ? PVTN ? FQHC ? CMHG 
MC MD MI OSF PI SF SMHA SWFS ? SS ? CO SMI ? CM DEC ICM IMR TPC VRS ? SMON ? 
ADLT SNR YAD"
Wernle Youth and Family Trt Ctr,2000 Wernle Road,Richmond,Indiana 47374,47374,"? MH ? HI OP TELE ? PSY ? AT BMT CBT GT IPT PTM ? CIT WI ? PVTN ? MC MD MI PI SF SI 
SMHA VAF ? SE ALZ SMI ? CM ES FPSY IMR ? NRT NSC STU ? SMON ? ADLT SNR YAD"
Four County Counseling Center Fulton County Satellite,401 East 8th Street Suite A,Rochester,Indiana 46975,46975,"? MH SUMH ? HI ? PSY ? AT BMT CBT DBT GT IDD IPT PTM TT ? SMA ? MC MD PI SF SI 
SMHA ? SE CJ CO TBI PTSD SMI ? CDM CM DEC IMR PRS SPS VRS ? NRT NSC STU TCC ? 
SMON ? ADLT SNR YAD ? AH"
LifeSpring Health Systems Western Division,818 Madison Street / P.O. Box 201,Rockport,Indiana 47635,47635,"? MH SUMH ? OP RES TELE ? RTCC ? AT BMT CBT CFT DBT GT IDD IPT PTM TT ? CIT ? 
PVTN ? CLF CMHG CSBG MD MI PI SCJJ SEF SF SI SMHA SWFS ? CJ TRMA PTSD SED ? CM 
COOT DEC ES FPSY ICM ? STU ? SMON ? CHLD"
Centerstone of Indiana Inc Centerstone Rushville,1400 North Cherry Street,Rushville,Indiana 46173,46173,"? MH SUMH ? OP TELE ? CMHC ? AT CBT CFT DBT GT IPT PTM TT ? CIT WI ? PVTN ? CLF 
CMHG CSBG MC MD MI PI SCJJ SF SI SMHA SWFS ? SS ? CO TRMA SED SMI ? CDM CM 
COOT FPSY ICM PRS SEMP SPS TPC ? NRT NSC STU TCC ? SMON ? ADLT CHLD SNR YAD 
? AH ? SP"
Centerstone of Indiana Inc Centerstone Seymour,1443 Corporate Way,Seymour,Indiana 47274,47274,"? MH SUMH ? OP TELE ? CMHC ? BMT CBT CFT DBT GT IPT PTM ? CIT WI ? PVTN ? CLF 
CMHG CSBG MC MD MI OSF PI SCJJ SF SI SMHA SWFS VAF ? PA SS ? CM COOT ES IMR 
PRS SH ? STU TCC ? SMON ? ADLT CHLD SNR YAD ? AH"
LifeSpring Inc Washington County Office,1321 South Jackson Street,Salem,Indiana 47167,47167,"? MH SUMH ? OP TELE ? CMHC ? CBT CFT GT IDD IPT PTM TT ? CIT WI ? PVTN ? CLF 
CMHG CSBG MC MD MI OSF PI SCJJ SEF SF SI SMHA SWFS VAF ? TAY CJ CO TRMA PTSD 
SED SMI ? CM DEC FPSY PRS SEMP SPS ? NRT NSC STU TCC ? SMON ? ADLT CHLD SNR 
YAD ? AH"
Campagna Academy,7403 Cline Avenue,Schererville,Indiana 46375,46375,"? MH SUMH ? OP TELE ? CMHC ? CBT CFT GT IDD IPT PTM TT ? CIT WI ? PVTN ? CLF 
CMHG CSBG MC MD MI OSF PI SCJJ SEF SF SI SMHA SWFS VAF ? TAY CJ CO TRMA PTSD 
SED SMI ? CM DEC FPSY PRS SEMP SPS ? NRT NSC STU TCC ? SMON ? ADLT CHLD SNR 
YAD ? AH"
Centerstone of Indiana Inc Centerstone Scottsburg,1092 Community Way,Scottsburg,Indiana 47170,47170,"? MH SUMH ? OP ? CMHC ? AT BMT CBT CFT DBT IDD IPT PTM TT ? CIT ? PVTN ? FQHC ? 
CLF CMHG CSBG MC MD MI OSF PI SCJJ SF SI SMHA SWFS ? PA SS ? SED SMI ? CDM CM 
COOT DEC IMR IPC SPS ? NRT NSC STU TCC ? SMON ? ADLT CHLD SNR YAD ? AH"
LifeSpring Inc Scott County Office,75 North 1st Street,Scottsburg,Indiana 47170,47170,"? MH SUMH ? RES ? RTCC ? AT BMT CBT CFT DBT GT IDD IPT PTM TT ? CIT ? PVTN ? CLF 
MD OSF PI SCJJ SEF SF SMHA SWFS ? CJ CO TRMA PTSD SED ? CM DEC ES FPSY HS ICM 
IPC PRS SEMP SPS TPC VRS PEER ? STU ? SMON ? CHLD"
Memorial Epworth of South Bend,420 North Niles Avenue,South Bend,Indiana 46617,46617,"? MH SUMH ? OP ? CMHC ? AT BMT CBT CFT DBT IDD IPT PTM TT ? CIT ? PVTN ? CLF 
CMHG CSBG MC MD MI OSF PI SCJJ SF SI SMHA SWFS ? PA SS ? SED SMI ? CDM CM 
COOT IMR SPS ? NSC STU TCC ? SMON ? ADLT CHLD SNR YAD ? AH"
Oaklawn Psychiatric Center Inc,415 East Madison Street,South Bend,Indiana 46617,46617,"? MH SUMH ? OP ? CMHC ? BMT CBT CFT GT IDD IPT PTM TT ? CIT ? PVTN ? CLF CMHG 
CSBG ITU MC MD MI OSF PI SCJJ SEF SF SI SMHA SWFS VAF ? SS ? SE GL MF CO TRMA 
PTSD SED SMI ? ACT CM COOT FPSY IMR SPS ? STU ? SMON ? ADLT CHLD SNR YAD ? AH"
Centerstone of Indiana Inc Spencer Integrated Health,35 Bob Babbs Drive,Spencer,Indiana 47460,47460,"? MH SUMH ? HI ? PSY ? AT CBT CFT ECT GT IDD IPT PTM ? WI ? PVTN ? CLF MC MD MI PI 
SF SMHA ? SE ALZ SMI ? DEC ES FPSY IPC ? NRT STU TCC ? SMON ? ADLT CHLD SNR 
YAD"
Hamilton Center Inc Spencer Office,909 West Hillside Avenue,Spencer,Indiana 47460,47460,"? MH ? OP ? CMHC ? CBT CFT DBT GT IDD IPT PTM TT ? CIT ? PVTN ? CLF CSBG MC MD PI 
SF SI SMHA SWFS ? PA SS ? TAY CO SMI ? CM COOT FPSY ICM IMR IPC PEER ? STU ? 
SMON ? ADLT CHLD SNR YAD ? AH ? SP"
Hamilton Center Inc,2134 Mary Sherman Drive,Sullivan,Indiana 47882,47882,"? MH SUMH ? OP TELE ? CMHC ? CBT CFT GT IDD IPT PTM TT ? CIT WI ? PVTN ? CLF 
CMHG CSBG MC MD MI OSF PI SCJJ SEF SF SI SMHA SWFS VAF ? TAY CJ CO TRMA PTSD 
SED SMI ? CM DEC FPSY IPC PRS SEMP SPS ? NRT NSC STU TCC ? SMON ? ADLT CHLD 
SNR YAD ? AH"
Otis R Bowen Ctr for Human Servs Syracuse Outpatient Office,901 South Huntington Street,Syracuse,Indiana 46567,46567,"? MH SUMH ? OP TELE ? CMHC ? AT CBT CFT DBT GT IPT PTM TT ? CIT WI ? PVTN ? CLF 
CMHG MC MD MI OSF PI SCJJ SF SI SMHA SWFS VAF ? SE VET CO TRMA PTSD SED SMI ? 
CM ICM PRS SPS ? STU ? SMON ? ADLT CHLD SNR YAD ? AH"
LifeSpring Health Systems,1443 9th Street,Tell City,Indiana 47586,47586,"? MH ? OP TELE ? CMHC ? CBT CFT DBT GT IPT PTM TT ? CIT WI ? PVTN ? CLF CMHG MC 
MD MI OSF PI SCJJ SF SI SMHA SWFS VAF ? SS ? SED SMI ? CM ICM PRS SPS ? STU ? 
SMON ? ADLT CHLD SNR YAD ? AH"
Gibault Inc,6401 South U.S. Highway 41,Terre Haute,Indiana 47802,47802,"? MH SUMH ? OP ? CMHC ? BMT CBT CFT DBT GT IDD IPT TT ? CIT ? PVTN ? CLF CMHG 
CSBG MC MD MI OSF PI SCJJ SEF SF SI SMHA SWFS ? SE CO SED SMI ? CM COOT ES 
FPSY IMR PRS SPS ? STU ? SMON ? ADLT CHLD SNR YAD ? AH ? SP"
Hamilton Center Inc,620 8th Avenue,Terre Haute,Indiana 47804,47804,"? MH SUMH ? OP TELE ? CMHC ? BMT CBT CFT DBT GT IPT PTM ? CIT WI ? PVTN ? CLF 
CMHG CSBG MC MD MI OSF PI SCJJ SF SI SMHA SWFS VAF ? PA SS ? SMI ? CM COOT ES 
IMR PRS SH ? STU TCC ? SMPD ? ADLT CHLD SNR YAD ? AH"
Hamilton Center Inc Child and Adolescent Services,500 8th Avenue,Terre Haute,Indiana 47804,47804,"? MH SUMH ? PHDT RES ? RTCC ? BMT CBT CFT GT IPT PTM TT ? PVTN ? MD MI PI SEF 
SWFS ? SED ? CM ES FPSY ? SMON ? CHLD"
Harsha Behavioral Center Inc,1980 East Woodsmall Drive,Terre Haute,Indiana 47802,47802,"? MH SUMH ? HI OP TELE ? PSY ? CBT CFT DBT GT IPT PTM TT ? CIT WI ? PVTN ? CMHG 
MC MD MI OSF PI SCJJ SF SI SMHA SWFS VAF ? SS ? SMI ? CM COOT PRS SPS ? STU ? 
SMON ? ADLT SNR YAD ? AH ? SP F17"
Terre Haute Regional Hospital Behavioral Health Unit,3901 South 7th Street,Terre Haute,Indiana 47802,47802,"? MH SUMH ? OP TELE ? CMHC ? BMT CBT CFT DBT GT IPT PTM TT ? CIT WI ? PVTN ? 
FQHC ? CLF CMHG MC MD MI OSF PI SCJJ SF SI SMHA SWFS ? SS ? VET CO TRMA PTSD 
SED ? CM COOT ICM PRS SEMP SPS ? STU ? SMON ? ADLT CHLD SNR YAD ? AH"
VA East Community Base OP Clinic,70 West Honey Creek Parkway,Terre Haute,Indiana 47802,47802,"? MH SUMH ? HI ? PSY ? AT BMT CBT CFT DBT GT IDD IPT PTM TT ? CIT WI ? PVTP ? MC 
MD MI PI SF SI ? SE CO ALZ SED SMI ? PRS SPS ? NSC STU ? SMON ? ADLT CHLD SNR 
YAD ? AH"
Centerstone of Indiana Inc Centerstone Union City,224 North Columbia Street,Union City,Indiana 47390,47390,"? MH SUMH ? HI ? PSY ? AT BMT CBT CFT DBT GT IDD IPT PTM TT ? CIT WI ? PVTN ? MC 
MD MI PI SCJJ SF SI SMHA ? SE GL VET ADM MF CJ CO HV TRMA PTSD SMI ? CM DEC ES 
FPSY IPC PRS SPS ? NRT NSC STU TCC ? SMON ? ADLT SNR YAD ? AH"
Midwest Ctr for Youth and Families,2301 Cumberland Drive,Valparaiso,Indiana 46383,46383,"? MH SUMH ? OP TELE ? OMH ? CBT CFT GT IPT PTM TT ? CIT WI ? VAMC ? MC MD PI SF 
VAF ? VET ? CDM CM COOT DEC FPSY HS ICM IMR PRS SEMP SH SPS VRS PEER ? NRT 
STU TCC ? SMPD ? ADLT SNR YAD ? VO"
Porter Starke Services Inc,601 Wall Street,Valparaiso,Indiana 46383,46383,"? MH ? OP ? CMHC ? CBT CFT GT IPT TT ? CIT WI ? PVTN ? CLF CMHG CSBG MC MD MI 
OSF PI SCJJ SEF SF SI SMHA SWFS VAF ? TRMA PTSD SED ? CM FPSY PRS SPS ? STU 
TCC ? SMON ? CHLD ? AH"
Porter Starke Services Inc,701 Wall Street,Valparaiso,Indiana 46383,46383,"? MH ? RES ? ORES ? AT BMT CFT DBT GT IDD IPT PTM TT ? CIT ? PVTP ? CLF MD MI PI 
SEF SF SI SMHA SWFS ? GL MF TRMA PED SED ? CM ES FPSY SPS ? SMON ? CHLD YAD ? 
SP"
Community Mental Health Center Inc,1037 West Main Street,Vevay,Indiana 47043,47043,"? MH SUMH ? OP TELE ? CMHC ? AT BMT CBT CFT DBT GT IDD IPT PTM TT ? CIT WI ? 
PVTN ? CLF CMHG CSBG MC MD MI PI SCJJ SF SMHA SWFS ? SS ? CO SED ? CM COOT 
DEC FPSY SPS PEER ? NRT NSC STU TCC ? SMON ? ADLT CHLD SNR YAD ? AH ? SP"
Switzerland County Counseling Ctr,1037 West Main Street,Vevay,Indiana 47043,47043,"? MH SUMH ? HI OP ? PSY ? AT CBT DBT GT PTM TT ? CIT WI ? PVTN ? CLF CMHG CSBG 
MC MD MI PI SCJJ SF SMHA SWFS ? SS ? SMI ? CM DEC FPSY HS IMR IPC PRS SPS PEER 
? NRT NSC STU TCC ? SMON ? ADLT SNR YAD ? AH"
Good Samaritan Hospital,515 Bayou Street,Vincennes,Indiana 47591,47591,"? MH SUMH ? OP ? CMHC ? AT BMT CBT CFT DBT GT IPT PTM TT ? CIT WI ? PVTN ? CLF 
CMHG CSBG ITU MC MD MI OSF PI SCJJ SEF SF SI SMHA SWFS VAF ? SS ? TAY SE CO SED 
SMI ? CDM CM COOT ES FPSY HS ICM IMR IPC SEMP SPS VRS ? STU TCC ? SMON ? ADLT 
CHLD SNR YAD ? AH ? SP"
Good Samaritan Hospital Willows,1901 Willow Street,Vincennes,Indiana 47591,47591,"? MH SUMH ? OP ? CMHC ? AT BMT CBT CFT DBT GT IPT PTM TT ? CIT WI ? PVTN ? CLF 
CMHG CSBG ITU MC MD MI OSF PI SCJJ SEF SF SI SMHA SWFS VAF ? SS ? TAY SE CO SED 
38
SMI ? CDM CM COOT ES FPSY HS ICM IMR IPC SEMP SPS VRS ? STU TCC ? SMON ? ADLT 
CHLD SNR YAD ? AH"
Vincennes Community Based Outpatient Marion VA,1813 Willow Street Suite 6-A,Vincennes,Indiana 47591,47591,"? MH SUMH ? OP ? CMHC ? CBT CFT DBT GT IDD IPT PTM TT ? CIT WI ? PVTN ? CLF MC 
MD MI PI SF SI SMHA SWFS VAF ? CO TRMA PTSD SMI ? ACT CDM CM COOT FPSY ICM IMR 
PRS SPS ? STU ? SMON ? ADLT SNR YAD ? AH"
Otis R Bowen Ctr for Human Servs Wabash County Office,255 North Miami Street,Wabash,Indiana 46992,46992,"? MH ? OP ? CMHC ? BMT CBT CFT DBT GT IPT PTM TT ? CIT ? LMG ? CLF CMHG MC MD 
MI OSF PI SCJJ SF SI SMHA SWFS VAF ? TAY GL MF TRMA TBI PTSD SED ? CM COOT FPSY 
ICM PRS SPS ? STU ? SMON ? CHLD YAD ? AH"
Otis R Bowen Ctr for Human Servs,850 North Harrison Road,Warsaw,Indiana 46580,46580,"? MH SUMH ? OP TELE ? BMT CBT CFT IPT PTM TT ? CIT WI ? VAMC ? MI SF VAF ? SE GL 
VET MF CO TRMA PTSD SMI ? DEC HS SEMP SPS VRS ? NRT NSC STU TCC ? SMPD ? ADLT 
SNR YAD ? VO ? AH"
Otis R Bowen Ctr for Human Servs The Harbours,2216 North Pointe Drive,Warsaw,Indiana 46582,46582,"? MH SUMH ? OP TELE ? CMHC ? BMT CBT CFT DBT GT IDD IPT PTM TT ? CIT WI ? PVTN ? 
CLF CMHG CSBG MC MD MI OSF PI SCJJ SEF SF SI SMHA SWFS ? PA SS ? TAY SE GL VET 
ADM MF CJ CO TRMA TBI ALZ PED PTSD SED SMI ? ACT CM COOT FPSY IMR PRS SPS ? 
STU TCC ? SMON ? ADLT CHLD SNR YAD ? AH"
Daviess Community Hospital,1314 East Walnut Street,Washington,Indiana 47501,47501,"? MH SUMH ? OP RES ? RTCA ? CBT CFT DBT GT IDD IPT PTM TT ? CIT ? PVTN ? MC MD 
SF ? SMI ? CDM CM DEC FPSY IMR IPC PRS SEMP SH SPS PEER ? NRT NSC STU TCC ? 
SMPD ? ADLT SNR YAD ? AH ? SP"
Good Samaritan Hospital Samaritan Center,2007 State Street,Washington,Indiana 47501,47501,"? MH SUMH ? OP ? ORES ? CBT DBT GT IDD IPT PTM TT ? CIT ? PVTN ? MC MD SF ? SMI ? 
CM FPSY IMR IPC PRS SEMP SH SPS PEER ? NRT NSC STU ? SMPD ? ADLT SNR YAD ? AH"
Community Mental Health Center Inc Saint Leon Office,"28208 State Route 1, Suite 101",West Harrison,Indiana 47060,47060,"? MH ? HI OP ? PSY ? AT BMT CBT DBT ECT GT IPT PTM ? CIT ? LMG ? CLF MC MD MI PI 
SF SI ? SE CO TRMA ALZ PTSD ? CDM DEC FPSY HS IPC SPS ? NRT STU TCC ? SMON ? 
CHLD SNR"
River Bend Hospital,2900 North River Road,West Lafayette,Indiana 47906,47906,"? MH SUMH ? OP TELE ? CMHC ? CBT CFT DBT GT IDD IPT PTM TT ? LMG ? CLF CMHG 
CSBG MC MD MI PI SCJJ SF SI SMHA SWFS VAF ? SS ? CO SMI ? CM COOT ES FPSY ICM ? 
NRT NSC STU TCC ? SMON ? ADLT CHLD SNR YAD ? AH"
West Lafayette Community Based Clinic,3851 North River Road,West Lafayette,Indiana 47906,47906,"? MH SUMH ? OP ? CMHC ? AT BMT CBT CFT DBT GT IPT PTM TT ? CIT WI ? PVTN ? CLF 
CMHG CSBG ITU MC MD MI OSF PI SCJJ SEF SF SI SMHA SWFS VAF ? SS ? TAY SE CO SED 
SMI ? CDM CM COOT ES FPSY HS ICM IMR IPC SEMP SPS VRS ? STU TCC ? SMON ? ADLT 
CHLD SNR YAD ? AH ? SP"
Four County Counseling Center Pulaski County Satellite,118 North Sally Drive,Winamac,Indiana 46996,46996,"? MH ? HI ? PSY ? AT CBT GT IPT PTM ? WI ? PVTN ? MC 
MD MI PI SF SI ? SMI ? NRT NSC STU TCC ? SMON ? ADLT SNR YAD ? AH"
Centerstone of Indiana Inc Centerstone Winchester,325 South Oak Street Suite 103,Winchester,Indiana 47394,47394,"? MH ? OP TELE ? OMH ? BMT CBT GT IPT PTM ? CIT WI ? VAMC ? PI SF VAF ? GL VET ? 
ACT CDM CM COOT DEC IPC SPS PEER ? STU ? SMPD ? ADLT SNR YAD ? VO"
