Name,Address,City,State,Zip,Services
Adanta Group Clinton County Clinic,101 Adanta Circle,Albany,Kentucky 42602,42602,"? MH SUMH ? OP TELE ? CMHC ? CBT CFT GT IDD IPT PTM TT ? CIT WI ? PVTN ? CMHG 
CSBG MC MD MI OSF PI SCJJ SEF SF SI SMHA SWFS VAF ? TAY SE CO TRMA PTSD SED SMI 
? CM COOT FPSY HS PRS SEMP SPS PEER ? STU ? SMPD ? ADLT CHLD SNR YAD ? AH"
Community Based Interventions,104 Washington Street,Albany,Kentucky 42602,42602,"? MH SUMH ? OP ? OMH ? BMT CBT CFT DBT GT IDD IPT TT ? CIT ? PVTN ? CLF MD PI SCJJ 
SF SI SWFS ? SS ? TAY SE GL VET ADM MF CJ CO HV TRMA PED PTSD SED SMI ? CM COOT 
ES FPSY HS SPS ? STU ? SMPD ? ADLT CHLD SNR YAD"
Kings Daughters Medical Center,2201 Lexington Avenue,Ashland,Kentucky 41101,41101,"? MH SUMH ? HI ? PSY ? BMT CBT CFT GT IPT PTM ? CIT WI ? PVTN ? MD PI SF SI ? SE GL 
VET MF CJ CO HV TRMA ALZ PED PTSD SMI ? CM PRS SPS ? NSC TCC ? SMON ? ADLT SNR 
YAD ? AH"
Our Lady of Bellefonte Hospital,1000 Saint Christopher Drive,Ashland,Kentucky 41101,41101,"? MH SUMH ? HI OP ? PSY ? AT BMT CBT GT IDD IPT PTM ? CIT WI ? PVTN ? MC MD PI SF SI 
? SE CO ALZ PTSD SMI ? CDM CM IMR SPS ? NRT NSC STU TCC ? SMON ? ADLT SNR YAD ? 
AH"
Pathways Inc,201 22nd Street,Ashland,Kentucky 41101,41101,"? MH SUMH ? OP TELE ? CMHC ? BMT CBT CFT DBT GT IDD IPT PTM TT ? CIT WI ? PVTN ? 
CMHG CSBG MC MD MI OSF PI SCJJ SF SI SMHA SWFS VAF ? PA SS ? CO TRMA PED PTSD 
SMI ? CM COOT FPSY HS ICM LAD SPS PEER ? SMPD ? ADLT CHLD SNR YAD ? AH"
Pathways Inc,3701 Lansdowne Drive,Ashland,Kentucky 41102,41102,"? MH ? OP TELE ? CMHC ? AT BMT CBT CFT DBT GT IPT PTM ? CIT WI ? PVTN ? CMHG 
CSBG MC MD MI OSF PI SCJJ SF SI SMHA SWFS VAF ? PA SS ? TAY CJ SED SMI ? ACT CDM 
CM COOT ES FPSY HS ICM IMR SEMP SH SPS VRS PEER ? STU ? SMPD ? ADLT CHLD SNR 
YAD ? AH"
Cumberland River Behavioral Health,704 Pitzer Street,Barbourville,Kentucky 40906,40906,"? MH SUMH ? OP PHDT TELE ? CMHC ? BMT CBT CFT GT IDD IPT PTM TT ? CIT WI ? PVTN ? 
CMHG MC MD MI OSF PI SCJJ SF SI SMHA ? SS ? TAY CO SED SMI ? ACT CDM CM COOT 
DEC ES FPSY HS ICM IMR PRS SEMP SH SPS PEER ? STU ? SMPD ? ADLT CHLD SNR YAD ? 
AH"
Communicare Outpatient Clinic,331 South 3rd Street,Bardstown,Kentucky 40004,40004,"? MH SUMH ? OP TELE ? CMHC ? CBT CFT DBT GT IDD IPT PTM TT ? CIT WI ? PVTN ? CLF 
CMHG CSBG MC MD MI OSF PI SCJJ SF SI SMHA SWFS ? SS ? TAY GL CJ CO TRMA PTSD 
SED SMI ? CM COOT DEC FPSY HS IMR PRS SEMP SH SPS VRS PEER ? STU TCC ? SMPD ? 
ADLT CHLD SNR YAD ? AH"
Kentucky River Community Care Inc Lee/Owsley Outpatient,1060 Grand Avenue,Beattyville,Kentucky 41311,41311,"? MH SUMH ? OP TELE ? CMHC ? BMT CBT CFT DBT GT IDD IPT PTM TT ? CIT WI ? PVTN ? 
CLF CMHG CSBG ITU MC MD MI OSF PI SCJJ SEF SF SMHA SWFS VAF ? PA SS ? TAY CJ CO 
TRMA PTSD SED SMI ? ACT CDM CM COOT FPSY HS ICM IMR PRS SEMP SH SPS ? STU TCC 
? SMPD ? ADLT CHLD SNR YAD ? AH"
Ohio County Office,1269 Duvall Road,Beaver Dam,Kentucky 42320,42320,"? MH SUMH ? OP TELE ? OMH ? CBT CFT GT IDD IPT PTM TT ? CIT ? LMG ? CMHG MC MD 
PI SF SI SMHA SWFS ? CO PTSD SED ? CM COOT SPS ? SMPD ? ADLT CHLD SNR YAD ? AH"
Mountain Comprehensive Care Center Outpatient Clinic/Comm Mental Health,26229 U.S. Highway 119 North,Belfry,Kentucky 41514,41514,"? MH SUMH ? OP TELE ? OMH ? AT BMT CBT DBT GT IDD IPT PTM TT ? CIT WI ? PVTN ? MC 
MD MI PI SCJJ SF SI SMHA SWFS VAF ? PA SS ? TRMA ? ACT CDM CM COOT FPSY ICM IPC 
SEMP SH SPS TPC PEER ? TCC ? SMPD ? ADLT CHLD SNR YAD ? AH"
Bellevue CBOC,103 Landmark Drive,Bellevue,Kentucky 41073,41073,"? MH SUMH ? OP TELE ? CBT CFT GT PTM TT ? WI ? VAMC ? VAF ? VET PTSD ? CDM DEC 
SPS ? NRT NSC STU TCC ? SMPD ? ADLT SNR YAD ? VO"
LifeSkills Inc,380 Suwannee Trail Street,Bowling Green,Kentucky 42103,42103,"? MH SUMH ? OP TELE ? CMHC ? BMT CBT CFT GT IDD IPT PTM TT ? PVTN ? CMHG MC MD 
PI SCJJ SF SMHA SWFS ? SS ? TAY CO SED SMI ? CM ES HS IMR PRS SEMP SH SPS TPC 
PEER ? SMPD ? ADLT CHLD SNR YAD ? AH"
LifeSkills Inc Adult Crisis Stabilization,822 Woodway Drive,Bowling Green,Kentucky 42101,42101,"? MH SUMH ? RES TELE ? RTCA ? BMT CBT CFT DBT GT IDD IPT PTM TT ? CIT WI ? PVTN ? 
MC MD OSF PI SMHA ? PA ? SE SMI ? CM FPSY SPS PEER ? SMPD ? ADLT SNR YAD"
LifeSkills Inc Childrens Crisis Stabilization Unit,501 Chestnut Street,Bowling Green,Kentucky 42101,42101,"? MH ? RES TELE ? RTCC ? AT BMT CBT CFT DBT GT IPT PTM TT ? CIT WI ? PVTN ? CMHG 
MD PI SF SI SMHA SWFS ? PA ? SED ? CM ES FPSY PRS SPS TPC ? STU ? SMON ? CLHD"
Rivendell Behavioral Health Services,1035 Porter Pike,Bowling Green,Kentucky 42103,42103,"? MH SUMH ? HI OP PHDT TELE ? PSY ? AT CBT CFT DBT GT IDD IPT PTM TT ? WI ? PVTP ? 
CLF CMHG CSBG ITU MC MD MI OSF PI SCJJ SEF SF SI SMHA SWFS VAF ? CO SED ? CM 
DEC ES FPSY SPS ? NRT NSC STU TCC ? SMPD ? ADLT CHLD YAD ? AH"
Sunrise Childrens Services Bowling Green,"941 Lehman Avenue, Suite 106",Bowling Green,Kentucky 42103,42103,"? MH SUMH ? OP ? OMH ? AT BMT CBT CFT GT IDD IPT TT ? CIT ? PVTN ? CMHG CSBG MD 
SCJJ SWFS ? TAY CO TRMA PTSD SED ? CM ES FPSY HS PRS SEMP SH TPC ? SMPD ? 
CHLD YAD"
Communicare Outpatient Clinic,2025 Bypass Road,Brandenburg,Kentucky 40108,40108,"? MH SUMH ? OP TELE ? OMH ? AT BMT CBT CFT DBT GT IDD IPT PTM TT ? CIT WI ? PVTN ? 
MC MD MI PI SF SI SMHA ? PA SS ? CO TRMA PTSD SED SMI ? ACT CM COOT FPSY ICM IMR 
SEMP SPS PEER ? SMPD ? ADLT CHLD SNR YAD ? AH"
Sunrise Childrens Services Cumberland Adventure Program,500 New Start Road,Bronston,Kentucky 42518,42518,"? MH SUMH ? RES ? RTCC ? AT BMT CBT GT IPT PTM TT ? PVTN ? OSF SMHA SWFS ? CO 
TRMA PTSD SED ? ES ? STU TCC ? SMON ? CLHD"
Comprehend Inc Bracken County CMHC,429 Frankfort Road,Brooksville,Kentucky 41004,41004,"? MH SUMH ? OP ? CMHC ? BMT CBT CFT DBT GT IDD IPT PTM TT ? CIT WI ? PVTN ? CLF 
CMHG CSBG MC MD MI OSF PI SCJJ SEF SF SI SMHA SWFS VAF ? SS ? TRMA ? CM COOT 
FPSY SEMP SPS VRS ? STU ? SMPD ? ADLT CHLD SNR YAD ? AH"
LifeSkills Inc Edmonson County Service Center,205 Mohawk Drive,Brownsville,Kentucky 42210,42210,"? MH SUMH ? OP TELE ? CMHC ? BMT CBT CFT DBT GT IDD IPT PTM TT ? CIT WI ? PVTN ? 
CLF CMHG CSBG MC MD MI OSF PI SCJJ SEF SF SI SMHA SWFS ? SS ? TAY SE GL CO PTSD 
SED SMI ? CM COOT FPSY ICM IMR SPS ? SMPD ? ADLT CHLD SNR YAD"
Buckhorn Children and Family Services Buckhorn Childrens Center,116 Buckhorn Lane,Buckhorn,Kentucky 41721,41721,"? MH ? RES TELE ? RTCC ? AT CFT GT IPT PTM ? PVTN ? MD MI PI SCJJ SF SI SWFS ? TRMA 
PTSD ? ACT CM DEC FPSY SPS VRS ? STU ? SMON ? CLHD"
Trigg County Hospital Seasons Behavioral Health,11 Hospital Street,Cadiz,Kentucky 42211,42211,"? MH SUMH ? OP ? OMH ? AT CBT CFT DBT GT IDD IPT PTM TT ? PVTN ? MC MD MI PI SF SI 
? CO TRMA PTSD ? ES FPSY IMR PRS SPS ? SMPD ? ADLT SNR YAD ? AH"
Spectrum Care Academy Inc Spectrum Care Glasgow I and II,6100 North Jackson Highway,Cave City,Kentucky 42127,42127,"? MH SUMH ? RES ? RTCC ? BMT CBT CFT DBT GT IDD IPT PTM TT ? PVTP ? MD SWFS ? GL 
CJ CO HV TRMA PED PTSD SED ? ES FPSY HS PRS SPS ? SMON ? CLHD"
Holly Hill Child and Family Solutions,9599 Summer Hill Road,California,Kentucky 41007,41007,"? MH SUMH ? OP RES ? RTCC ? AT BMT CBT CFT GT IPT PTM TT ? PVTN ? CLF MD OSF PI 
SF SMHA SWFS ? TRMA SED ? ACT CM FPSY SPS ? SMON ? CHLD ? AH"
Adanta Group Taylor County Clinic,250 Water Tower Bypass,Campbellsville,Kentucky 42718,42718,"? MH SUMH ? OP TELE ? CMHC ? CBT CFT GT IDD IPT PTM TT ? CIT WI ? PVTN ? CMHG 
CSBG MC MD MI OSF PI SCJJ SEF SF SI SMHA SWFS VAF ? TAY CO TRMA PTSD SED SMI ? 
CM COOT FPSY HS PRS SEMP SPS PEER ? STU ? SMPD ? ADLT CHLD SNR YAD ? AH"
Kentucky River Community Care Inc Wolfe County Outpatient Services,129 Kentucky 15 North Street,Campton,Kentucky 41301,41301,"? MH SUMH ? OP TELE ? CMHC ? BMT CBT CFT DBT GT IDD IPT PTM TT ? CIT WI ? PVTN ? 
CLF CMHG CSBG ITU MC MD MI OSF PI SCJJ SEF SF SMHA SWFS VAF ? PA SS ? TAY CJ CO 
TRMA PTSD SED SMI ? ACT CDM CM COOT FPSY HS ICM IMR PRS SEMP SH SPS ? STU TCC 
? SMPD ? ADLT CHLD SNR YAD ? AH"
NorthKey Community Care Carroll County Branch Office,2688 U.S. Highway 227,Carrollton,Kentucky 41008,41008,"? MH SUMH ? OP ? CMHC ? BMT CBT CFT IDD IPT PTM TT ? CIT ? PVTN ? CLF CMHG MC 
MD MI OSF PI SCJJ SF SI SMHA ? SS ? ACT CM COOT FPSY ICM SPS ? SMON ? ADLT CHLD 
SNR YAD ? AH"
Adanta Group Adair County Mental Health Center,200 East Frazier Avenue,Columbia,Kentucky 42728,42728,"? MH SUMH ? OP TELE ? CMHC ? CBT CFT GT IDD IPT PTM TT ? CIT WI ? PVTN ? CMHG 
CSBG MC MD MI OSF PI SCJJ SEF SF SI SMHA SWFS VAF ? TAY CO TRMA PTSD SED SMI ? 
CM COOT FPSY HS PRS SEMP SPS PEER ? STU ? SMPD ? ADLT CHLD SNR YAD ? AH"
Baptist Health Corbin,1 Trillium Way,Corbin,Kentucky 40701,40701,"? MH SUMH ? HI OP PHDT TELE ? PSY ? AT BMT CBT CFT DBT ECT GT IDD IPT PTM ? WI ? 
PVTN ? CLF CMHG CSBG MC MD MI OSF PI SCJJ SEF SF SI SMHA SWFS VAF ? SS ? TAY SE 
VET ADM MF CO TRMA SED SMI ? CDM CM COOT DEC ES FPSY IMR IPC SPS VRS PEER ? 
NRT NSC STU TCC ? SMON ? ADLT CHLD SNR YAD ? AH"
Cumberland River Behavioral Health,1203 American Greeting Card Road,Corbin,Kentucky 40701,40701,"? MH ? OP TELE ? CMHC ? BMT CBT CFT DBT GT IDD IPT PTM TT ? CIT WI ? PVTN ? CLF 
CMHG CSBG MC MD MI OSF PI SCJJ SF SI SMHA SWFS ? SS ? TAY CO SED SMI ? ACT CM 
COOT HS ICM PRS SEMP SH SPS PEER ? STU ? SMPD ? ADLT CHLD SNR YAD ? AH"
Turning Point,2932 Level Green Road,Corbin,Kentucky 40701,40701,"? MH SUMH ? RES ? RTCC ? AT BMT CBT CFT DBT GT IDD IPT PTM TT ? CIT ? PVTN ? MD MI 
PI SWFS ? SS ? CO PTSD SED ? FPSY PRS SPS PEER ? STU ? SMPD ? CLHD"
Childrens Home of Northern Kentucky,200 Home Road,Covington,Kentucky 41011,41011,"? MH SUMH ? OP PHDT RES ? MSNH ? AT BMT CBT CFT DBT GT IPT PTM TT ? PVTN ? CLF 
MD MI OSF PI SF SMHA SWFS ? TAY GL CO TRMA PED PTSD SED ? CM COOT ES FPSY ICM 
IPC SPS ? STU TCC ? SMON ? ADLT CHLD SNR YAD ? AH"
NorthKey Community Care,722 Scott Street,Covington,Kentucky 41011,41011,"? MH SUMH ? OP ? CMHC ? BMT CBT CFT GT IDD IPT PTM TT ? CIT ? PVTN ? CMHG MC MD 
MI OSF PI SF SI SMHA ? SS ? CM COOT FPSY ICM IMR SPS ? STU ? SMON ? ADLT CHLD 
SNR YAD ? AH"
NorthKey Community Care Adult Services,513 Madison Avenue,Covington,Kentucky 41011,41011,"? MH SUMH ? OP ? CMHC ? BMT CBT CFT DBT GT IDD IPT PTM TT ? CIT ? PVTN ? CLF 
CMHG MC MD MI OSF PI SCJJ SF SI SMHA ? SS ? ACT CM COOT FPSY ICM IPC SEMP SH 
SPS ? STU ? SMON ? ADLT SNR YAD ? AH"
New Vista Harrison County Outpatient Clinic,257 Parkland Heights,Cynthiana,Kentucky 41031,41031,"? MH SUMH ? OP TELE ? CMHC ? CBT CFT DBT GT IPT PTM TT ? CIT ? PVTN ? CLF CMHG 
CSBG MD MI PI SCJJ SF SI SMHA SWFS ? TAY CJ CO TRMA PTSD SED SMI ? ACT CM COOT 
FPSY ICM IPC SPS PEER ? STU ? SMON ? ADLT CHLD SNR YAD ? AH"
Ephraim McDowell Regional Medical Ctr Behavioral Health Services,217 South 3rd Street,Danville,Kentucky 40422,40422,"? MH SUMH ? HI OP ? PSY ? AT GT IDD IPT PTM ? WI ? PVTN ? MC MD PI SF SI ? SE CO ALZ 
? DEC ES SPS ? NRT NSC STU TCC ? SMON ? ADLT SNR YAD ? AH"
New Vista Boyle County Outpatient Clinic,650 High Street,Danville,Kentucky 40422,40422,"? MH SUMH ? OP TELE ? CMHC ? BMT CBT CFT DBT GT IDD IPT PTM TT ? CIT WI ? PVTN ? 
CLF CMHG CSBG MD MI OSF PI SCJJ SF SI SMHA SWFS ? SS ? CO ? CM COOT PRS SPS 
PEER ? STU ? SMPD ? ADLT CHLD SNR YAD ? AH"
Sunrise Childrens Services Psych Res Program/Woodlawn Campus,400 Cunningham Way,Danville,Kentucky 40422,40422,"? MH SUMH ? RES ? RTCC ? AT BMT CBT CFT DBT GT IDD IPT PTM TT ? CIT ? PVTN ? CLF 
MD OSF PI SCJJ SF SI ? CJ CO TRMA PED PTSD SED ? CM DEC ES FPSY HS IPC PRS SPS 
VRS ? STU ? SMON ? CLHD"
LifeSkills Inc,112 Sartin Drive,Edmonton,Kentucky 42129,42129,"? MH SUMH ? OP TELE ? CMHC ? BMT CBT CFT GT IDD IPT PTM TT ? PVTN ? MC MD OSF PI 
SF SI SMHA SWFS ? SS ? CO TRMA PTSD SED SMI ? CM COOT FPSY IMR PRS SPS ? NRT 
STU ? SMPD ? ADLT CHLD SNR YAD ? AH"
Communicare Outpatient Clinic Childrens Crisis Stabilization Unit,1311 North Dixie Highway Building D,Elizabethtown,Kentucky 42701,42701,"? MH SUMH ? PHDT TELE ? RTCC ? BMT CBT CFT GT IDD IPT PTM TT ? CIT WI ? PVTN ? 
CMHG MC MD MI PI SCJJ SF SI SMHA SWFS ? SED ? SPS ? SMPD ? CHLD ? AH"
Spectrum Care Academy Inc Elizabethtown I and II,461 Fowler Lane,Elizabethtown,Kentucky 42701,42701,"? MH SUMH ? RES ? RTCC ? AT BMT CBT CFT DBT GT IDD IPT PTM TT ? CIT ? PVTP ? MD ? 
MF SED ? ES FPSY PRS ? SMON ? CLHD"
Sunrise Childrens Services Crossroads Treatment Center,854 Tunnel Hill Church Road,Elizabethtown,Kentucky 42702,42702,"? MH ? RES ? RTCC ? AT BMT CBT CFT DBT GT IDD IPT PTM TT ? PVTN ? SCJJ SWFS ? GL 
SED ? CM DEC ES FPSY ICM IPC SPS ? STU TCC ? SMPD ? CLHD"
Kentucky River Community Care Inc Knott County Outpatient Services,3476 Highway 80 West,Emmalena,Kentucky 41740,41740,"? MH SUMH ? OP TELE ? CMHC ? BMT CBT CFT DBT GT IDD IPT PTM TT ? CIT WI ? PVTN ? 
CLF CMHG CSBG ITU MC MD MI OSF PI SCJJ SEF SF SMHA SWFS VAF ? PA SS ? TAY CJ CO 
TRMA PTSD SED SMI ? ACT CDM CM COOT FPSY HS ICM IMR PRS SEMP SH SPS ? STU TCC 
? SMPD ? ADLT CHLD SNR YAD ? AH"
NorthKey Community Care Pendleton County Office,318 Montjoy Street,Falmouth,Kentucky 41040,41040,"? MH SUMH ? OP ? CMHC ? BMT CBT CFT GT IDD IPT PTM TT ? CIT ? PVTN ? CLF CMHG MC 
MD MI OSF PI SEF SF SI SMHA ? SS ? ACT CM COOT FPSY ICM SPS ? STU ? SMON ? ADLT 
CHLD SNR YAD ? AH"
Comprehend Inc Fleming County CMHC,610 Elizaville Avenue,Flemingsburg,Kentucky 41041,41041,"? MH SUMH ? OP ? CMHC ? BMT CBT CFT DBT GT IDD IPT PTM TT ? CIT WI ? PVTN ? CLF 
CMHG CSBG MC MD MI OSF PI SCJJ SEF SF SI SMHA SWFS VAF ? SS ? CO TRMA ? CDM CM 
COOT FPSY ICM IMR SEMP SPS VRS PEER ? STU ? SMPD ? ADLT CHLD SNR YAD ? AH"
Florence CBOC,7310 Turfway Road Suite 510,Florence,Kentucky 41042,41042,"? MH ? OP TELE ? BMT CBT CFT DBT GT IDD IPT PTM TT ? CIT ? VAMC ? MI PI SF VAF ? VET 
TRMA PTSD ? CDM COOT DEC FPSY IMR IPC SPS ? NRT NSC STU TCC ? SMPD ? ADLT SNR 
YAD ? VO"
NorthKey Community Care JE Willett Treatment Center,7459 Burlington Pike,Florence,Kentucky 41042,41042,"? MH SUMH ? OP ? CMHC ? BMT CBT CFT DBT GT IDD IPT PTM TT ? CIT ? PVTN ? CMHG MC 
MD MI OSF PI SCJJ SF SI SMHA ? SS ? ACT CM COOT FPSY ICM IMR SEMP SPS ? STU ? 
SMON ? ADLT CHLD SNR YAD ? AH"
Louisville VAMC VA Healthcare Center Fort Knox,289 Ireland Avenue,Fort Knox,Kentucky 40121,40121,"? MH SUMH ? OP TELE ? BMT CFT IDD ? VAMC ? PI SF VAF ? SE GL CJ CO HV TRMA TBI ALZ 
PTSD ? DEC FPSY SEMP VRS ? STU ? SMPD ? ADLT SNR YAD ? VO ? AH"
New Vista Franklin County Outpatient Clinic,191 Doctors Drive,Frankfort,Kentucky 40601,40601,"? MH SUMH ? OP TELE ? CMHC ? AT BMT CBT CFT DBT GT IDD IPT PTM TT ? CIT WI ? PVTN 
? FQHC ? CLF CMHG CSBG MC MD MI OSF PI SCJJ SF SI SMHA SWFS ? SS ? CJ CO SED 
SMI ? ACT CM COOT FPSY ICM IPC SPS ? NSC STU TCC ? SMPD ? ADLT CHLD SNR YAD ? 
AH"
LifeSkills Inc,1031 Brookhaven Road,Franklin,Kentucky 42134,42134,"? MH SUMH ? OP ? CMHC ? BMT CBT CFT GT IDD IPT TT ? CIT ? PVTN ? CMHG MC MD PI 
SCJJ SF SI SMHA ? TAY CO TRMA SED SMI ? CM COOT FPSY IMR SEMP SH SPS ? SMPD ? 
ADLT CHLD SNR YAD ? AH"
Pathways Inc,70 Main Street,Frenchburg,Kentucky 40322,40322,"? MH SUMH ? OP TELE ? CMHC ? BMT CBT CFT DBT GT IPT PTM ? CIT WI ? PVTN ? CMHG 
CSBG MC MD MI OSF PI SCJJ SF SMHA SWFS VAF ? PA SS ? CJ CO SED SMI ? CDM CM 
COOT FPSY HS ICM SEMP SH SPS PEER ? STU ? SMPD ? ADLT CHLD SNR YAD ? AH"
New Vista Scott County Outpatient Clinic,110 Roach Street,Georgetown,Kentucky 40324,40324,"? MH SUMH ? OP ? CMHC ? CBT CFT DBT GT IDD IPT PTM TT ? PVTN ? CLF CMHG CSBG 
MC MD OSF PI SCJJ SEF SF SI SMHA SWFS VAF ? SS ? CO SED SMI ? CM COOT FPSY PRS ? 
STU ? SMPD ? ADLT CHLD SNR YAD ? AH"
LifeSkills Inc Barren County Service Center,608 Happy Valley Road,Glasgow,Kentucky 42141,42141,"? MH SUMH ? OP PHDT TELE ? CMHC ? BMT CBT CFT GT IDD IPT PTM TT ? CIT ? PVTN ? 
MC MD PI SF SI ? SE CO SED SMI ? CM COOT FPSY IMR SPS PEER ? SMPD ? ADLT CHLD 
SNR YAD ? AH"
Pathways Inc,840 Interstate Drive,Grayson,Kentucky 41143,41143,"? MH SUMH ? OP TELE ? CMHC ? BMT CBT CFT DBT GT IPT PTM TT ? CIT WI ? PVTN ? 
CMHG CSBG MC MD MI OSF PI SCJJ SF SMHA SWFS VAF ? PA SS ? CJ CO SED SMI ? CDM 
CM COOT FPSY HS ICM IMR PRS SEMP SH SPS PEER ? STU ? SMPD ? ADLT CHLD SNR YAD 
? AH"
Adanta Group Green County Mental Health Center,521 Old Hodgenville Road,Greensburg,Kentucky 42743,42743,"? MH SUMH ? OP ? CMHC ? CBT CFT GT IDD IPT PTM TT ? CIT WI ? PVTN ? CMHG CSBG MC 
MD MI OSF PI SCJJ SEF SF SI SMHA SWFS VAF ? TAY CO TRMA PTSD SED SMI ? CM COOT 
FPSY HS PRS SEMP SPS PEER ? STU ? SMPD ? ADLT CHLD SNR YAD ? AH"
Pathways Inc,57 Dora Lane,Greenup,Kentucky 41144,41144,"? MH SUMH ? OP TELE ? CMHC ? BMT CBT CFT DBT GT IPT PTM ? CIT WI ? PVTN ? CMHG 
CSBG MC MD MI OSF PI SCJJ SF SMHA SWFS VAF ? PA SS ? CJ CO SED SMI ? ACT CDM CM 
COOT FPSY HS ICM IMR SEMP SH SPS PEER ? STU ? SMPD ? ADLT CHLD SNR YAD ? AH"
Pennyroyal Center,506 Hopkinsville Street,Greenville,Kentucky 42345,42345,"? MH SUMH ? OP TELE ? CMHC ? BMT CBT CFT GT IDD IPT PTM TT ? CIT WI ? PVTN ? CLF 
CMHG CSBG MC MD MI OSF PI SCJJ SEF SF SI SMHA SWFS ? PA SS ? SED SMI ? ACT CM 
COOT ES FPSY ICM IMR PRS SEMP SPS VRS PEER ? STU ? SMON ? ADLT CHLD SNR YAD ? 
AH"
Communicare Outpatient Clinic Hardinsburg OP Clinic,207 Fairgrounds Road Suite B,Hardinsburg,Kentucky 40143,40143,"? MH SUMH ? OP TELE ? CMHC ? BMT CBT CFT GT IDD IPT PTM TT ? WI ? PVTN ? FQHC ? 
CLF CMHG CSBG MC MD MI OSF PI SCJJ SF SI SMHA SWFS ? SS ? TAY CO SMI ? CM COOT 
IMR SEMP PEER ? SMPD ? ADLT CHLD SNR YAD ? AH"
Cumberland River Behavioral Health,134 Comprehensive Drive,Harlan,Kentucky 40831,40831,"? MH SUMH ? OP PHDT TELE ? CMHC ? BMT CBT CFT GT IDD IPT PTM TT ? CIT WI ? PVTN ? 
CLF CMHG MC MD MI OSF PI SCJJ SF SI SMHA ? SS ? CO SED SMI ? ACT CDM CM COOT 
DEC ES FPSY HS ICM IMR PRS SEMP SH SPS PEER ? STU ? SMPD ? ADLT CHLD SNR YAD ? 
AH"
Harlan ARH Hospital Center for Behavioral Health,81 Ball Park Road,Harlan,Kentucky 40831,40831,"? MH SUMH ? HI OP TELE ? PSY ? AT GT IPT PTM ? WI ? PVTN ? MC MD MI PI SF SI ? SE 
ALZ ? DEC FPSY SPS ? NRT STU ? SMON ? ADLT SNR YAD ? AH"
Hancock County Office,107 Harrison Street,Hawesville,Kentucky 42348,42348,"? MH SUMH ? OP ? CMHC ? AT CBT CFT DBT GT IDD IPT TT ? CIT ? LMG ? CMHG MC MD MI 
PI SCJJ SF SMHA ? CO PTSD ? ACT CM COOT SPS ? SMPD ? ADLT CHLD SNR YAD ? AH"
ARH Regional Medical Center Psychiatric Center,102 Medical Center Drive,Hazard,Kentucky 41701,41701,"? MH SUMH ? HI ? PSY ? AT BMT CBT DBT GT IDD IPT PTM TT ? WI ? PVTN ? MC MD PI SCJJ 
SF SI SMHA SWFS ? SE CO SMI ? ACT CM LAD SPS ? NRT NSC STU ? SMON ? ADLT SNR 
YAD ? AH"
Kentucky River Community Care Inc,310 Roy Campbell Drive,Hazard,Kentucky 41701,41701,"? MH SUMH ? OP TELE ? CMHC ? BMT CBT DBT GT IDD IPT PTM TT ? CIT WI ? PVTN ? CLF 
CMHG CSBG MC MD MI OSF PI SCJJ SF SMHA SWFS VAF ? CO TRMA SMI ? ACT CDM CM 
DEC FPSY HS ICM IMR PRS SEMP SH SPS VRS PEER ? SMPD ? ADLT CHLD SNR YAD ? AH"
Kentucky River Community Care Inc Perry Outpatient Services,115 Rockwood Lane,Hazard,Kentucky 41701,41701,"? MH SUMH ? OP TELE ? CMHC ? BMT CBT CFT DBT GT IDD IPT PTM TT ? CIT WI ? PVTN ? 
CLF CMHG CSBG ITU MC MD MI OSF PI SCJJ SEF SF SMHA SWFS VAF ? PA SS ? TAY CJ CO 
TRMA PTSD SED SMI ? ACT CDM CM COOT FPSY HS ICM IMR PRS SEMP SH SPS ? STU TCC 
? SMPD ? ADLT CHLD SNR YAD ? AH"
Kentucky River Community Care Inc Project ADDVANCE,91 Little Grapevine Creek Road,Hazard,Kentucky 41701,41701,"? MH SUMH ? OP PHDT TELE ? CMHC ? BMT CBT CFT DBT GT IDD IPT PTM TT ? CIT WI ? 
PVTN ? MD PI SCJJ SF SI SMHA SWFS ? SS ? CO TRMA PTSD SMI ? CM COOT DEC ES FPSY 
IPC SEMP SPS PEER ? SMPD ? ADLT SNR YAD ? AH"
Henderson County Office,618 North Green Street,Henderson,Kentucky 42420,42420,"? MH SUMH ? OP TELE ? CMHC ? CBT CFT GT IDD IPT PTM TT ? CIT WI ? LMG ? CMHG MC 
MD PI SF SI SMHA SWFS ? TAY CJ CO PTSD SED ? ACT CM COOT ICM SPS ? SMPD ? ADLT 
CHLD SNR YAD ? AH"
RiverValley Behavioral Health Hospital New Place TRP,205 U.S. Highway 2084 South,Henderson,Kentucky 42420,42420,"? MH ? PHDT ? PH ? AT BMT CBT GT IPT PTM ? PVTN ? CMHG MC MD PI SF SI SMHA ? PA 
SS ? SMI ? CM IMR PRS PEER ? SMPD ? ADLT SNR YAD ? AH"
Communicare Inc LaRue County Clinic,80 Phillips Lane Suite 2,Hodgenville,Kentucky 42748,42748,"? MH SUMH ? OP TELE ? CMHC ? BMT CBT CFT DBT GT IDD IPT PTM TT ? CIT ? PVTN ? 
CMHG CSBG MC MD MI PI SF SMHA SWFS ? TAY SE GL VET MF CJ CO HV TRMA TBI PTSD 
SED SMI ? CM IMR SEMP PEER ? SMPD ? ADLT CHLD SNR YAD ? AH"
ABS Lincs KY LLC DBA Cumberland Hall,270 Walton Way,Hopkinsville,Kentucky 42240,42240,"? MH SUMH ? HI PHDT ? PSY ? AT BMT CBT CFT DBT GT IDD IPT PTM TT ? CIT WI ? PVTP ? 
CLF MC MD MI OSF PI SCJJ SEF SF SI SMHA SWFS VAF ? GL VET ADM MF CO TRMA TBI 
PTSD SED SMI ? SPS ? STU TCC ? SMPD ? ADLT CHLD SNR YAD ? AH"
Pennyroyal Center,Hopkinsville Clinic Adult/Children 735 North Drive,Hopkinsville,Kentucky 42240,42240,"? MH SUMH ? OP TELE ? CMHC ? BMT CBT CFT DBT GT IDD IPT PTM TT ? CIT WI ? PVTN ? 
CLF CMHG CSBG MC MD MI OSF PI SCJJ SEF SF SI SMHA SWFS ? PA SS ? CJ CO SED SMI ? 
ACT CM COOT ES FPSY HS ICM IMR PRS SEMP SH SPS VRS PEER ? STU ? SMON ? ADLT 
CHLD SNR YAD ? AH"
Kentucky River Community Care Inc Leslie Outpatient,28 Fire House Lane,Hyden,Kentucky 41749,41749,"? MH SUMH ? OP TELE ? CMHC ? BMT CBT CFT DBT GT IDD IPT PTM TT ? CIT WI ? PVTN ? 
CLF CMHG CSBG ITU MC MD MI OSF PI SCJJ SEF SF SMHA SWFS VAF ? PA SS ? TAY CJ CO 
TRMA PTSD SED SMI ? ACT CDM CM COOT FPSY HS ICM IMR PRS SEMP SH SPS ? STU TCC 
? SMPD ? ADLT CHLD SNR YAD ? AH"
Mountain Comprehensive Care Center Martin County Outpatient Clinic,154 Rockcastle Road,Inez,Kentucky 41224,41224,"? MH SUMH ? OP TELE ? CMHC ? CBT CFT GT IPT PTM TT ? CIT WI ? PVTN ? FQHC ? MD MI 
OSF PI SF SI SWFS VAF ? VET MF CO TRMA PTSD SED SMI ? CM COOT FPSY HS ICM PRS 
SPS PEER ? SMON ? ADLT CHLD SNR YAD ? AH"
New Vista Estill County Outpatient Clinic,149 Richmond Road,Irvine,Kentucky 40336,40336,"? MH SUMH ? OP TELE ? CMHC ? BMT CBT CFT DBT GT IDD IPT PTM TT ? CIT WI ? PVTN ? 
CMHG CSBG MD OSF SF SMHA ? CM COOT FPSY IMR PRS SPS ? STU ? SMPD ? ADLT CHLD 
SNR YAD ? AH"
Kentucky River Community Care Inc Breathitt Outpatient,3830 Highway 15 South,Jackson,Kentucky 41339,41339,"? MH SUMH ? OP TELE ? CMHC ? BMT CBT CFT DBT GT IDD IPT PTM TT ? CIT WI ? PVTN ? 
CLF CMHG CSBG ITU MC MD MI OSF PI SCJJ SEF SF SMHA SWFS VAF ? PA SS ? TAY CJ CO 
TRMA PTSD SED SMI ? ACT CDM CM COOT FPSY HS ICM IMR PRS SEMP SH SPS ? STU TCC 
? SMPD ? ADLT CHLD SNR YAD ? AH"
Adanta Group Adult Crisis Stabilization Unit,163 Herrifords Curve Road,Jamestown,Kentucky 42629,42629,"? MH SUMH ? RES ? RTCA ? CBT CFT GT IDD IPT TT ? CIT WI ? PVTN ? CMHG CSBG MC MD 
MI OSF PI SF SI SMHA VAF ? SE CO TRMA PTSD SMI ? HS SPS PEER ? STU ? SMPD ? ADLT 
SNR YAD ? AH"
Adanta Group Russell County Clinic,119 Herrifords Curve Road,Jamestown,Kentucky 42629,42629,"? MH SUMH ? OP ? CMHC ? CBT CFT GT IDD IPT PTM TT ? CIT WI ? PVTN ? CMHG CSBG MC 
MD MI OSF PI SCJJ SEF SF SI SMHA SWFS VAF ? TAY SE CO TRMA PTSD SED SMI ? CM 
COOT FPSY HS PRS SEMP SPS PEER ? STU ? SMPD ? ADLT CHLD SNR YAD ? AH"
Centerstone LaGrange Center,2141 Spencer Court,La Grange,Kentucky 40031,40031,"? MH SUMH ? OP ? CMHC ? BMT CBT CFT DBT GT IDD IPT PTM TT ? CIT WI ? PVTN ? CLF 
CMHG CSBG MC MD OSF PI SCJJ SF SI SMHA SWFS ? CO SED SMI ? CDM CM COOT ES 
FPSY IMR PRS SPS PEER ? SMPD ? ADLT CHLD SNR YAD ? AH"
Catholic Charities Diocese of Covington,3629 Church Street,Latonia,Kentucky 41015,41015,"? MH SUMH ? OP ? OMH ? CFT GT IDD IPT TT ? PVTN ? PI SF ? PA ? CM ES HS SH ? STU ? 
SMON ? ADLT CHLD SNR YAD"
New Vista Anderson County Outpatient Clinic,1060 Glensboro Road,Lawrenceburg,Kentucky 40342,40342,"? MH SUMH ? OP TELE ? CMHC ? AT BMT CBT CFT DBT IDD IPT PTM TT ? CIT ? PVTN ? MD 
OSF SF SI SMHA SWFS ? PA SS ? CO SED SMI ? CM COOT ES FPSY HS SPS ? SMPD ? ADLT 
CHLD SNR YAD ? AH"
Communicare Outpatient Clinic 805,Commerce Drive,Leitchfield,Kentucky 42754,42754,"? MH SUMH ? OP ? OMH ? AT BMT CBT CFT GT IDD IPT PTM TT ? CIT WI ? PVTN ? MC MD MI 
PI SF SI ? TAY SE CO TRMA SED SMI ? CM COOT FPSY IMR SEMP SPS PEER ? SMPD ? ADLT 
CHLD SNR YAD ? AH"
Bluegrass Regional Mental Health MR Board,1351 Newtown Pike,Lexington,Kentucky 40511,40511,"? MH SUMH ? OP TELE ? CMHC ? CBT CFT DBT GT IDD IPT PTM TT ? CIT ? PVTN ? CLF 
CMHG CSBG MC MD MI PI SCJJ SEF SF SI SMHA SWFS ? SS ? SMI ? ACT CM COOT SPS 
PEER ? STU ? SMON ? ADLT CHLD SNR YAD ? AH"
Eastern State Hospital,1350 Bull Lee Road,Lexington,Kentucky 40511,40511,"? MH ? HI ? PSY ? AT BMT CBT DBT GT IDD IPT PTM TT ? CIT ? OSG ? MC MD MI OSF PI SF 
SI VAF ? PA SS ? CDM CM DEC ES IMR PRS SPS PEER ? NRT STU TCC ? SMON ? ADLT SNR 
YAD"
Oliver Winston Behavioral Urgent Care,1618 Harrodsburg Road,Lexington,Kentucky 40504,40504,"? MH SUMH ? OP ? OMH ? BMT CBT CFT GT IDD IPT PTM TT ? WI ? PVTP ? MC MD PI SCJJ 
SF SI SMHA SWFS ? SS ? SE CO SMI ? CM COOT FPSY SPS ? NSC STU TCC ? SMPD ? ADLT 
CHLD SNR YAD ? AH"
Resurrection Treatment Clinics,1718 Alexandria Drive Suite 101,Lexington,Kentucky 40504,40504,"? MH SUMH ? OP ? OMH ? AT BMT CBT CFT GT IDD IPT TT ? CIT ? PVTP ? MC MD PI SF ? SS 
? SE GL VET ADM MF CJ CO HV TRMA TBI PTSD SMI ? CM COOT LAD SPS ? STU ? SMPD ? 
ADLT SNR YAD"
Ridge Behavioral Health System Psychiatric and SUD Treatment,3050 Rio Dosa Drive,Lexington,Kentucky 40509,40509,"? MH SUMH ? HI OP PHDT TELE ? PSY ? AT BMT CBT CFT DBT ECT GT IDD PTM TT ? CIT WI 
? PVTP ? MC MD MI PI SF SI SWFS VAF ? SE CO ALZ SED ? COOT ES FPSY IMR SPS ? NRT 
NSC STU TCC ? SMPD ? ADLT CHLD SNR YAD ? AH"
Specialized Alternatives for Families In Use,861 Corporate Drive Suite 101,Lexington,Kentucky 40503,40503,"? MH SUMH ? OP ? OMH ? BMT CBT CFT DBT IDD IPT TT ? PVTN ? CMHG CSBG MD PI SCJJ 
SEF SF SWFS ? SS ? TRMA PTSD ? CM COOT FPSY SPS TPC ? SMPD ? ADLT CHLD SNR 
YAD"
Sunrise Childrens Services Southern Bluegrass Region TFC,2465 C Nicholasville Road,Lexington,Kentucky 40503,40503,"? MH ? OP TELE ? OMH ? AT BMT CBT CFT GT IPT TT ? CIT ? PVTN ? CLF CMHG MD OSF PI 
SCJJ SI SMHA ? TAY GL MF CO TRMA TBI PED PTSD ? CM FPSY SPS TPC ? SMON ? CHLD 
YAD"
UK Healthcare Good Samaritan,310 South Limestone Street,Lexington,Kentucky 40508,40508,"? MH SUMH ? HI ? PSY ? AT ECT GT PTM ? CIT WI ? PVTP ? MC MD MI PI SF SI SMHA SWFS 
VAF ? PED ? DEC ES FPSY SPS ? NRT STU TCC ? SMON ? ADLT CHLD SNR YAD ? AH"
Adanta Group Casey County Clinic,322 Middleburg Street,Liberty,Kentucky 42539,42539,"? MH SUMH ? OP TELE ? CMHC ? CBT CFT GT IDD IPT PTM TT ? CIT WI ? PVTN ? CMHG 
CSBG MC MD MI OSF PI SCJJ SEF SF SI SMHA SWFS VAF ? TAY SE CO TRMA PTSD SED SMI 
? CM COOT FPSY HS PRS SEMP SPS PEER ? STU ? SMPD ? ADLT CHLD SNR YAD ? AH"
Cumberland River Behavioral Health,915 North Laurel Road,London,Kentucky 40741,40741,"? MH ? OP PHDT TELE ? CMHC ? BMT CBT CFT DBT GT IDD IPT PTM TT ? CIT WI ? PVTN ? 
CLF CMHG CSBG MC MD MI OSF PI SCJJ SF SI SMHA SWFS ? SS ? TAY CO SED SMI ? ACT 
CM COOT ICM IMR PRS SEMP SH SPS PEER ? STU ? SMPD ? ADLT CHLD SNR YAD ? AH"
Haven House,349 Riverbend Road,London,Kentucky 40744,40744,"? MH SUMH ? RES TELE ? RTCA ? AT BMT CBT GT IDD IPT PTM TT ? CIT WI ? PVTN ? CMHG 
MC MD MI OSF PI SF SI SMHA VAF ? PA SS ? SMI ? DEC ES FPSY IMR PRS SPS PEER ? STU 
TCC ? SMPD ? ADLT SNR YAD ? AH"
Spectrum Care Academy Inc Spectrum Care/London I and II,1551 Lick Fork Road,London,Kentucky 40741,40741,"? MH SUMH ? RES ? RTCC ? AT BMT CBT CFT DBT GT IDD IPT PTM TT ? PVTP ? MD ? SED ? 
CDM CM DEC ES FPSY PRS SPS ? STU ? SMON ? CLHD"
Pathways Inc,60 Professional Park Drive,Louisa,Kentucky 41230,41230,"? MH SUMH ? OP TELE ? CMHC ? BMT CBT CFT DBT GT IPT PTM TT ? CIT ? PVTN ? CMHG 
CSBG MC MD MI OSF PI SCJJ SF SI SMHA SWFS VAF ? PA SS ? TAY CJ CO SED SMI ? CM 
COOT FPSY HS ICM IMR SEMP SH PEER ? STU ? SMPD ? ADLT CHLD SNR YAD ? AH"
Three Rivers Medical Center Mental Health,2485 Highway 644,Louisa,Kentucky 41230,41230,"? MH SUMH ? HI ? PSY ? AT CFT GT IPT PTM ? CIT WI ? PVTP ? MC MD MI PI SF SI ? CM DEC 
IPC PRS SPS ? NRT STU TCC ? SMON ? ADLT SNR YAD ? AH"
Baptist Health Louisville/Baptist Behavioral Health,4000 Kresge Way,Louisville,Kentucky 40207,40207,"? MH SUMH ? HI PHDT ? PSY ? CFT ECT GT IPT PTM ? PVTN ? MC MD MI PI SF SI ? CM ES 
FPSY SPS ? STU TCC ? SMON ? ADLT SNR YAD ? AH"
Brook Hospital Dupont,1405 Browns Lane,Louisville,Kentucky 40207,40207,"? MH ? HI PHDT TELE ? PSY ? AT BMT CBT CFT GT IDD IPT PTM ? CIT WI ? PVTP ? MC MD MI 
PI SF SI ? SE ALZ ? CM ES FPSY SPS ? NRT STU TCC ? SMPD ? ADLT CHLD SNR YAD ? AH"
Brook Hospital KMI/Kentucky,8521 La Grange Road,Louisville,Kentucky 40242,40242,"? MH ? HI OP PHDT RES ? PSY ? AT CBT CFT DBT ECT GT IDD IPT PTM TT ? CIT WI ? PVTP 
? MC MD MI PI SF SI ? CO TRMA ? ES FPSY SPS ? NRT NSC STU TCC ? SMPD ? ADLT CHLD 
SNR YAD ? AH"
Centerstone Behavioral Health Services South,9702 Stonestreet Road,Louisville,Kentucky 40272,40272,"? MH SUMH ? OP ? CMHC ? BMT CBT CFT GT IDD IPT PTM TT ? CIT WI ? PVTN ? CLF CMHG 
CSBG MC MD OSF PI SF SI SMHA SWFS ? SED SMI ? ES FPSY SPS ? SMPD ? ADLT CHLD 
SNR YAD ? AH"
Centerstone Behavioral Health Services West,2225 West Broadway,Louisville,Kentucky 40211,40211,"? MH SUMH ? OP TELE ? CMHC ? BMT CBT CFT GT IDD IPT PTM TT ? CIT WI ? PVTN ? CLF 
CMHG CSBG MC MD OSF PI SF SI SMHA SWFS ? MF PTSD SED ? ACT COOT ES FPSY PRS 
SEMP SPS TPC VRS ? SMPD ? CHLD ? AH"
Centerstone Bellewood Campus,11103 Park Road,Louisville,Kentucky 40223,40223,"? MH SUMH ? RES ? RTCC ? AT BMT CBT CFT DBT GT IDD IPT PTM TT ? PVTN ? MD PI SCJJ 
SF SI SMHA SWFS ? SED ? CM ES FPSY SPS ? TCC ? SMON ? CLHD"
Centerstone Brooklawn Campus,3121 Brooklawn Campus Drive,Louisville,Kentucky 40218,40218,"? MH SUMH ? RES ? RTCC ? AT BMT CBT CFT DBT GT IDD IPT PTM TT ? PVTN ? MD PI SCJJ 
SF SI SMHA SWFS ? SED ? CM DEC ES FPSY SPS TPC VRS ? STU TCC ? SMON ? CLHD"
Centerstone Center One Downtown,708 Magazine Street,Louisville,Kentucky 40203,40203,"? MH SUMH ? OP TELE ? CMHC ? AT BMT CBT CFT DBT GT IDD IPT PTM TT ? CIT WI ? PVTN 
? CLF CMHG CSBG MC MD OSF PI SCJJ SF SI SMHA SWFS ? CJ CO SMI ? ACT CDM CM 
COOT ES FPSY IMR PRS SEMP SPS VRS PEER ? SMPD ? ADLT SNR YAD ? AH"
Centerstone Center One East,4710 Champions Trace Lane Suite 102,Louisville,Kentucky 40218,40218,"? MH SUMH ? OP ? CMHC ? BMT CBT CFT DBT GT IDD IPT PTM TT ? CIT WI ? PVTN ? CLF 
CMHG CSBG MC MD OSF PI SCJJ SF SI SMHA SWFS ? CO SMI ? CDM CM ES FPSY IMR SPS 
PEER ? SMPD ? ADLT SNR YAD ? AH"
Centerstone Center One South,2105 Crums Lane,Louisville,Kentucky 40216,40216,"? MH SUMH ? OP ? CMHC ? BMT CBT CFT DBT GT IDD IPT PTM TT ? CIT WI ? PVTN ? CLF 
CMHG CSBG MC MD OSF PI SCJJ SF SI SMHA SWFS ? CO SMI ? CDM CM ES FPSY IMR SPS 
PEER ? SMPD ? ADLT SNR YAD ? AH"
Centerstone Center One West,2650 West Broadway,Louisville,Kentucky 40211,40211,"? MH SUMH ? OP ? CMHC ? BMT CBT CFT DBT GT IDD IPT PTM TT ? CIT WI ? PVTN ? CLF 
CMHG CSBG MC MD OSF PI SCJJ SF SI SMHA SWFS ? CO SMI ? CDM CM ES FPSY IMR SPS 
PEER ? SMPD ? ADLT SNR YAD ? AH"
Centerstone Child and Family Services,914 East Broadway,Louisville,Kentucky 40204,40204,"? MH SUMH ? OP RES ? MSNH ? BMT CBT CFT GT IDD IPT PTM TT ? CIT WI ? PVTN ? CLF 
CMHG CSBG MC MD OSF PI SCJJ SF SI SMHA SWFS ? CO SED ? CM COOT ES FPSY SPS ? 
SMPD ? ADLT CHLD SNR YAD ? AH"
Centerstone Housing First,4710 Champions Trace Suite 101,Louisville,Kentucky 40218,40218,"? MH ? OP ? CMHC ? BMT CBT CFT DBT GT IDD IPT PTM TT ? CIT ? PVTN ? CLF CMHG 
CSBG MC MD OSF PI SF SI SMHA SWFS ? CO SMI ? CDM CM ES FPSY HS IMR PRS SH SPS 
PEER ? SMPD ? ADLT SNR YAD ? AH"
Centerstone Waller Therapeutic Program,2415 Rockford Lane,Louisville,Kentucky 40216,40216,"? MH SUMH ? OP ? CMHC ? BMT CBT CFT GT IPT PTM TT ? CIT ? PVTN ? CLF CMHG CSBG 
MD OSF PI SF SI SMHA SWFS ? MF PTSD SED ? CM SPS ? SMPD ? CHLD ? AH"
Centerstone Western Day Treatment,1900 South 7th Street,Louisville,Kentucky 40208,40208,"? MH SUMH ? OP ? CMHC ? BMT CBT CFT GT IPT PTM TT ? CIT ? PVTN ? CLF CMHG CSBG 
MC MD OSF PI SEF SF SI SMHA SWFS ? SED ? ES FPSY SPS ? SMPD ? CHLD ? AH"
Centerstone of Kentucky School Based,4710 Champions Trace Suite 107,Louisville,Kentucky 40218,40218,"? MH SUMH ? OP ? CMHC ? BMT CBT CFT GT IPT PTM TT ? CIT WI ? PVTN ? CLF CMHG 
CSBG MD OSF PI SF SI SMHA SWFS ? SED ? ES FPSY SPS ? SMPD ? CHLD ? AH"
Central State Hospital,10510 La Grange Road,Louisville,Kentucky 40223,40223,"? MH SUMH ? HI ? PSY ? AT BMT CBT GT IDD IPT PTM TT ? OSG ? MC MD MI OSF PI SF ? 
CO SMI ? ACT CM DEC ES HS ICM SH SPS ? NRT STU ? SMON ? ADLT SNR YAD ? AH"
Family and Childrens Place,525 Zane Street,Louisville,Kentucky 40203,40203,"? MH ? OP ? OMH ? CBT CFT DBT GT IPT TT ? PVTN ? CLF MD OSF SF SWFS ? PA SS ? 
TRMA PTSD ? CM FPSY SPS ? SMON ? ADLT CHLD YAD ? AH ? SP"
Family and Childrens Place,1000 South 5th Street,Louisville,Kentucky 40203,40203,"? MH ? OP ? OMH ? BMT CBT CFT DBT GT IPT TT ? CIT ? PVTN ? FQHC ? CLF MD OSF SCJJ 
SF SWFS ? PA ? CO TRMA PTSD ? CM FPSY LAD SPS ? SMON ? ADLT CHLD SNR YAD ? AH ? 
SP"
Home of the Innocents,1100 East Market Street,Louisville,Kentucky 40206,40206,"? MH ? OP RES ? MSNH ? AT BMT CBT CFT DBT GT IPT PTM TT ? PVTN ? CLF MD OSF PI 
SCJJ SEF SF SI SMHA SWFS ? TAY TRMA PTSD SED ? CM COOT DEC ES FPSY HS ICM IPC 
PRS SEMP SH SPS TPC ? SMON ? CHLD YAD"
Louisville VAMC VA Healthcare Center Newburg,3430 Newburg Road,Louisville,Kentucky 40218,40218,"? MH SUMH ? OP TELE ? OMH ? CBT DBT GT IDD IPT PTM TT ? CIT ? VAMC ? MD PI SF SI 
VAF ? GL VET ALZ ? ACT CM ES IPC SPS ? NRT NSC STU TCC ? SMPD ? ADLT SNR YAD ? 
VO ? AH"
Louisville VAMC VA Healthcare Center Shively,3934 Dixie Highway Suite 210,Louisville,Kentucky 40216,40216,"? MH SUMH ? OP TELE ? CBT DBT GT IDD PTM TT ? CIT WI ? VAMC ? PI SF VAF ? VET ? 
CDM CM DEC ES HS IPC PRS SEMP SH SPS VRS ? STU TCC ? SMPD ? ADLT SNR YAD ? VO"
Louisville VAMC VA Healthcare Center Stoneybrook,9208 Taylorsville Road,Louisville,Kentucky 40299,40299,"? MH SUMH ? OP TELE ? CBT CFT DBT GT IDD IPT PTM TT ? VAMC ? MC PI SF VAF ? SE VET 
CO PTSD SMI ? CM ES FPSY IMR IPC SPS PEER ? NRT NSC STU TCC ? SMPD ? ADLT SNR 
YAD ? VO ? AH"
Maryhurst,1015 Dorsey Lane,Louisville,Kentucky 40223,40223,"? MH SUMH ? OP RES ? RTCC ? AT BMT CBT CFT DBT GT IDD IPT PTM TT ? CIT ? PVTN ? 
MD OSF SWFS ? CO TRMA PTSD SED ? CM DEC ES FPSY PRS SPS ? SMON ? CLHD"
Maryhurst Rosehaven,2252 Payne Street,Louisville,Kentucky 40206,40206,"? MH SUMH ? RES ? RTCC ? AT BMT CBT CFT DBT GT IDD IPT PTM TT ? PVTN ? MD OSF 
SWFS ? CO TRMA PTSD SED ? CM DEC FPSY HS PRS SPS ? SMON ? CLHD"
Maryhurst Treasure Home,5227 Bardstown Road,Louisville,Kentucky 40291,40291,"? MH ? RES ? RTCC ? AT BMT CBT CFT DBT GT IPT PTM TT ? PVTN ? MD OSF SWFS ? 
TRMA PTSD SED ? CM DEC FPSY PRS SPS ? SMON ? CLHD"
Norton Childrens Hospital Ackerly Behavioral Health Unit,200 East Chestnut Street,Louisville,Kentucky 40202,40202,"? MH ? HI ? PSY ? AT BMT CBT CFT DBT GT IDD IPT PTM TT ? CIT WI ? PVTN ? MC MD MI 
OSF PI SF SI SWFS ? SED ? CM DEC ES FPSY IMR PRS SPS ? NRT STU TCC ? SMON ? 
CHLD ? AH"
Our Lady of Peace,2020 Newburg Road,Louisville,Kentucky 40205,40205,"? MH SUMH ? HI OP PHDT TELE ? PSY ? AT BMT CBT CFT DBT GT IDD IPT PTM TT ? CIT WI ? 
PVTN ? MC MD PI SF SI SWFS ? TAY SE CJ CO TRMA TBI PTSD SED SMI ? COOT ES FPSY 
SPS VRS PEER ? NRT STU TCC ? SMON ? ADLT CHLD SNR YAD ? AH"
Robley Rex VA Medical Center Mental Health Service,800 Zorn Avenue,Louisville,Kentucky 40206,40206,"? MH SUMH ? HI OP RES TELE ? AT DBT ECT ? CIT WI ? VAMC ? MD MI VAF ? SE GL CJ CO 
HV TRMA TBI ALZ PTSD ? LAD SH PEER ? SMPD ? ADLT SNR YAD ? VO ? AH"
University of Louisville Hospital Emergency Psychiatric Services (EPS),530 South Jackson Street,Louisville,Kentucky 40202,40202,"? MH SUMH ? HI OP ? PSY ? AT BMT CBT DBT ECT GT IPT PTM ? WI ? PVTN ? CLF MC MD MI 
OSF PI SF SI VAF ? CDM CM DEC FPSY HS IPC LAD SPS ? NRT NSC STU TCC ? SMON ? 
ADLT SNR YAD ? AH ? SP"
Baptist Health Madisonville/Behavioral Health Unit,900 Hospital Drive,Madisonville,Kentucky 42431,42431,"? MH ? HI TELE ? PSY ? AT CBT CFT GT IPT PTM ? PVTP ? MC MD MI PI ? SE ALZ SMI ? CM 
? NRT STU TCC ? SMON ? ADLT SNR YAD"
Pennyroyal Center Madisonville Clinic,200 Clinic Drive,Madisonville,Kentucky 42431,42431,"? MH SUMH ? OP TELE ? CMHC ? BMT CBT CFT DBT GT IDD IPT PTM TT ? CIT WI ? PVTN ? 
CLF CMHG CSBG MC MD MI OSF PI SCJJ SEF SF SI SMHA SWFS ? PA SS ? CO SED SMI ? 
ACT CM COOT ES FPSY ICM IMR PRS SEMP SPS VRS PEER ? STU ? SMON ? ADLT CHLD 
SNR YAD ? AH"
Sunrise Childrens Services Foster Care,1079 Thornberry Drive Suite 203,Madisonville,Kentucky 42431,42431,"? MH ? OP ? OMH ? AT BMT CBT CFT DBT IPT TT ? CIT ? PVTN ? CMHG CSBG MD PI SF 
SWFS ? TAY SE CJ TRMA PTSD SED ? CM FPSY TPC ? SMPD ? ADLT CHLD SNR YAD"
Cumberland River Behavioral Health,565 Muddy Gap Road,Manchester,Kentucky 40962,40962,"? MH ? OP PHDT TELE ? CMHC ? BMT CBT CFT GT IDD IPT PTM TT ? CIT WI ? PVTN ? 
CMHG CSBG MC MD MI OSF PI SCJJ SF SI SMHA SWFS ? SS ? TAY CO SED SMI ? ACT CM 
COOT ICM IMR PRS SEMP SH SPS ? STU ? SMPD ? ADLT CHLD SNR YAD ? AH"
Four Rivers Behavioral Health,1525 Cuba Road,Mayfield,Kentucky 42066,42066,"? MH SUMH ? OP RES TELE ? MSNH ? CBT CFT DBT GT IDD IPT PTM TT ? CIT WI ? PVTN ? 
CMHG CSBG MC MD MI OSF PI SF SI SMHA ? CO SMI ? CM COOT FPSY IMR SEMP SPS 
PEER ? SMPD ? ADLT CHLD SNR YAD ? AH"
Four Rivers Behavioral Health Adult Crisis Stabilization Unit/CCSP,1539 Cuba Road,Mayfield,Kentucky 42066,42066,"? MH SUMH ? RES ? RTCA ? CBT DBT IDD IPT ? CIT WI ? PVTN ? MC MD PI SF SI SMHA ? PA 
SS ? SE CO SMI ? SPS ? SMPD ? ADLT SNR YAD ? AH"
Jackson Purchase Medical Center Senior Behavioral Health Unit,1099 Medical Center Circle,Mayfield,Kentucky 42066,42066,"? MH SUMH ? HI TELE ? PSY ? AT CBT GT IPT PTM ? PVTP ? MC ? SE ? CM DEC FPSY ? 
NRT STU TCC ? SMON ? SNR"
Mayfield Community Based Outpatient,1253 Paris Road Suite A,Mayfield,Kentucky 42066,42066,"? MH SUMH ? OP TELE ? BMT CBT CFT IPT PTM TT ? CIT WI ? VAMC ? MI SF VAF ? SE GL 
VET MF CO TRMA PTSD SMI ? CDM DEC ES FPSY HS IMR SEMP SPS VRS ? NRT NSC STU 
TCC ? SMPD ? ADLT SNR YAD ? VO ? AH"
Kentucky River Community Care Inc Letcher Outpatient,3367 Highway 119 North,Mayking,Kentucky 41837,41837,"? MH SUMH ? OP TELE ? CMHC ? BMT CBT CFT DBT GT IDD IPT PTM TT ? CIT WI ? PVTN ? 
CLF CMHG CSBG ITU MC MD MI OSF PI SCJJ SEF SF SMHA SWFS VAF ? PA SS ? TAY CJ CO 
TRMA PTSD SED SMI ? ACT CDM CM COOT FPSY HS ICM IMR PRS SEMP SH SPS ? STU TCC 
? SMPD ? ADLT CHLD SNR YAD ? AH"
Comprehend Inc,611 Forest Avenue,Maysville,Kentucky 41056,41056,"? MH SUMH ? OP PHDT TELE ? CMHC ? BMT CBT CFT DBT GT IDD IPT PTM TT ? CIT WI ? 
PVTN ? CLF CMHG CSBG MC MD MI OSF PI SCJJ SEF SF SI SMHA SWFS VAF ? SS ? TAY CO 
TRMA SED SMI ? ACT CDM CM COOT FPSY ICM IMR IPC PRS SEMP SH SPS VRS PEER ? 
NSC STU TCC ? SMPD ? ADLT CHLD SNR YAD ? AH ? SP"
Cumberland River Behavioral Health,1348 U.S. Highway 421 North,McKee,Kentucky 40447,40447,"? MH ? OP PHDT TELE ? CMHC ? AT BMT CBT CFT GT IDD IPT PTM TT ? CIT WI ? PVTN ? 
CLF CMHG CSBG MC MD MI OSF PI SCJJ SF SI SMHA SWFS ? SS ? GL CJ CO SED SMI ? ACT 
CM COOT ES FPSY ICM IMR PRS SEMP SPS PEER ? STU TCC ? SMPD ? ADLT CHLD SNR 
YAD ? AH"
Cumberland River Behavioral Health,324 1/2 North 19th Street,Middlesboro,Kentucky 40965,40965,"? MH SUMH ? OP PHDT TELE ? CMHC ? BMT CBT CFT GT IDD IPT PTM TT ? CIT WI ? PVTN ? 
CLF CMHG MC MD MI OSF PI SCJJ SF SI SMHA ? SS ? CO SED SMI ? ACT CDM CM COOT ES 
FPSY HS ICM IMR SEMP SH SPS PEER ? STU ? SMPD ? ADLT CHLD SNR YAD ? AH"
Adanta Group Wayne County Clinic,735 West Columbia Avenue Suite 200,Monticello,Kentucky 42633,42633,"? MH SUMH ? OP ? CMHC ? CBT CFT GT IDD IPT PTM TT ? CIT WI ? PVTN ? CMHG CSBG 
MC MD MI OSF PI SCJJ SEF SF SI SMHA SWFS VAF ? TAY CO TRMA PTSD SED SMI ? ACT CM 
COOT FPSY HS PRS SEMP SPS PEER ? STU ? SMPD ? ADLT CHLD SNR YAD ? AH"
Community Based Interventions,80 Rolling Hills Boulevard,Monticello,Kentucky 42633,42633,"? MH SUMH ? OP ? OMH ? BMT CBT CFT DBT GT IDD IPT TT ? CIT ? PVTN ? CLF MD PI SCJJ 
SF SI SWFS ? SS ? TAY SE GL VET ADM MF CJ CO HV TRMA PED PTSD SED SMI ? CM COOT 
ES FPSY HS SPS ? STU ? SMPD ? ADLT CHLD SNR YAD"
Union County Office,233 North Townsend Street,Morganfield,Kentucky 42437,42437,"? MH SUMH ? OP TELE ? OMH ? CBT CFT GT IDD IPT PTM TT ? CIT ? LMG ? CMHG MC MD 
PI SF SI SMHA SWFS ? CO PTSD SED ? CM COOT SPS ? SMPD ? ADLT CHLD SNR YAD ? AH"
LifeSkills Inc Butler County Service Center,222 Industrial Drive North,Morgantown,Kentucky 42261,42261,"? MH SUMH ? OP TELE ? CMHC ? BMT CBT CFT DBT GT IPT PTM TT ? CIT ? PVTN ? MC MD 
PI SF SI SMHA SWFS ? SS ? CM COOT SH SPS PEER ? SMPD ? ADLT CHLD SNR YAD ? AH"
Pathways Inc,300 Foxglove Drive,Mount Sterling,Kentucky 40353,40353,"? MH SUMH ? OP TELE ? CMHC ? BMT CBT CFT DBT GT IPT PTM ? CIT WI ? PVTN ? CMHG 
CSBG MC MD MI OSF PI SCJJ SF SMHA SWFS VAF ? PA SS ? CJ CO SED SMI ? CDM CM 
COOT FPSY HS ICM IMR SEMP SH SPS PEER ? STU ? SMPD ? ADLT CHLD SNR YAD ? AH"
Cumberland River Behavioral Health,260 Valley View Lane,Mount Vernon,Kentucky 40456,40456,"? MH ? OP PHDT TELE ? CMHC ? BMT CBT CFT GT IDD IPT PTM TT ? CIT WI ? PVTN ? CLF 
CMHG CSBG MC MD MI OSF PI SCJJ SF SI SMHA SWFS ? SS ? CO SED SMI ? ACT CM COOT 
IMR PRS SEMP SPS VRS PEER ? STU ? SMPD ? ADLT CHLD SNR YAD ? AH"
Pathways Inc,321 East Main Street,Morehead,Kentucky 40351,40351,"? MH SUMH ? OP TELE ? CMHC ? BMT CBT CFT DBT GT IPT PTM ? CIT WI ? PVTN ? CMHG 
CSBG MC MD MI OSF PI SCJJ SF SMHA SWFS ? PA SS ? CJ CO SED SMI ? CDM CM COOT 
FPSY ICM IMR SEMP SH SPS PEER ? STU ? SMPD ? ADLT CHLD SNR YAD ? AH"
Saint Claire Medical Center Behavioral Health Services,222 Medical Circle,Morehead,Kentucky 40351,40351,"? MH SUMH ? HI OP ? PSY ? AT BMT GT IPT PTM TT ? PVTN ? MC MD PI SF SI SMHA SWFS ? 
CM DEC ES FPSY IPC SPS ? NRT NSC STU ? SMON ? ADLT SNR YAD ? AH"
Sunrise Childrens Services Spring Meadow Center,330 Hope Street,Mount Washington,Kentucky 40047,40047,"? MH ? RES ? RTCC ? AT BMT CBT CFT GT IDD IPT PTM TT ? PVTN ? MD PI SF SI SWFS ? 
TRMA PTSD SED ? CM ES FPSY IMR SPS VRS ? STU ? SMON ? CLHD"
LifeSkills Inc,118 West Union Street,Munfordville,Kentucky 42765,42765,"? MH SUMH ? OP TELE ? CMHC ? BMT CBT CFT DBT GT IDD IPT PTM TT ? CIT WI ? PVTN ? 
CLF CMHG MC MD MI OSF PI SCJJ SEF SF SWFS VAF ? CO SED SMI ? CDM CM COOT FPSY 
IMR SPS ? SMPD ? ADLT CHLD SNR YAD ? AH"
Four Rivers Behavioral Health,1051 North 16th Street Suite B,Murray,Kentucky 42071,42071,"? MH SUMH ? OP TELE ? CMHC ? BMT CBT CFT DBT GT IDD IPT PTM TT ? PVTN ? FQHC ? 
CSBG MC MD MI PI SF SI SMHA ? SS ? TAY SE GL VET MF CJ CO HV TRMA TBI PED PTSD 
SED SMI ? CM COOT FPSY ICM SEMP SPS ? SMPD ? ADLT CHLD SNR YAD"
Specialized Alternatives for Families Northern Kentucky Division,1 Moock Road Building B Suite 101,Newport,Kentucky 41071,41071,"? MH SUMH ? OP TELE ? OMH ? BMT CBT CFT IDD IPT TT ? PVTN ? MD PI SF ? SS ? CM 
COOT FPSY SPS TPC ? SMON ? ADLT CHLD SNR YAD"
Bluegrass Regional MH/MR Board Inc Jessamine Counseling and Education Ctr,324 Southview Drive,Nicholasville,Kentucky 40356,40356,"? MH SUMH ? OP ? CMHC ? AT BMT CBT CFT DBT GT IDD IPT PTM TT ? CIT ? PVTN ? CLF 
CMHG CSBG MC MD MI OSF PI SCJJ SEF SF SI SMHA SWFS ? PA SS ? CO SED SMI ? CM 
COOT ES FPSY HS PRS SPS PEER ? SMPD ? ADLT CHLD SNR YAD ? AH"
Kentucky United Methodist Homes for Children and Yth/Nicholasville Campus,1115 Ashgrove Road,Nicholasville,Kentucky 40356,40356,"? MH SUMH ? OP RES TELE ? MSNH ? AT CBT CFT DBT GT IPT PTM TT ? PVTN ? CLF MD 
OSF PI SCJJ SF SMHA SWFS ? SS ? TAY CO ? CM COOT ES FPSY SH SPS ? STU TCC ? 
SMON ? CHLD YAD ? SP"
Green River Comp Care,1100 Walnut Street,Owensboro,Kentucky 42301,42301,"? MH SUMH ? OP PHDT TELE ? CMHC ? BMT CBT CFT DBT GT IDD IPT PTM TT ? CIT WI ? 
LMG ? CMHG MC MD PI SF SI SMHA SWFS ? SE GL VET MF CO TRMA TBI ALZ PED PTSD 
SED ? ACT CM COOT DEC FPSY HS ICM PRS SEMP SH SPS TPC PEER ? SMPD ? ADLT CHLD 
SNR YAD ? AH"
Hager Preschool,601 Foust Avenue Suite B,Owensboro,Kentucky 42301,42301,"? MH ? OP ? OMH ? AT BMT CBT IPT TT ? PVTN ? MC MD MI PI SF SMHA ? SED ? FPSY SPS 
? SMON ? CHLD ? AH"
Kentucky United Methodist Homes for Children and Youth/Mary Kendall Campus,193 Phillips Court,Owensboro,Kentucky 42303,42303,"? MH ? OP RES ? RTCC ? BMT CBT DBT GT IDD IPT TT ? PVTN ? CLF MD SCJJ SEF SF 
SWFS ? TRMA PTSD ? CM FPSY ICM ? SMON ? CLHD"
Owensboro Community Based Outpatient,3400 New Hartford Road,Owensboro,Kentucky 42303,42303,"? MH SUMH ? OP TELE ? BMT CBT CFT DBT GT IPT PTM TT ? CIT WI ? VAMC ? MI SF VAF ? 
SE GL VET MF CO TRMA PTSD SMI ? CDM DEC ES FPSY HS IMR SEMP SPS VRS ? NRT NSC 
STU TCC ? SMPD ? ADLT SNR YAD ? VO ? AH"
Owensboro Health Regional Hospital,1201 Pleasant Valley Road,Owensboro,Kentucky 42303,42303,"? MH SUMH ? HI ? PSY ? AT CBT DBT GT IPT PTM TT ? CIT WI ? PVTN ? MC MD MI PI SF SI 
VAF ? SMI ? CM DEC ES FPSY SPS ? NRT NSC STU TCC ? SMON ? ADLT SNR YAD ? AH"
Psychiatric Residential Trt Facility MI/MR,1224 Venable Avenue,Owensboro,Kentucky 42301,42301,"? MH SUMH ? RES ? RTCC ? AT BMT CBT CFT DBT GT IDD IPT PTM TT ? CIT ? PVTN ? MD PI 
SF SI SWFS ? TRMA SED ? CM ES FPSY IPC PRS SPS ? STU ? SMON ? CLHD"
RiverValley Behavioral Health Hospital,1000 Industrial Drive,Owensboro,Kentucky 42301,42301,"? MH SUMH ? HI OP ? PSY ? AT BMT CBT CFT GT IDD IPT PTM TT ? CIT WI ? PVTN ? CMHG 
MD PI SCJJ SEF SF SI SWFS ? SS ? CO TRMA SED ? CM ES FPSY IPC SPS TPC ? STU ? 
SMPD ? CHLD ? AH"
RiverValley Behavioral Health Hospital Rudy Road PRTF,360 Rudy Road,Owensboro,Kentucky 42301,42301,"? MH ? RES ? RTCC ? AT BMT CBT CFT DBT GT IPT PTM TT ? CIT ? PVTN ? MD PI SF SI 
SMHA SWFS ? TRMA SED ? CM ES FPSY IPC ? SMON ? CLHD"
Sunrise Childrens Services Owensboro Family Services,1925 Frederica Street Suite 200,Owensboro,Kentucky 42301,42301,"? MH SUMH ? OP TELE ? OMH ? AT BMT CBT CFT DBT GT IDD IPT TT ? PVTN ? MD PI SF ? 
TAY SE VET ADM MF CO TRMA PTSD SED SMI ? CM COOT FPSY SPS ? TCC ? SMPD ? ADLT 
CHLD SNR YAD"
NorthKey Community Care Owen County Outpatient Office,326 Roland Avenue,Owenton,Kentucky 40359,40359,"? MH SUMH ? OP ? CMHC ? BMT CBT CFT IDD IPT PTM TT ? CIT ? PVTN ? CLF CMHG MC 
MD MI OSF PI SCJJ SF SI SMHA ? SS ? ACT CM FPSY ICM SPS ? STU ? SMON ? ADLT CHLD 
SNR YAD ? AH"
Pathways Inc,664 Slate Avenue,Owingsville,Kentucky 40360,40360,"? MH SUMH ? OP PHDT TELE ? CMHC ? BMT CBT CFT DBT GT IPT PTM TT ? CIT ? PVTN ? 
CSBG MC MD MI OSF PI SCJJ SF SI SMHA SWFS VAF ? PA SS ? CJ CO TRMA SED SMI ? CM 
COOT FPSY HS ICM SEMP SH PEER ? SMPD ? ADLT CHLD SNR YAD ? AH"
Four Rivers Behavioral Health,425 Broadway Street,Paducah,Kentucky 42001,42001,"? MH SUMH ? OP PHDT TELE ? CMHC ? BMT CBT CFT DBT GT IDD IPT PTM TT ? CIT WI ? 
PVTN ? CLF CMHG CSBG MC MD MI OSF PI SCJJ SEF SF SI SMHA SWFS VAF ? TAY CO 
TRMA PTSD SED SMI ? ACT CM COOT FPSY HS IPC PRS SEMP SH SPS PEER ? SMPD ? 
ADLT CHLD SNR YAD ? AH ? SP"
Mercy Health Lourdes Hospital Mercy Behavioral Health,1530 Lone Oak Road,Paducah,Kentucky 42003,42003,"? MH ? HI OP PHDT ? PSY ? AT CBT CFT DBT GT IPT PTM ? CIT WI ? PVTN ? MC MD MI PI SF 
SI ? SE ALZ SMI ? CDM CM DEC ES FPSY IPC SPS ? NRT NSC STU TCC ? SMON ? ADLT SNR 
YAD"
Paducah Community Based Outpatient,2620 Perkins Creek Drive,Paducah,Kentucky 42001,42001,"? MH SUMH ? OP TELE ? BMT CBT CFT DBT GT IPT PTM TT ? CIT WI ? VAMC ? MI SF VAF ? 
SE GL VET MF CO TRMA PTSD SMI ? CDM DEC ES FPSY HS IMR SEMP SPS VRS ? NRT NSC 
STU TCC ? SMPD ? ADLT SNR YAD ? VO ? AH"
Sunrise Childrens Services Paducah Region Foster Care and IL,3565 Lone Oak Road Suite 2,Paducah,Kentucky 42003,42003,"? MH SUMH ? OP ? OMH ? AT BMT CBT CFT GT IPT TT ? CIT ? PVTN ? CMHG CSBG MD SCJJ 
SWFS ? TAY CO TRMA PTSD SED ? CM FPSY HS PRS SEMP SH TPC ? SMPD ? CHLD YAD"
Mountain Comprehensive Care Center Johnson County Outpatient Clinic,1110 South Mayo Trail,Paintsville,Kentucky 41240,41240,"? MH SUMH ? OP RES TELE ? MSNH ? BMT CBT DBT GT IDD IPT PTM TT ? CIT WI ? PVTN ? 
FQHC ? CMHG CSBG MC MD MI PI SCJJ SF SI SMHA SWFS ? TAY SE GL VET CO TRMA TBI 
PTSD SED SMI ? CM COOT DEC ES HS IMR IPC PRS SH VRS ? NRT NSC STU TCC ? SMPD ? 
ADLT CHLD SNR YAD ? AH"
Bourbon Community Hospital Stoner Creek Behavioral Health,9 Linville Drive,Paris,Kentucky 40361,40361,"? MH SUMH ? HI ? PSY ? AT BMT CBT CFT GT IDD IPT PTM TT ? CIT WI ? PVTP ? MC MD PI 
SF ? CM ES FPSY SPS ? NRT NSC STU TCC ? SMPD ? ADLT CHLD SNR YAD"
New Vista Bourbon County Outpatient Clinic,4223 Lexington Road Suite D,Paris,Kentucky 40361,40361,"? MH SUMH ? OP TELE ? CMHC ? BMT CBT CFT DBT GT IDD IPT PTM TT ? CIT ? PVTN ? CLF 
CMHG MC MD MI PI SCJJ SF SI SWFS ? SS ? CJ CO SED SMI ? ACT CM COOT FPSY IMR IPC 
SPS ? STU ? SMON ? ADLT CHLD SNR YAD ? AH"
Sunrise Childrens Services Family Services Pikeville,123 Weddington Branch Road,Pikeville,Kentucky 41501,41501,"? MH SUMH ? OP TELE ? OMH ? BMT CBT CFT DBT IDD IPT TT ? CIT ? PVTN ? CMHG CSBG 
MD PI SF SWFS ? CM COOT TPC ? SMPD ? ADLT CHLD SNR YAD"
Buckhorn Children and Family Services Dessie Scott Childrens Home,5274 Kentucky 15 North,Pine Ridge,Kentucky 41360,41360,"? MH ? RES TELE ? RTCC ? AT CFT GT IPT PTM ? PVTN ? MD MI PI SCJJ SF SI SWFS ? 
TRMA TBI PTSD SED ? ACT CM DEC ES FPSY PRS SPS VRS ? STU ? SMON ? CLHD"
Webster County Office,606 1st Avenue,Providence,Kentucky 42450,42450,"? MH ? OP ? CMHC ? CBT CFT IDD IPT TT ? CIT ? LMG ? CMHG MC MD PI SF SI SMHA SWFS 
? CO PTSD SED ? ACT COOT SPS ? SMPD ? ADLT CHLD SNR YAD ? AH"
Cumberland River Behavioral Health,215 East Tennessee Avenue,Pineville,Kentucky 40977,40977,"? MH SUMH ? OP PHDT TELE ? CMHC ? BMT CBT CFT GT IDD IPT PTM TT ? CIT WI ? PVTN ? 
CMHG MC MD MI OSF PI SCJJ SF SI SMHA ? SS ? CO SED SMI ? ACT CDM CM COOT DEC ES 
FPSY HS ICM IMR PRS SEMP SH SPS PEER ? STU ? SMPD ? ADLT CHLD SNR YAD ? AH"
Huntington VAMC Prestonsburg VA Clinic,5230 KY Route 321 Suite 8,Prestonsburg,Kentucky 41653,41653,"? MH SUMH ? OP TELE ? BMT CBT CFT DBT GT IPT PTM TT ? CIT WI ? VAMC ? MI VAF ? GL 
VET MF ? CDM DEC FPSY HS IPC SPS PEER ? NRT NSC STU TCC ? SMPD ? ADLT SNR YAD 
? VO ? AH"
Mountain Comprehensive Care Center Floyd County OP Clinic,104 South Front Avenue,Prestonsburg,Kentucky 41653,41653,"? MH SUMH ? OP TELE ? CMHC ? BMT CBT DBT GT IDD IPT PTM TT ? CIT WI ? PVTN ? FQHC 
? CLF CMHG CSBG MC MD MI PI SCJJ SF SI SMHA VAF ? SS ? CO TRMA PTSD SED SMI ? CM 
COOT DEC ES ICM IPC SPS ? SMPD ? ADLT CHLD SNR YAD ? AH"
Mountain Comprehensive Care Center,103 East Washington Street,Princeton,Kentucky 42445,42445,"? MH SUMH ? OP ? OMH ? AT BMT CBT GT IDD IPT ? PVTN ? FQHC ? ITU MD MI SF ? CO SMI 
? CM PRS ? SMPD ? ADLT SNR YAD"
Pennyroyal Center Princeton Clinic,1350 U.S. Highway 62 West,Princeton,Kentucky 42445,42445,"? MH SUMH ? OP TELE ? CMHC ? BMT CBT CFT GT IDD IPT PTM TT ? CIT WI ? PVTN ? CLF 
CMHG CSBG MC MD MI OSF PI SCJJ SEF SF SI SMHA SWFS ? PA SS ? CJ CO SED SMI ? ACT 
CM COOT ES FPSY ICM IMR PRS SEMP SH SPS VRS PEER ? STU ? SMON ? ADLT CHLD SNR 
YAD ? AH"
New Vista Madison County Outpatient Clinic,411 Gibson Lane,Richmond,Kentucky 40475,40475,"? MH SUMH ? OP TELE ? CMHC ? AT BMT CBT CFT DBT GT IDD IPT PTM TT ? CIT WI ? PVTN 
? CLF CMHG MD MI PI SCJJ SF ? TAY SE CJ CO TRMA PTSD SED SMI ? CM COOT ES FPSY 
HS ICM PRS SEMP SH SPS PEER ? STU ? SMPD ? ADLT CHLD SNR YAD ? AH"
LifeSkills Inc Logan County Service Center,433 Shelton Lane,Russellville,Kentucky 42276,42276,"? MH SUMH ? OP TELE ? CMHC ? BMT CBT CFT DBT GT IPT PTM TT ? CIT ? PVTN ? MC MD 
PI SF SI SMHA SWFS ? SS ? CM COOT HS SH SPS PEER ? SMPD ? ADLT CHLD SNR YAD ? 
AH"
Livingston Hospital Senior Care Outpatient Geriatric Behavioral Health,131 Hospital Drive,Salem,Kentucky 42078,42078,"? MH SUMH ? OP ? OMH ? BMT CBT CFT DBT GT IDD IPT PTM TT ? PVTN ? MC ? SE ? SMPD 
? ADLT SNR"
Mountain Comprehensive Care Center Magoffin County Outpatient Clinic,28 Lakeville Road,Salyersville,Kentucky 41465,41465,"? MH SUMH ? OP ? CMHC ? CBT CFT GT IPT PTM TT ? CIT ? PVTN ? MC MD PI SF SI ? PA SS 
? MF CJ TRMA PTSD SED SMI ? CM COOT FPSY ICM SEMP SPS VRS PEER ? SMPD ? ADLT 
CHLD SNR YAD"
LifeSkills Inc,512 Bowling Green Road,Scottsville,Kentucky 42164,42164,"? MH SUMH ? OP TELE ? CMHC ? BMT CBT CFT GT IDD IPT PTM TT ? CIT ? PVTN ? CMHG 
MC MD OSF PI SF ? SS ? CO TRMA PTSD SED SMI ? CM COOT SEMP SH SPS ? SMPD ? 
ADLT CHLD SNR YAD ? AH"
Senior Perspectives,456 Burnley Road,Scottsville,Kentucky 42164,42164,"? MH ? OP TELE ? OMH ? BMT CBT CFT GT IPT PTM ? CIT ? PVTP ? MC MD ? PA ? SE ? ES 
FPSY ? SMON ? ADLT SNR"
Centerstone Shelby County Center,250 Alpine Drive,Shelbyville,Kentucky 40065,40065,"? MH SUMH ? OP ? CMHC ? BMT CBT CFT DBT GT IDD IPT PTM TT ? CIT WI ? PVTN ? CLF 
CMHG CSBG MC MD OSF PI SCJJ SF SI SMHA SWFS ? CO SED SMI ? CDM CM COOT ES 
FPSY IMR PRS SPS PEER ? SMPD ? ADLT CHLD SNR YAD ? AH"
Centerstone of Kentucky Bullitt County Center,130 South Joe B Hall Avenue,Shepherdsville,Kentucky 40165,40165,"? MH SUMH ? OP ? CMHC ? BMT CBT CFT DBT GT IDD IPT PTM TT ? CIT WI ? PVTN ? CLF 
CMHG CSBG MC MD OSF PI SCJJ SF SI SMHA SWFS ? CO SED SMI ? ACT CDM CM COOT ES 
FPSY IMR PRS SPS PEER ? SMPD ? ADLT CHLD SNR YAD ? AH"
Lake Cumberland Regional Hospital,305 Langdon Street,Somerset,Kentucky 42503,42503,"? MH SUMH ? HI ? PSY ? AT CBT CFT DBT GT IDD IPT PTM TT ? CIT WI ? PVTP ? MC MD MI 
PI SF SI VAF ? SE TRMA ALZ SMI ? CM DEC FPSY IPC SPS ? NRT NSC STU TCC ? SMON ? 
ADLT SNR YAD ? AH"
Specialized Alternatives for Families,3540 South Highway 27 Suite 4,Somerset,Kentucky 42501,42501,"? MH ? OP TELE ? OMH ? BMT CBT CFT DBT GT IDD IPT TT ? CIT ? PVTN ? FQHC ? MD MI PI 
SCJJ SF SI SMHA SWFS ? SS ? TAY TRMA PTSD ? CM COOT FPSY ICM TPC ? STU ? SMPD ? 
ADLT CHLD SNR YAD"
New Vista Lincoln County Outpatient Clinic,322 Frontier Boulevard,Stanford,Kentucky 40484,40484,"? MH SUMH ? OP TELE ? CMHC ? AT BMT CBT CFT DBT GT IDD IPT PTM TT ? CIT ? PVTN ? 
CLF CMHG CSBG MD OSF SCJJ SEF SF SI SMHA SWFS ? PA SS ? CO SED SMI ? CM COOT 
ES FPSY HS SPS ? SMPD ? ADLT CHLD SNR YAD ? AH"
New Vista Powell County Outpatient Clinic,438 Washington Street,Stanton,Kentucky 40380,40380,"? MH SUMH ? OP TELE ? CMHC ? BMT CBT CFT DBT GT IDD IPT PTM TT ? CIT WI ? PVTN ? 
CMHG CSBG MD OSF SF SMHA ? CM COOT FPSY IMR PRS SPS ? STU ? SMPD ? ADLT CHLD 
SNR YAD ? AH"
Centerstone of Kentucky Spencer County Center,73 East Main Street,Taylorsville,Kentucky 40071,40071,"? MH SUMH ? OP ? CMHC ? BMT CBT CFT DBT GT IDD IPT PTM TT ? CIT WI ? PVTN ? CLF 
CMHG CSBG MC MD OSF PI SCJJ SF SI SMHA SWFS ? CO SED SMI ? CDM CM COOT ES 
FPSY IMR PRS SPS PEER ? SMPD ? ADLT CHLD SNR YAD ? AH"
LifeSkills Inc,800 North Main Street,Tompkinsville,Kentucky 42167,42167,"? MH SUMH ? OP TELE ? CMHC ? BMT CBT CFT GT IDD IPT PTM TT ? PVTN ? MC MD PI SF 
SI SMHA ? SS ? CO TRMA PTSD SED SMI ? CM COOT FPSY IMR PRS SPS ? STU ? SMPD ? 
ADLT CHLD SNR YAD ? AH"
Comprehend Inc,83 2nd Street,Vanceburg,Kentucky 41179,41179,"? MH SUMH ? OP PHDT TELE ? CMHC ? BMT CBT CFT DBT GT IDD IPT PTM TT ? CIT WI ? 
PVTN ? CLF CMHG MC MD MI PI SCJJ SF SMHA SWFS ? SS ? CO TRMA SMI ? CDM CM 
COOT FPSY HS ICM IMR PRS SEMP SPS VRS PEER ? STU ? SMPD ? ADLT CHLD SNR YAD ? 
AH"
Adanta Group McCreary County Clinic,90 Medical Lane,Whitley City,Kentucky 42653,42653,"? MH SUMH ? OP TELE ? CMHC ? CBT CFT GT IDD IPT PTM TT ? CIT WI ? PVTN ? CMHG 
CSBG MC MD MI OSF PI SCJJ SEF SF SI SMHA SWFS VAF ? TAY CO TRMA PTSD SED SMI ? 
ACT CM COOT FPSY HS PRS SEMP SPS PEER ? STU ? SMPD ? ADLT CHLD SNR YAD ? AH"
Cumberland River Behavioral Health,285 Cemetery Road,Williamsburg,Kentucky 40769,40769,"? MH ? OP PHDT TELE ? CMHC ? BMT CBT CFT DBT GT IDD IPT PTM TT ? CIT WI ? PVTN ? 
CLF CMHG CSBG MC MD MI OSF PI SCJJ SF SI SMHA SWFS ? SS ? CO SED SMI ? ACT CM 
COOT ICM IMR PRS SEMP SH SPS PEER ? STU TCC ? SMPD ? ADLT CHLD SNR YAD ? AH"
Woodford County Clinic,125 Big Sink Road,Versailles,Kentucky 40383,40383,"? MH SUMH ? OP ? CMHC ? CBT CFT GT IDD IPT PTM TT ? CIT WI ? PVTN ? CMHG CSBG MC 
MD MI OSF PI SCJJ SEF SF SI SMHA SWFS VAF ? TAY GL VET ADM MF CJ CO TRMA PTSD 
SED SMI ? CM FPSY HS SEMP SPS PEER ? STU ? SMPD ? ADLT CHLD SNR YAD ? AH"
NorthKey Community Care Gallatin County Outpatient Office,203 West Main Street,Warsaw,Kentucky 41095,41095,"? MH SUMH ? OP ? CMHC ? BMT CBT CFT IDD IPT PTM TT ? CIT ? PVTN ? CLF CMHG MC 
MD MI OSF PI SCJJ SF SI SMHA ? SS ? ACT CM COOT FPSY ICM SPS ? SMON ? ADLT CHLD 
SNR YAD ? AH"
Pathways Inc,767 North Main Street,West Liberty,Kentucky 41472,41472,"? MH SUMH ? OP TELE ? CMHC ? BMT CBT CFT DBT GT IPT PTM ? CIT WI ? PVTN ? CMHG 
CSBG MC MD MI OSF PI SCJJ SF SMHA SWFS ? PA SS ? CJ CO SED SMI ? CDM CM COOT 
FPSY ICM IMR SEMP SH SPS PEER ? STU ? SMPD ? ADLT CHLD SNR YAD ? AH"
NorthKey Community Care Grant County Outpatient Services,308 Barnes Road,Williamstown,Kentucky 41097,41097,"? MH SUMH ? OP ? CMHC ? BMT CBT CFT IDD IPT PTM TT ? CIT ? PVTN ? CLF CMHG MC 
MD MI OSF PI SCJJ SF SI SMHA ? SS ? ACT CM COOT FPSY ICM SPS ? SMON ? ADLT CHLD 
SNR YAD ? AH"
Mountain Comprehensive Care Center Winchester Outpatient Clinic,114 South Maple Street,Winchester,Kentucky 40391,40391,"? MH SUMH ? OP TELE ? CMHC ? AT BMT CBT DBT GT IDD IPT PTM TT ? CIT ? PVTN ? MD 
MI PI SF SI ? PA ? TAY SE SED SMI ? CM COOT FPSY PRS ? SMPD ? ADLT CHLD SNR YAD ? 
SP"
National Youth Advocate Program Inc,104 West Broadway Street,Winchester,Kentucky 40391,40391,"? MH SUMH ? OP ? OMH ? BMT CBT CFT DBT GT IDD IPT TT ? CIT ? PVTN ? MD PI SF SWFS 
? TAY GL TRMA PTSD SED ? 
CM FPSY SPS TPC ? SMON ? ADLT CHLD SNR YAD ? AH"
