Name,Address,City,State,Zip,Services
Caring Choices Central Louisiana Human Services District,5411 Coliseum Boulevard,Alexandria,Louisiana 71303,71303,"? MH SUMH ? OP TELE ? OMH ? CBT CFT DBT GT IDD IPT PTM ? WI ? LMG ? FQHC ? CMHG 
CSBG MC MD PI SF SI SMHA ? PA SS ? CO SMI ? COOT SPS PEER ? NRT NSC STU TCC ? 
SMON ? ADLT CHLD SNR YAD ? AH"
Christus Saint Frances Cabrini Hosp,3330 Masonic Drive,Alexandria,Louisiana 71301,71301,"? MH SUMH ? HI ? PSY ? AT CBT CFT GT IPT PTM ? WI ? PVTN ? MC MD MI PI SF SI ? CO HV 
TRMA TBI PED PTSD ? CDM CM ES FPSY ICM PRS SPS ? NRT STU TCC ? SMON ? ADLT YAD 
? AH"
Compass Behavioral Center Alexandria,6410 Masonic Drive,Alexandria,Louisiana 71301,71301,"? MH SUMH ? HI OP PHDT TELE ? PSY ? AT CBT GT IDD IPT PTM ? CIT ? PVTP ? MC MD MI 
PI SF SI SMHA VAF ? CM COOT DEC ES IMR IPC PRS SPS VRS ? STU ? SMPD ? ADLT SNR 
YAD ? AH"
Longleaf Hospital,44 Versailles Boulevard,Alexandria,Louisiana 71303,71303,"? MH SUMH ? HI OP ? PSY ? AT CBT CFT GT IPT PTM ? WI ? PVTP ? ITU MC MD MI PI SF VAF 
? VET ADM CO PTSD ? CM FPSY SPS ? NSC STU TCC ? SMPD ? ADLT CHLD SNR YAD ? AH"
Metropolitan Human Services District Saint Bernard Behavioral Health Ctr,6624 Saint Claude Avenue,Arabi,Louisiana 70032,70032,"? MH SUMH ? OP ? OMH ? CBT GT IPT PTM TT ? CIT WI ? LMG ? CMHG CSBG MC MD OSF SI 
SMHA ? PA ? CO TRMA SED SMI ? CM HS IPC LAD SEMP SH VRS PEER ? STU TCC ? SMON ? 
ADLT CHLD SNR YAD ? AH"
Bastrop Behavioral Health Clinic,451 East Madison Street,Bastrop,Louisiana 71220,71220,"? MH SUMH ? OP ? OMH ? CBT IPT PTM TT ? OSG ? CMHG MC MD MI PI SF SI SMHA ? PA 
SS ? CM COOT FPSY IPC ? NRT NSC STU TCC ? SMON ? ADLT CHLD SNR YAD ? AH"
Cypress Grove Behavioral Health,4673 Eugene Ware Boulevard,Bastrop,Louisiana 71220,71220,"? MH ? HI TELE ? PSY ? AT BMT CBT CFT GT IDD IPT PTM ? PVTP ? CLF ITU MC MD MI OSF 
PI SCJJ SEF SF SI SMHA SWFS VAF ? TRMA PTSD SED ? CM ES FPSY SPS ? STU ? SMON ? 
CHLD"
Apollo Behavioral Health Hospital,9938 Airline Highway,Baton Rouge,Louisiana 70809,70809,"? MH SUMH ? HI OP PHDT ? PSY ? AT BMT CBT GT IDD IPT PTM TT ? PVTP ? MC MD MI PI 
SF SI VAF ? SE GL VET ADM MF CJ CO HV ALZ PED PTSD SMI ? ACT CDM CM COOT DEC ES 
FPSY HS ICM IMR IPC LAD PRS SPS PEER ? NRT STU TCC ? SMPD ? ADLT SNR YAD ? AH"
Baton Rouge Behavioral Hospital,4040 North Boulevard,Baton Rouge,Louisiana 70806,70806,"? MH SUMH ? HI OP ? PSY ? AT BMT CBT CFT GT IPT PTM TT ? WI ? PVTP ? MC MD MI PI SF 
? CO TRMA PTSD SMI ? CM FPSY ? NRT NSC ? SMPD ? ADLT SNR YAD ? AH"
Baton Rouge General Behavioral Wellness Center,4045 North Boulevard Suite A,Baton Rouge,Louisiana 70806,70806,"? MH SUMH ? OP ? OMH ? AT BMT CBT CFT DBT GT IDD IPT PTM TT ? PVTN ? MC MI PI SF 
VAF ? SE CO ALZ PTSD SMI ? CDM CM COOT FPSY IMR SPS ? SMPD ? ADLT SNR YAD ? AH"
Baton Rouge General Medical Center,3401 North Boulevard Suite 100,Baton Rouge,Louisiana 70806,70806,"? MH SUMH ? OP ? OMH ? BMT CBT ECT IPT PTM TT ? CIT ? OSG ? CLF MC OSF PI SF SI 
SMHA ? GL CO HV TRMA ALZ PED PTSD SMI ? ES PRS SPS ? NRT NSC TCC ? SMON ? ADLT 
SNR YAD"
Baton Rouge General Medical Center Behavioral Health Unit,3600 Florida Boulevard,Baton Rouge,Louisiana 70806,70806,"? MH SUMH ? HI TELE ? PSY ? AT BMT CBT CFT DBT ECT GT IDD IPT PTM TT ? PVTN ? MC 
MD MI PI SF VAF ? SE CO TRMA ALZ PTSD ? CDM CM FPSY ICM IMR IPC LAD SPS ? NRT 
NSC STU TCC ? SMON ? ADLT SNR ? AH"
Beacon Behavioral Hospital IOP Baton Rouge,10425 Plaza Americana Drive,Baton Rouge,Louisiana 70816,70816,"? MH ? PHDT ? PH ? CBT DBT GT IPT PTM ? CIT ? PVTP ? MC MD PI SF ? SE SMI ? SMPD ? 
ADLT SNR YAD ? AH"
Capital Area Human Services District Center for Adult Behavioral Health,"4615 Government Street , Building 2",Baton Rouge,Louisiana 70806,70806,"? MH SUMH ? OP ? OMH ? BMT CBT CFT GT IDD IPT PTM TT ? CIT WI ? LMG ? CMHG MC 
MD MI OSF PI SCJJ SF SI SMHA SWFS VAF ? PA SS ? CJ CO TRMA PTSD SMI ? CDM CM 
COOT DEC FPSY IMR IPC PRS SPS PEER ? NRT NSC STU TCC ? SMON ? ADLT SNR YAD ? 
AH"
Capital Area Human Services/Gonzales M,1112 East Ascension Complex Boulevard,Baton Rouge,Louisiana 70806,70806,"? MH SUMH ? OP TELE ? OMH ? BMT CBT CFT DBT GT IDD IPT PTM TT ? CIT WI ? SMA ? 
CMHG CSBG MC MD PI SF SMHA ? PA SS ? CO ? DEC ES FPSY SPS ? NRT NSC STU TCC ? 
SMPD ? ADLT CHLD SNR YAD ? AH"
Family Service of Greater Baton Rouge,4727 Revere Avenue,Baton Rouge,Louisiana 70808,70808,"? MH SUMH ? OP ? OMH ? AT BMT CBT CFT DBT GT IDD IPT TT ? PVTN ? CSBG MC MD PI 
SF ? PA SS ? TAY SE GL CJ CO HV TRMA PTSD ? ACT CM COOT FPSY ICM IMR IPC SPS ? 
TCC ? SMPD ? ADLT CHLD SNR YAD ? AH"
Legacy Behavioral Health of LA LLC,"11505 Perkins Road , Building 1",Baton Rouge,Louisiana 70810,70810,"? MH ? OP ? OMH ? BMT CBT CFT DBT IDD IPT PTM TT ? PVTP ? PI SF SI ? SMPD ? ADLT 
SNR YAD ? SP"
Margaret Dumas Mental Health Ctr Capital Area Human Services District,3843 Harding Boulevard,Baton Rouge,Louisiana 70807,70807,"? MH SUMH ? OP TELE ? CMHC ? CBT CFT GT IDD IPT PTM TT ? CIT WI ? SMA ? CMHG 
CSBG MC MD MI OSF PI SF SMHA SWFS ? PA SS ? CO SMI ? COOT DEC ES FPSY PEER ? 
NRT STU TCC ? SMON ? ADLT SNR YAD ? AH"
Oceans Behavioral Hospital Baton Rouge,11135 Florida Boulevard,Baton Rouge,Louisiana 70815,70815,"? MH SUMH ? HI OP ? PSY ? AT GT IDD IPT PTM ? CIT WI ? PVTP ? MC MD PI SF SI SMHA 
SWFS VAF ? SE CO ALZ ? CM DEC ES ? NRT NSC STU TCC ? SMPD ? ADLT SNR ? AH"
Our Lady of Lake Regional Med Ctr Tau Center,8080 Margaret Ann Avenue,Baton Rouge,Louisiana 70809,70809,"? MH ? HI ? PSY ? AT CBT CFT DBT GT IDD IPT PTM ? CIT WI ? PVTN ? MC MD MI OSF PI SF 
SMHA SWFS VAF ? SE CO SMI ? CDM DEC FPSY IMR ? NRT NSC STU TCC ? SMON ? ADLT 
CHLD SNR YAD ? AH"
Our Lady of the Lake Physician Group Family Center Outpt MH,7777 Hennessy Boulevard Suite 6000,Baton Rouge,Louisiana 70808,70808,"? MH SUMH ? OP ? OMH ? IPT PTM ? CIT ? PVTN ? FQHC ? CLF CMHG CSBG ITU MC MD MI 
OSF PI SCJJ SEF SF SI SMHA SWFS VAF ? TAY SE GL VET ADM MF CO HV TRMA TBI ALZ 
PED PTSD SED SMI ? STU ? SMON ? ADLT CHLD SNR YAD ? AH"
Our Lady of the Lake Regional Medical Center,5000 Hennessy Boulevard,Baton Rouge,Louisiana 70809,70809,"? MH ? HI OP ? PSY ? AT BMT CBT CFT GT IDD IPT PTM TT ? WI ? PVTN ? MC MD MI PI SF 
VAF ? SE CO SMI ? ES SPS ? NRT NSC STU TCC ? SMON ? ADLT SNR YAD ? AH"
Southeast Louisiana VA HCS Baton Rouge VA Clinic,7968 Essen Park Avenue,Baton Rouge,Louisiana 70809,70809,"? MH ? OP TELE ? CBT GT IPT PTM ? CIT ? VAMC ? VAF ? GL VET HV PTSD ? DEC ES IPC 
SPS PEER ? NSC STU TCC ? SMPD ? ADLT SNR YAD ? VO ? AH"
Bogalusa Behavioral Health Clinic,2106 Avenue F,Bogalusa,Louisiana 70427,70427,"? MH SUMH ? OP ? CMHC ? BMT CBT CFT GT IDD IPT PTM ? WI ? OSG ? CMHG MC MD MI 
OSF PI SCJJ SF SMHA ? SS ? CM COOT IMR SEMP SPS PEER ? NRT NSC STU TCC ? SMON 
? ADLT CHLD SNR YAD ? AH"
Our Lady of the Angels Hospital Behavioral Health Unit,433 Plaza Street,Bogalusa,Louisiana 70427,70427,"? MH SUMH ? HI ? PSY ? AT CBT GT IDD PTM ? PVTN ? CLF MC MD MI OSF PI SF SI SMHA 
VAF ? PA ? TAY GL VET ADM MF CJ CO HV TRMA PTSD SMI ? CM DEC ES FPSY SPS ? NRT 
NSC STU TCC ? SMON ? ADLT YAD ? AH ? SP F4 F19 F28 F30 F47 F92"
Southeast Louisiana VA HCS VA Outpatient Clinic,512 Ontario Avenue,Bogalusa,Louisiana 70427,70427,"? MH ? OP TELE ? GT IPT PTM ? VAMC ? VAF ? VET PTSD ? DEC ES HS IPC SPS ? NSC STU 
? SMPD ? ADLT SNR YAD ? VO ? AH"
Red River Behavioral Center LLC,2800 Melrose Avenue,Bossier City,Louisiana 71111,71111,"? MH ? HI ? PSY ? AT BMT CBT CFT DBT GT IDD IPT PTM TT ? CIT WI ? PVTP ? MC MD MI PI 
SF SI VAF ? SE VET ADM MF TRMA ALZ PTSD ? CDM CM DEC ES FPSY ICM IMR IPC PRS SPS 
? NRT NSC STU TCC ? SMPD ? SNR ? AH"
Genesis Behavioral Hospital,606 Latiolais Drive,Breaux Bridge,Louisiana 70517,70517,"? MH SUMH ? HI TELE ? PSY ? AT BMT GT IPT PTM ? CIT WI ? PVTP ? MC MD PI SF SI ? CO 
SMI ? PRS SPS ? STU TCC ? SMPD ? ADLT SNR ? AH"
Beacon Behavioral Hospital,323 Evergreen Street,Bunkie,Louisiana 71322,71322,"? MH SUMH ? HI TELE ? PSY ? AT CBT CFT GT IPT PTM ? CIT WI ? PVTP ? MC MD MI PI SF 
SI SMHA VAF ? SE CO ALZ PTSD SMI ? FPSY IPC SPS ? NRT NSC STU TCC ? SMPD ? ADLT 
SNR YAD ? AH"
Bunkie General Hospital DPP PACES,427 Evergreen Street/ P.O. Box 380,Bunkie,Louisiana 71322,71322,"? MH SUMH ? OP TELE ? OMH ? AT BMT CBT DBT GT IDD IPT PTM TT ? CIT ? OSG ? MC ? 
SE GL VET MF CJ CO HV TRMA ALZ PED PTSD SMI ? CM COOT FPSY PRS SPS ? NRT NSC 
STU TCC ? SMPD ? ADLT SNR YAD"
Community Support Services of Louisiana,1140 Shirley Road,Bunkie,Louisiana 71322,71322,"? MH ? OP ? OMH ? BMT CBT GT IPT PTM ? PVTP ? MD ? TAY SE TRMA SED SMI ? FPSY PRS 
SPS ? SMON ? ADLT CHLD SNR YAD"
Behavioral Medicine Unit of Acadia Saint Landry Hospital,810 South Broadway Street,Church Point,Louisiana 70525,70525,"? MH SUMH ? HI ? PSY ? AT BMT CBT GT IDD IPT PTM TT ? PVTP ? CLF CMHG ITU MC MD 
MI OSF PI SEF SF SI SMHA SWFS VAF ? SE GL VET CJ CO HV TRMA ALZ PTSD SMI ? CM ES 
FPSY IMR PRS SPS ? NRT NSC STU TCC ? SMPD ? ADLT SNR YAD ? AH ? F4 F19 F28"
Columbia Behavioral Health Clinic,5159 Highway 4 East,Columbia,Louisiana 71418,71418,"? MH SUMH ? OP TELE ? OMH ? CBT GT IDD IPT PTM ? SMA ? CMHG CSBG MC MD MI OSF 
PI SF ? PA SS ? SMI ? COOT PRS ? NRT STU TCC ? SMON ? ADLT CHLD SNR YAD"
CHRISTUS Coushatta Healthcare Ctr,1635 Marvel Street,Coushatta,Louisiana 71019,71019,? MH ? OP PHDT ? OMH ? GT IPT PTM ? PVTN ? MC PI SF ? SE CO ? SMON ? SNR
Lakeview Regional Medical Center Lakeview Regional Behavioral Health,5025 Keystone Boulevard Suite 300,Covington,Louisiana 70433,70433,"? MH SUMH ? HI ? PSY ? AT BMT CBT CFT DBT GT IDD IPT PTM TT ? CIT ? PVTP ? MC MD MI 
PI SF SI VAF ? SE VET CO TRMA ALZ PTSD ? CDM CM DEC ES FPSY IMR IPC PRS SPS ? NRT 
NSC STU TCC ? SMON ? ADLT SNR ? AH ? SP F28"
Crowley Behavioral Health Clinic,1822 West 2nd Street,Crowley,Louisiana 70526,70526,"? MH SUMH ? OP ? OMH ? BMT CBT CFT DBT GT IDD IPT PTM TT ? CIT WI ? OSG ? CMHG 
MC MD MI OSF PI SF SI SMHA ? PA SS ? CO SED SMI ? COOT DEC FPSY IMR SPS ? NRT 
NSC STU TCC ? SMON ? ADLT CHLD SNR YAD ? AH"
Genesis Outpatient Services Crowley,318 East Park Street,Crowley,Louisiana 70526,70526,"? MH SUMH ? PHDT ? PH ? GT PTM ? CIT ? PVTP ? MC PI SF ? SE CO SMI ? SMPD ? ADLT 
SNR YAD"
Delhi Community Health Center,109 Elm Street,Delhi,Louisiana 71232,71232,"? MH SUMH ? OP TELE ? OMH ? BMT CBT CFT DBT GT IDD IPT PTM TT ? WI ? LMG ? FQHC ? 
CLF CMHG CSBG ITU MC MD OSF PI SCJJ SF SI SMHA SWFS VAF ? SS ? CM COOT DEC ES 
FPSY IPC ? NSC STU ? SMPD ? ADLT CHLD SNR YAD ? AH"
Imperial Calcasieu Human Services Beauregard Behavioral Health Clinic,106 West Port Street,Deridder,Louisiana 70634,70634,"? MH SUMH ? OP TELE ? OMH ? CBT CFT GT IDD IPT PTM TT ? WI ? LMG ? CLF CMHG 
CSBG MC MD MI PI SF SI SMHA ? SS ? COOT FPSY SPS PEER ? NRT NSC STU TCC ? SMON 
? ADLT CHLD SNR YAD ? AH"
Oceans Behavioral Hospital DeRidder,1420 Blankenship Drive,Deridder,Louisiana 70634,70634,"? MH SUMH ? HI OP PHDT ? PSY ? AT CBT GT IPT PTM TT ? WI ? PVTP ? MC MD MI PI SF SI 
VAF ? SE CO ALZ ? CM ES ICM SPS ? SMPD ? ADLT SNR ? AH"
Donaldsonville Mental Health,901 Catalpa Street,Donaldsonville,Louisiana 70346,70346,"? MH SUMH ? OP TELE ? OMH ? BMT CBT CFT DBT GT IPT PTM TT ? CIT WI ? SMA ? CMHG 
CSBG MC MD OSF PI SF SMHA ? PA SS ? CO ? DEC ES FPSY ? NSC STU TCC ? SMPD ? 
ADLT CHLD SNR YAD ? AH"
Union General Hospital Intensive Outpatient Program (IOP),901 James Avenue,Farmerville,Louisiana 71241,71241,"? MH ? OP ? OMH ? BMT CBT CFT DBT GT IPT PTM ? PVTN ? MC MI PI SF ? SE ? CDM CM ? 
SMPD ? ADLT SNR"
Holistic Educational Rehab Center,2100 Belle Chasse Highway,Gretna,Louisiana 70053,70053,"? MH SUMH ? OP ? OMH ? BMT CBT CFT GT IDD IPT PTM TT ? CIT ? PVTN ? MD OSF PI SF ? 
SS ? GL CO TRMA PED PTSD ? CM COOT DEC ES FPSY ICM PRS SPS ? SMPD ? ADLT CHLD 
SNR YAD"
FPHSA Rosenblum Behav Hlth Ctr Adult Services,835 Pride Drive Suite B,Hammond,Louisiana 70401,70401,"? MH SUMH ? OP ? OMH ? BMT CBT CFT GT IDD IPT PTM TT ? CIT WI ? LMG ? CLF CMHG 
CSBG MC MD MI OSF PI SF SI SMHA ? PA SS ? TAY SE GL CO HV TRMA PTSD SED SMI ? CM 
COOT FPSY IMR IPC PRS SEMP SH SPS PEER ? NRT NSC STU TCC ? SMON ? ADLT CHLD 
SNR YAD ? AH"
New Beginnings Behav Healthcare,1417 West Morris Avenue Suite E,Hammond,Louisiana 70403,70403,"? MH SUMH ? OP ? OMH ? BMT CBT IPT PTM ? CIT ? PVTP ? MD ? PTSD ? PRS ? SMPD ? 
CHLD"
Southeast Louisiana VA HCS Hammond VA Clinic,1131 South Morrison Boulevard,Hammond,Louisiana 70403,70403,"? MH SUMH ? OP TELE ? CBT GT IPT PTM ? VAMC ? VAF ? VET TRMA PTSD ? DEC ES HS 
IPC SPS ? NSC STU TCC ? SMPD ? ADLT SNR YAD ? VO ? AH"
NAMI New Orleans Westbank,2051 8th Street,Harvey,Louisiana 70058,70058,"? MH ? OP PHDT ? OMH ? BMT CBT DBT GT IPT PTM TT ? CIT ? PVTN ? CMHG MC MD SMHA 
? TRMA PTSD SMI ? CM ES ICM PRS SH PEER ? SMPD ? ADLT SNR YAD"
Claiborne Memorial Medical Center Senior Care Center,620 East College Street,Homer,Louisiana 71040,71040,"? MH ? HI TELE ? PSY ? AT BMT CBT CFT GT IPT PTM ? LMG ? MC MD PI SF ? SE ALZ ? CM 
IPC ? NRT NSC STU TCC ? SMON ? ADLT SNR ? AH"
Compass Behavioral Center Houma,4701 West Park Avenue,Houma,Louisiana 70364,70364,"? MH SUMH ? HI OP PHDT ? PSY ? AT BMT CBT CFT GT IDD IPT PTM TT ? PVTP ? ITU MC 
MD MI PI SF SI SMHA VAF ? CDM CM COOT DEC ES FPSY IMR SPS ? NRT NSC STU TCC ? 
SMPD ? ADLT SNR"
Leonard J Chabert Medical Center,1978 Industrial Boulevard,Houma,Louisiana 70363,70363,"? MH SUMH ? HI TELE ? PSY ? BMT CBT ECT GT IDD PTM ? PVTN ? MC MD PI SF ? PA ? GL 
CO PTSD SMI ? CDM CM DEC HS IMR SPS ? NRT NSC STU TCC ? SMON ? ADLT SNR YAD ? 
AH"
Southeast Louisiana VA HCS Houma VA Clinic,6433 West Park Avenue,Houma,Louisiana 70364,70364,"? MH ? OP TELE ? BMT CBT CFT GT IPT PTM ? CIT WI ? VAMC ? VAF ? SE GL VET CO TBI 
ALZ PTSD SMI ? CDM DEC ES FPSY HS IPC SEMP SH SPS VRS PEER ? NRT NSC STU TCC ? 
SMPD ? ADLT SNR YAD ? VO"
Terrebonne Behavioral Health Center,5599 Highway 311,Houma,Louisiana 70360,70360,"? MH SUMH ? OP TELE ? OMH ? CBT CFT GT IDD IPT PTM TT ? WI ? LMG ? CLF CMHG 
CSBG MC MD MI OSF PI SCJJ SF SI SMHA ? PA SS ? GL CO TRMA SMI ? CM COOT DEC FPSY 
IMR IPC SPS PEER ? NRT NSC STU TCC ? SMON ? ADLT CHLD SNR YAD ? AH"
LaSalle General Hospital,187 9th Street,Jena,Louisiana 71342,71342,"? MH SUMH ? HI ? PSY ? IPT ? CIT ? LMG ? MC MD MI PI SF SI VAF ? SE CO ALZ SMI ? NSC ? 
SMON ? ADLT SNR"
Compass Health Jennings Senior Care Hospital,1 Hospital Drive Suite 201,Jennings,Louisiana 70546,70546,"? MH SUMH ? HI ? PSY ? AT GT IPT PTM ? PVTP ? ITU MC MD PI SF SI VAF ? SE VET ALZ ? 
CM IMR PRS SPS ? SMPD ? ADLT SNR ? AH ? F28"
Jefferson Davis Behav Health Clinic,1211 North Cutting Avenue,Jennings,Louisiana 70546,70546,"? MH SUMH ? OP ? OMH ? CBT GT IDD IPT PTM ? LMG ? CMHG CSBG MC MD MI PI SF SI 
SMHA ? CO TRMA SED SMI ? IMR ? NRT NSC STU TCC ? SMON ? ADLT CHLD SNR YAD ? AH"
Abrom Kaplan Memorial Hospital Behavioral Health Unit,1310 West 7th Street,Kaplan,Louisiana 70548,70548,"? MH ? HI ? PSY ? AT BMT CBT GT IDD IPT PTM TT ? PVTN ? MC MD PI SF ? CM SPS ? STU 
TCC ? SMPD ? ADLT SNR ? AH"
Allen Parish Hospital,108 North 6th Avenue,Kinder,Louisiana 70648,70648,"? MH SUMH ? HI ? PSY ? AT BMT CBT CFT GT IDD IPT PTM ? WI ? LMG ? CLF ITU MC MD MI 
PI SCJJ SF SI VAF ? PA SS ? SE VET CO HV TRMA PED PTSD SMI ? CDM CM COOT ES FPSY 
IMR LAD SPS ? NRT STU TCC ? SMPD ? ADLT YAD"
Beacon Behavioral Hosp/Northshore,64026 Highway 434 Suite 300,Lacombe,Louisiana 70445,70445,"? MH ? HI ? PSY ? AT BMT CBT CFT GT IDD IPT PTM ? PVTP ? MC MD PI SF SI ? SE CO ALZ 
? CM ES FPSY SPS ? NRT STU ? SMON ? ADLT SNR ? AH"
Alexandria VA Healthcare System Lafayette Community Based Outpatient,309 Saint Julien Avenue,Lafayette,Louisiana 70506,70506,"? MH SUMH ? OP TELE ? OMH ? BMT CBT CFT GT PTM TT ? VAMC ? PI VAF ? SE VET CO 
TRMA PTSD SMI ? ES FPSY IMR SPS ? NSC TCC ? SMPD ? ADLT SNR YAD ? VO"
Compass Behavioral Center Lafayette,312 Youngsville Highway,Lafayette,Louisiana 70508,70508,"? MH SUMH ? HI TELE ? PSY ? AT BMT CBT DBT GT IDD IPT PTM ? WI ? PVTP ? MC MD PI SF 
? CO ALZ ? ES ? SMPD ? ADLT SNR"
Compass Behavioral Center Lafayette,1015 Saint John Street,Lafayette,Louisiana 70501,70501,"? MH SUMH ? OP PHDT TELE ? PH ? BMT CBT CFT GT IDD IPT PTM ? WI ? PVTP ? MC MD PI 
SF VAF ? SE CO SMI ? CDM DEC ES FPSY HS ICM IMR IPC PRS SPS ? STU ? SMPD ? ADLT 
SNR YAD"
Dr Joseph Henry Tyler Jr BH Clinic,302 Dulles Drive,Lafayette,Louisiana 70506,70506,"? MH SUMH ? OP ? OMH ? BMT CBT CFT DBT GT IDD IPT PTM TT ? CIT WI ? LMG ? CLF 
CMHG CSBG ITU MC MD MI OSF PI SCJJ SEF SF SI SMHA SWFS VAF ? PA SS ? CJ CO TRMA 
PTSD SED SMI ? COOT FPSY IMR SPS PEER ? STU TCC ? SMPD ? ADLT CHLD SNR YAD ? 
AH ? F17"
Genesis Outpatient Services Lafayette,847 Stewart Street,Lafayette,Louisiana 70501,70501,"? MH SUMH ? OP PHDT TELE ? PH ? BMT GT IPT PTM ? PVTP ? MC PI SF ? CO SMI ? COOT 
SPS ? SMPD ? ADLT SNR"
Rehabilitation Service of Acadiana,1017 Saint John Street,Lafayette,Louisiana 70501,70501,"? MH ? OP ? CMHC ? BMT CBT IPT PTM ? PVTP ? MD ? TAY SE GL VET MF CJ HV TRMA TBI 
PED PTSD SED SMI ? FPSY PRS SPS ? TCC ? SMPD ? ADLT CHLD SNR YAD"
Vermilion Behavioral Health Systems,2520 North University Avenue,Lafayette,Louisiana 70507,70507,"? MH SUMH ? HI OP PHDT ? PSY ? AT BMT CBT CFT DBT GT IDD IPT PTM TT ? CIT WI ? 
PVTP ? MC MD MI PI SCJJ SF VAF ? CO ? ACT CDM CM COOT DEC ES FPSY ICM IMR IPC 
PRS SEMP SPS VRS ? NRT NSC STU TCC ? SMPD ? ADLT CHLD SNR YAD ? AH"
Bridgeway Psychiatric Center 3451,5th Avenue,Lake Charles,Louisiana 70607,70607,"? MH SUMH ? OP PHDT TELE ? PH ? AT CBT GT IPT PTM ? CIT ? PVTP ? MC MD PI SF SI 
SMHA ? SE GL VET ADM MF CJ CO HV TRMA PTSD SMI ? COOT ES ICM PRS ? SMPD ? ADLT 
SNR YAD"
Calcasieu Oaks Behavioral Hospital,2837 Ernest Street Suite A,Lake Charles,Louisiana 70601,70601,"? MH SUMH ? HI ? PSY ? AT CFT GT IPT PTM ? CIT ? PVTN ? MC MD MI PI SF VAF ? CO SMI 
? CM DEC FPSY SPS ? NRT NSC STU TCC ? SMPD ? ADLT YAD ? AH"
Disney and Associates,Counseling Services of Southwest LA 2711 Ernest Street,Lake Charles,Louisiana 70601,70601,"? MH SUMH ? OP ? OMH ? BMT CBT CFT DBT GT IDD IPT TT ? CIT ? PVTP ? CMHG CSBG 
MC MD MI PI SCJJ SF SI SMHA SWFS ? TAY SE GL ADM MF CJ CO TRMA PED PTSD SED SMI 
? CM COOT FPSY PRS ? SMPD ? ADLT CHLD SNR YAD ? AH"
Family and Youth Csl Agency,220 Louie Street,Lake Charles,Louisiana 70601,70601,"? MH ? OP ? OMH ? BMT CBT CFT GT IDD IPT TT ? PVTN ? CLF OSF PI SCJJ SF ? COOT ES 
FPSY SPS ? SMPD ? ADLT CHLD SNR YAD ? SP"
Lake Charles Memorial System Behavioral Health Services,1701 Oak Park Boulevard,Lake Charles,Louisiana 70601,70601,"? MH SUMH ? HI OP ? PSY ? AT GT IDD IPT PTM ? CIT WI ? PVTN ? MC MD MI PI SF SI ? SE 
CO ALZ ? ES FPSY ? STU TCC ? SMON ? ADLT SNR ? AH"
Oceans Behavioral Hospital Lake Charles,4250 5th Avenue,Lake Charles,Louisiana 70607,70607,"? MH SUMH ? HI OP PHDT ? PSY ? AT BMT CBT CFT DBT GT IDD IPT PTM ? CIT ? PVTP ? MC 
MD MI PI VAF ? TAY SE CO TRMA TBI ALZ PED PTSD SED SMI ? CM SPS ? NSC STU TCC ? 
SMPD ? ADLT CHLD SNR YAD"
River Place Behavioral Health,500 Rue de Sante,La Place,Louisiana 70068,70068,"? MH SUMH ? HI OP ? PSY ? IPT ? PVTP ? SF ? TAY SMI ? ACT ICM ? SMON ? ADLT SNR YAD 
? AH ? SP F17"
River Parishes Treatment Center,1809 West Airline Highway,La Place,Louisiana 70068,70068,"? MH SUMH ? OP TELE ? OMH ? CBT CFT GT IDD IPT PTM TT ? WI ? LMG ? CLF CMHG 
CSBG MC MD MI OSF PI SCJJ SF SI SMHA ? PA SS ? GL CO TRMA SMI ? CM COOT DEC FPSY 
IMR IPC SPS PEER ? NRT NSC STU TCC ? SMON ? ADLT CHLD SNR YAD ? AH"
Caring Choices of Leesville,105 Belview Road,Leesville,Louisiana 71446,71446,"? MH SUMH ? OP TELE ? OMH ? CBT CFT GT IDD IPT PTM ? CIT ? LMG ? FQHC ? CMHG 
CSBG MC MD MI OSF PI SCJJ SF SI SMHA SWFS ? PA SS ? CO ? CM COOT ES FPSY IMR 
SPS PEER ? STU TCC ? SMON ? ADLT CHLD SNR YAD ? AH"
Rehab Services of Cenla Leesville,103 North 5th Street,Leesville,Louisiana 71446,71446,"? MH ? OP TELE ? CMHC ? BMT CBT CFT IPT PTM ? CIT ? PVTP ? MD PI SI SMHA ? CM FPSY 
ICM PRS ? SMPD ? ADLT CHLD SNR YAD"
Saint Charles Hospital,1057 Paul Mallard Road,Luling,Louisiana 70070,70070,"? MH SUMH ? HI ? PSY ? AT BMT CBT GT IPT PTM TT ? WI ? LMG ? ITU MC MD MI PI SCJJ SF 
SI SMHA SWFS VAF ? CO PTSD ? CDM CM DEC ES FPSY SPS ? NRT NSC STU TCC ? SMON 
? ADLT YAD ? AH"
Beacon Behavioral Hospital,2471 Louisiana Avenue,Lutcher,Louisiana 70071,70071,"? MH SUMH ? HI OP PHDT ? PSY ? AT CBT CFT GT IDD IPT PTM ? CIT ? PVTP ? MC MD MI PI 
SF VAF ? SE CO ALZ SMI ? CM DEC ES IMR SPS ? NRT STU TCC ? SMON ? ADLT SNR YAD"
Compass Behavioral Center Mamou,1510 Napoleon Street,Mamou,Louisiana 70554,70554,"? MH SUMH ? OP PHDT TELE ? PH ? GT IPT PTM ? PVTP ? MC PI SF ? CM DEC ES ? STU 
TCC ? SMPD ? ADLT SNR YAD ? F28"
Savoy Medical Ctr New Horizons,1610 7th Street,Mamou,Louisiana 70554,70554,"? MH SUMH ? HI PHDT ? PSY ? AT CBT CFT GT IDD IPT PTM ? PVTN ? MC MD MI PI SF VAF ? 
NRT STU TCC ? SMPD ? ADLT SNR YAD"
Mandeville Behavioral Health Clinic,900 Wilkinson Street,Mandeville,Louisiana 70448,70448,"? MH SUMH ? OP ? OMH ? BMT CBT CFT GT IDD IPT PTM TT ? CIT WI ? LMG ? CLF CMHG 
CSBG MC MD MI OSF PI SF SI SMHA ? PA SS ? TAY SE GL CJ CO HV TRMA PTSD SED SMI ? 
CM COOT FPSY IMR PRS SEMP SH SPS PEER ? NRT NSC STU TCC ? SMON ? ADLT CHLD 
SNR YAD ? AH"
Methodist Childrens Home of Greater New Orleans,23515 Highway 190,Mandeville,Louisiana 70448,70448,"? MH ? RES ? RTCC ? AT BMT CBT CFT GT IPT PTM TT ? CIT ? PVTN ? MD SWFS ? SED ? 
CM ES FPSY IPC ? SMON ? CHLD ? SP"
Seaside Outpatient Services Northshore,350 North Causeway Boulevard,Mandeville,Louisiana 70448,70448,"? MH SUMH ? OP ? OMH ? BMT CBT DBT GT IDD PTM TT ? PVTP ? MC MD PI SF ? SE CO 
SMI ? CDM CM IMR ? SMPD ? ADLT SNR YAD"
Contemporary Family Services Inc,501 Louisiana Street,Mansfield,Louisiana 71052,71052,"? MH ? OP ? OMH ? BMT CBT GT IPT PTM TT ? CIT ? PVTP ? MD ? TAY SE VET TRMA PTSD 
SED SMI ? CM COOT PRS ? SMON ? ADLT CHLD SNR YAD"
Caring Choices of Marksville,694 Government Street,Marksville,Louisiana 71351,71351,"? MH SUMH ? OP TELE ? OMH ? BMT CBT DBT IDD IPT PTM ? CIT WI ? LMG ? MC MD MI PI 
SF ? PA SS ? TAY SE GL VET MF CJ CO HV TRMA PED PTSD SED SMI ? CDM COOT DEC ES 
FPSY IMR SPS PEER ? NRT NSC STU TCC ? SMON ? ADLT CHLD SNR YAD ? AH"
Beacon Behavioral Hospital Metairie Outpatient,3200 Ridgelake Drive Suite 100,Metairie,Louisiana 70002,70002,"? MH SUMH ? OP ? OMH ? BMT CBT GT IDD IPT PTM ? PVTP ? MC PI SF ? SE CO SMI ? IMR 
? SMPD ? ADLT SNR YAD"
DuraCARE Counseling and Consulting Services LLC,4323 Division Street Suite 102,Metairie,Louisiana 70002,70002,"? MH SUMH ? OP TELE ? OMH ? AT BMT CBT CFT GT IDD IPT PTM TT ? CIT ? PVTP ? MD PI 
SF ? PA SS ? COOT DEC ES FPSY PRS SPS ? STU TCC ? SMPD ? ADLT CHLD SNR YAD"
Seaside Behavioral Center,4200 Houma Boulevard,Metairie,Louisiana 70006,70006,"? MH SUMH ? HI ? PSY ? AT BMT CBT GT IDD IPT PTM TT ? CIT ? PVTP ? MC MD PI SF SI VAF 
? SMI ? CDM CM DEC FPSY IPC PRS SPS ? NRT NSC STU TCC ? SMON ? ADLT SNR ? AH ? 
SP"
Family Services Unlimited Inc,1110 Homer Road,Minden,Louisiana 71055,71055,"? MH SUMH ? OP TELE ? OMH ? BMT CBT CFT IPT PTM TT ? CIT ? PVTP ? MD ? TAY GL CJ 
CO HV TRMA PTSD SED SMI ? COOT PRS SPS ? SMPD ? ADLT CHLD YAD"
Minden Behavioral Health Clinic,502 Nella Street,Minden,Louisiana 71055,71055,"? MH SUMH ? OP ? OMH ? BMT CBT GT IDD IPT PTM TT ? CIT ? OSG ? CMHG MC MD MI PI 
SCJJ SF SI SMHA ? CO ? COOT ES FPSY SPS PEER ? NRT NSC STU TCC ? SMON ? ADLT 
CHLD SNR YAD"
Aimwell Addiction Recovery Center,1106 Stubbs Avenue Suite B,Monroe,Louisiana 71201,71201,"? MH SUMH ? OP TELE ? OMH ? AT BMT CBT CFT GT IDD IPT PTM TT ? CIT ? PVTP ? MD MI 
PI SF VAF ? SE GL VET ADM MF CJ CO HV TRMA TBI ALZ PED PTSD SMI ? COOT DEC FPSY 
IPC SPS ? NRT NSC STU TCC ? SMPD ? ADLT SNR YAD"
Allegiance Inpatient of Monroe,3421 Medical Park Drive,Monroe,Louisiana 71203,71203,"? MH SUMH ? HI OP TELE ? PSY ? AT BMT CBT DBT GT IPT PTM TT ? CIT ? PVTP ? MC MD 
MI PI SF SI ? SE CO TRMA ALZ PTSD ? CDM CM DEC FPSY IMR IPC PRS SPS ? NRT NSC 
STU TCC ? SMON ? ADLT SNR"
Cognitive Development Center,4951 Central Avenue,Monroe,Louisiana 71203,71203,"? MH SUMH ? OP PHDT TELE ? OMH ? BMT CBT CFT GT IDD IPT PTM ? PVTP ? MD SCJJ 
SEF SWFS ? TAY CO ? CM FPSY PRS SPS VRS ? STU ? SMPD ? ADLT CHLD SNR YAD"
Cypress Grove Behavioral Health,414 Pine Street,Monroe,Louisiana 71201,71201,"? MH ? OP ? OMH ? BMT CBT GT IPT PTM ? PVTP ? MC MD MI PI SF SI SMHA ? SE ? CM ? 
STU ? SMPD ? ADLT SNR YAD"
Monroe Behavioral Health Center,4800 South Grand Street,Monroe,Louisiana 71202,71202,"? MH SUMH ? OP TELE ? OMH ? BMT CBT CFT DBT GT IDD IPT PTM TT ? WI ? SMA ? CSBG 
MC MD MI PI SF SI ? PA ? CM FPSY IMR PEER ? NRT NSC STU TCC ? SMON ? ADLT CHLD 
SNR YAD ? AH"
Rehab Services of NE LA LLC,4306 South Grande Street,Monroe,Louisiana 71202,71202,"? MH ? OP TELE ? OMH ? BMT CBT DBT IPT PTM TT ? CIT ? PVTP ? MC MD ? TAY SE SED 
SMI ? CM COOT FPSY PRS SPS ? STU ? SMPD ? ADLT CHLD SNR YAD"
University Health Conway,4864 Jackson Street,Monroe,Louisiana 71202,71202,"? MH SUMH ? HI TELE ? PSY ? AT CBT GT IPT PTM ? CIT WI ? PVTN ? CLF CMHG CSBG ITU 
MC MD MI OSF PI SCJJ SF SI SMHA VAF ? PA SS ? CO SMI ? CM DEC LAD SPS ? NRT NSC 
STU TCC ? SMON ? ADLT SNR YAD ? AH"
Ochsner St Mary BHU,1125 Marguerite Street,Morgan City,Louisiana 70380,70380,"? MH SUMH ? HI TELE ? PSY ? AT CBT CFT DBT GT IDD IPT PTM ? CIT WI ? PVTP ? ITU MC 
MD MI PI SF ? CM DEC FPSY IPC SPS ? NRT NSC STU TCC ? SMON ? ADLT SNR YAD"
Saint Mary Behavioral Health Center,500 Roderick Street Suite B,Morgan City,Louisiana 70380,70380,"? MH SUMH ? OP TELE ? OMH ? CBT CFT GT IDD IPT PTM TT ? WI ? LMG ? CLF CMHG 
CSBG MC MD MI OSF PI SCJJ SF SI SMHA ? PA SS ? CO TRMA SMI ? CM COOT DEC FPSY 
IMR IPC SPS PEER ? NRT NSC STU TCC ? SMON ? ADLT CHLD SNR YAD ? AH ? SP"
Natchitoches Regional Medical Center Behavioral Health,501 Keyser Avenue,Natchitoches,Louisiana 71457,71457,"? MH SUMH ? HI PHDT RES ? PSY ? AT CBT CFT DBT GT IDD IPT PTM TT ? PVTN ? MC MD 
MI PI SF ? SE GL VET MF CJ CO HV TRMA TBI ALZ PED PTSD ? CDM CM COOT DEC ES FPSY 
ICM IMR IPC SPS ? NRT NSC STU TCC ? SMON ? ADLT SNR YAD ? AH"
NLHSD Natchioches,210 Medical Drive,Natchitoches,Louisiana 71457,71457,"? MH SUMH ? OP TELE ? OMH ? AT BMT CBT GT IDD IPT PTM TT ? CIT WI ? SMA ? FQHC ? 
MC MD PI SCJJ SF SI SMHA SWFS ? PA SS ? SE VET ADM MF CO HV TRMA PTSD SED SMI ? 
ACT CM COOT ES FPSY IPC SH SPS PEER ? NRT NSC STU TCC ? SMPD ? ADLT CHLD SNR 
YAD ? AH"
Genesis Outpatient Services New Iberia,1217 Adrian Street,New Iberia,Louisiana 70560,70560,"? MH SUMH ? OP PHDT TELE ? PH ? BMT GT IPT PTM ? PVTP ? MC PI SF ? CO SMI ? COOT 
SPS ? SMPD ? ADLT SNR"
Keys for Sober Living LLC,132 West Saint Peter Street,New Iberia,Louisiana 70560,70560,"? MH SUMH ? OP PHDT TELE ? MSNH ? BMT CBT CFT DBT GT IDD IPT PTM TT ? WI ? PVTP 
? CLF CMHG CSBG ITU MC MD MI OSF PI SCJJ SEF SF SI SMHA SWFS VAF ? SS ? TAY SE GL 
VET ADM MF CJ CO HV TRMA PED PTSD SMI ? CM COOT DEC FPSY IPC SPS ? STU TCC ? 
SMPD ? ADLT CHLD SNR YAD ? AH"
New Iberia Behavioral Health Clinic,611 West Admiral Doyle Drive,New Iberia,Louisiana 70560,70560,"? MH SUMH ? OP ? CMHC ? BMT CBT CFT GT IDD IPT PTM TT ? WI ? SMA ? FQHC ? CMHG 
CSBG MC MD MI OSF PI SF SMHA ? PA ? TAY SE GL MF CJ CO HV TRMA ALZ PED PTSD SED 
SMI ? COOT ES FPSY IMR SPS ? STU ? SMON ? ADLT CHLD SNR YAD ? AH ? F17 F48"
Rehab of Acadiana New Iberia,302 Hacker Street,New Iberia,Louisiana 70560,70560,"? MH ? OP ? CMHC ? BMT CBT IPT PTM ? PVTP ? MD ? TAY SE GL VET MF CJ HV TRMA TBI 
PED PTSD SED SMI ? FPSY PRS SPS ? TCC ? SMPD ? ADLT CHLD SNR YAD"
Beacon Behavioral Hospital New Orleans,14500 Hayne Boulevard Suite 200,New Orleans,Louisiana 70128,70128,"? MH SUMH ? HI ? PSY ? AT BMT CBT CFT DBT GT IDD IPT PTM TT ? PVTP ? MC MD MI PI SF 
VAF ? SMI ? CDM CM HS IMR IPC SPS ? NRT NSC STU TCC ? SMPD ? ADLT SNR YAD ? AH ? 
SP"
Clarke Community Services Inc,3308 Tulane Avenue Suite 407,New Orleans,Louisiana 70119,70119,"? MH SUMH ? OP TELE ? OMH ? AT BMT CBT CFT IDD IPT PTM TT ? WI ? PVTP ? MD ? TAY 
SE GL VET MF CJ CO HV TRMA TBI PED PTSD SED SMI ? CM COOT FPSY ICM IPC PRS SPS 
? SMPD ? ADLT CHLD SNR YAD"
Community Care Hospital,1421 General Taylor Street,New Orleans,Louisiana 70115,70115,"? MH SUMH ? HI ? PSY ? AT BMT CBT GT IDD IPT PTM TT ? CIT ? PVTP ? MC MD MI PI SF 
SMHA ? SE CJ CO TRMA SMI ? CM FPSY ICM SPS ? SMPD ? ADLT SNR YAD ? AH"
Ctr for Hope Children and Fam Servs,5630 Crowder Boulevard Suite 208,New Orleans,Louisiana 70127,70127,"? MH SUMH ? OP ? OMH ? CBT CFT GT IPT PTM TT ? CIT WI ? PVTP ? MC MD SF ? PA SS ? 
TAY SE GL CJ CO TRMA ALZ PED PTSD SED SMI ? CM COOT DEC ES FPSY PRS SPS ? SMPD 
? ADLT CHLD SNR YAD"
Destined for a Change Inc,2968 General Collins Avenue,New Orleans,Louisiana 70114,70114,"? MH SUMH ? OP ? OMH ? AT BMT CBT CFT DBT GT IDD IPT PTM TT ? CIT WI ? PVTP ? MC 
MD PI SF ? PA SS ? TAY SE GL VET ADM MF CJ CO HV TRMA PED PTSD SED SMI ? CDM CM 
COOT DEC ES HS ICM IMR PRS SH SPS ? SMPD ? ADLT CHLD SNR YAD ? AH"
Ekems Healthcare Inc Mental Rehab Outpatient Clinic,8470 Morrison Road Suite A,New Orleans,Louisiana 70127,70127,"? MH ? OP ? OMH ? AT BMT CBT IDD IPT PTM TT ? CIT ? PVTP ? MC MD PI ? TAY GL CO 
TRMA PTSD SED SMI ? COOT PRS SPS ? SMPD ? ADLT CHLD YAD"
Essential Care Services,3901 Ulloa Street,New Orleans,Louisiana 70119,70119,"? MH SUMH ? OP PHDT ? CMHC ? CBT CFT GT IPT PTM ? PVTP ? MD SF ? SS ? GL CO HV 
PTSD SMI ? CM HS ICM PRS SH ? SMPD ? ADLT CHLD SNR YAD"
Family Care Inc,2401 Westbend Parkway Suite 4070,New Orleans,Louisiana 70114,70114,"? MH SUMH ? OP ? OMH ? AT BMT CBT CFT DBT GT IDD IPT PTM TT ? PVTP ? MD OSF SCJJ 
SEF SF SWFS ? PA ? TAY GL CJ CO TRMA PTSD SED SMI ? FPSY PRS SPS ? SMPD ? ADLT 
CHLD YAD"
Family Serv of Greater New Orleans,2515 Canal Street Suite 200,New Orleans,Louisiana 70119,70119,"? MH SUMH ? OP TELE ? OMH ? AT BMT CBT CFT GT IDD IPT TT ? PVTN ? CLF CMHG MD 
OSF PI SCJJ SF SMHA SWFS ? PA SS ? CO TRMA PTSD ? CDM CM COOT ES FPSY IMR PRS 
VRS ? STU ? SMPD ? ADLT CHLD SNR YAD ? SP"
Greenpath International Inc,411 South Broad Street,New Orleans,Louisiana 70119,70119,"? MH SUMH ? OP ? OMH ? BMT CBT CFT DBT GT IDD IPT PTM TT ? CIT ? PVTN ? FQHC ? 
CLF CMHG CSBG MC MD MI OSF PI SCJJ SEF SF SMHA SWFS VAF ? PA SS ? TAY SE GL VET 
ADM MF CJ CO HV TRMA PTSD SED SMI ? CM COOT FPSY PRS ? SMPD ? ADLT CHLD SNR 
YAD"
Integrity Behavioral Management,5610 Read Boulevard,New Orleans,Louisiana 70127,70127,"? MH SUMH ? OP PHDT ? CMHC ? AT BMT CBT CFT DBT GT IDD IPT PTM TT ? CIT ? PVTP ? 
FQHC ? MC MD SF ? SS ? TAY SE CJ CO TRMA TBI PED PTSD SED SMI ? COOT DEC ES LAD 
PRS SPS PEER ? NRT NSC STU TCC ? SMPD ? ADLT CHLD SNR YAD"
Metropolitan Human Services District Algiels Behavioral Health Center,3100 General DeGaulle Drive Suites A and B,New Orleans,Louisiana 70114,70114,"? MH SUMH ? OP TELE ? OMH ? CBT GT IPT PTM TT ? CIT WI ? LMG ? CMHG CSBG MC MD 
SMHA ? PA SS ? TAY CO TRMA SED SMI ? CM COOT HS IPC LAD SEMP SH SPS VRS PEER ? 
STU ? SMON ? ADLT CHLD SNR YAD ? AH"
Metropolitan Human Services District Central City Behav Hlth Ctr,2221 Philip Street,New Orleans,Louisiana 70113,70113,"? MH SUMH ? OP ? OMH ? CBT GT IPT PTM TT ? CIT WI ? LMG ? CMHG CSBG MC MD OSF 
SI SMHA ? PA ? CO TRMA SMI ? CM HS IPC LAD SEMP SH VRS PEER ? STU TCC ? SMON ? 
ADLT SNR YAD ? AH"
Metropolitan Human Services District Chartres Pontchartrain BH Center,719 Elysian Fields Avenue,New Orleans,Louisiana 70117,70117,"? MH SUMH ? OP ? OMH ? BMT CBT CFT GT IPT PTM ? CIT WI ? LMG ? CMHG CSBG MD 
OSF SI SMHA ? PA ? TAY CO SED ? FPSY HS IPC LAD SEMP SH SPS VRS PEER ? STU TCC ? 
SMON ? CHLD YAD ? AH ? SP"
Metropolitan Human Services District New Orleans E Behavioral Health Center,"5630 Read Boulevard, 2nd Floor",New Orleans,Louisiana 70127,70127,"? MH SUMH ? OP TELE ? OMH ? CBT GT IPT PTM TT ? CIT WI ? OSG ? CMHG CSBG MC MD 
SMHA ? PA ? TAY SE CO TRMA SED SMI ? CM COOT HS IPC LAD SEMP SH SPS VRS PEER ? 
STU ? SMON ? ADLT CHLD SNR YAD ? AH"
NAMI New Orleans National Alliance on Mental Illness,1538 Louisiana Avenue,New Orleans,Louisiana 70115,70115,"? MH SUMH ? OP ? PH ? GT IPT ? PVTN ? CLF CMHG CSBG MC MD PI SF SMHA ? SMI ? CM 
FPSY ICM IMR PRS SH PEER ? SMPD ? ADLT SNR YAD"
New Orleans Center for Mind/Body/Health,643 Magazine Street Suite 304,New Orleans,Louisiana 70130,70130,"? MH ? OP ? OMH ? BMT CBT CFT GT IPT ? PVTN ? PI SF ? SE GL TRMA PED PTSD ? SMON 
? ADLT SNR YAD"
Obyke Healthcare Services LLC,3028 Gentilly Boulevard,New Orleans,Louisiana 70122,70122,"? MH SUMH ? OP ? OMH ? AT BMT CFT GT IPT PTM TT ? CIT ? PVTP ? MD SI ? TRMA PTSD 
SED ? CM ES HS IPC PRS SPS ? SMPD ? ADLT CHLD SNR YAD"
Ochsner Medical Center Outpatient Psychiatric Services,1514 Jefferson Highway,New Orleans,Louisiana 70121,70121,"? MH SUMH ? OP PHDT TELE ? PSY ? BMT CBT CFT DBT ECT GT IDD IPT PTM TT ? PVTN ? 
MC MD PI SF ? TCC ? SMON ? ADLT SNR YAD ? AH ? SP"
Positive Living Treatment Center,3330 Canal Street,New Orleans,Louisiana 70119,70119,"? MH ? OP PHDT ? CMHC ? AT BMT CBT CFT DBT GT IPT PTM TT ? CIT WI ? PVTN ? MC MD 
PI SF SI ? SS ? TAY SE CJ CO TRMA PTSD SED SMI ? CDM CM COOT DEC FPSY ICM IPC 
PRS SPS ? SMPD ? ADLT CHLD SNR YAD ? AH ? SP"
Rehab Services of New Orleans,4747 Earhart Boulevard Suite D,New Orleans,Louisiana 70125,70125,"? MH SUMH ? OP ? OMH ? BMT CBT IDD IPT PTM TT ? CIT ? PVTP ? MD ? TAY SE GL CO 
TRMA PTSD SED SMI ? CDM COOT FPSY PRS SPS ? SMPD ? ADLT CHLD SNR YAD"
River Oaks Hospital Psychiatric Program,1525 River Oaks Road West,New Orleans,Louisiana 70123,70123,"? MH SUMH ? HI PHDT ? PSY ? AT BMT CBT CFT DBT GT IDD IPT PTM TT ? CIT WI ? PVTP ? 
CMHG MC MD MI PI SF SWFS VAF ? VET ADM MF CO TRMA PED PTSD SED SMI ? CM ES 
FPSY HS SPS ? NRT NSC STU TCC ? SMPD ? ADLT CHLD SNR YAD ? AH"
Seaside Behavioral Center,4201 Woodland Drive,New Orleans,Louisiana 70131,70131,"? MH SUMH ? HI ? PSY ? AT BMT CBT GT IDD IPT PTM TT ? CIT ? PVTP ? MC MD PI SF SI 
VAF ? SMI ? CDM CM DEC FPSY IPC PRS SPS ? NRT NSC STU TCC ? SMON ? ADLT SNR ? 
AH"
Southeast Louisiana VA HCS New Orleans VA Outpatient Clinic,2400 Canal Street,New Orleans,Louisiana 70118,70118,"? MH SUMH ? HI OP TELE ? CBT CFT DBT GT IPT PTM TT ? CIT WI ? VAMC ? VAF ? SE GL 
VET CO HV TRMA TBI PTSD ? ACT CDM DEC ES FPSY HS ICM IPC PRS SEMP SH SPS VRS 
PEER ? NSC STU TCC ? SMPD ? ADLT SNR YAD ? VO ? AH"
University Medical Center Infectious Disease Center,"2000 Canal Street, Clinic 4-C",New Orleans,Louisiana 70112,70112,"? MH SUMH ? OP ? OMH ? AT CBT CFT GT IPT PTM TT ? PVTN ? MC MD OSF PI SF ? PA SS ? 
SE GL HV ? CDM CM DEC FPSY HS IPC LAD PEER ? NRT NSC STU TCC ? SMON ? ADLT SNR 
YAD"
Margaret Dumas Mental Health Ctr Point Coupee MH Outreach Clinic,282-A Hospital Road,New Roads,Louisiana 70760,70760,"? MH SUMH ? OP ? OMH ? BMT CBT CFT DBT IDD IPT PTM TT ? CIT WI ? OSG ? MC MD MI PI 
SF SI SMHA ? PA SS ? CO ? CDM CM COOT ES FPSY SPS ? STU TCC ? SMON ? ADLT SNR 
YAD"
Rehab of Cenla Oakdale,905 East 7th Avenue Suite 2,Oakdale,Louisiana 71463,71463,"? MH ? OP ? OMH ? BMT CBT IPT PTM ? CIT ? PVTP ? MD ? PA ? CM ES FPSY IMR PRS SPS 
? SMPD ? ADLT CHLD SNR YAD"
Allen Behvioral Health Clinic,402 Industrial Drive,Oberlin,Louisiana 70655,70655,"? MH SUMH ? OP TELE ? OMH ? BMT CBT CFT DBT GT IDD IPT PTM TT ? LMG ? CLF CMHG 
CSBG ITU MC MD MI OSF PI SCJJ SEF SF SI SMHA SWFS VAF ? PA ? PEER ? NRT NSC STU 
TCC ? SMON ? ADLT CHLD SNR YAD ? AH"
Hardtner Medical Center,1102 North Pine Road,Olla,Louisiana 71465,71465,"? MH SUMH ? HI OP ? PSY ? AT BMT CBT CFT GT IPT PTM ? CIT WI ? PVTN ? MC MD MI PI 
SF SI ? SE CO TRMA ALZ PED PTSD SMI ? CM ES SPS ? NRT NSC STU TCC ? SMPD ? ADLT 
SNR ? AH"
Compass Behavioral Center,3983 I-49 South Service Road,Opelousas,Louisiana 70570,70570,"? MH SUMH ? HI TELE ? PSY ? AT BMT CBT DBT GT IDD IPT PTM TT ? PVTN ? MC MD MI PI 
SF SI VAF ? SE GL VET CJ CO HV TRMA TBI ALZ PTSD SMI ? CM ES ? STU TCC ? SMPD ? 
ADLT SNR YAD"
Oceans Behavioral Hospital,1310 Heather Drive,Opelousas,Louisiana 70570,70570,"? MH SUMH ? HI OP ? PSY ? AT CBT GT IDD IPT PTM ? PVTP ? MC MD MI PI SF ? SE CO ALZ 
? CM IMR PRS SPS ? NRT NSC STU TCC ? SMPD ? SNR ? AH"
Opelousas Mental Health Center,220 South Market Street,Opelousas,Louisiana 70570,70570,"? MH SUMH ? OP ? OMH ? BMT CBT CFT DBT GT IDD IPT PTM ? CIT WI ? PVTN ? CMHG 
CSBG MC MD OSF PI SF SI SMHA SWFS ? PA SS ? SE CO SMI ? CDM COOT ES FPSY SPS ? 
STU ? SMON ? ADLT SNR YAD"
Alexandria VA Healthcare System Mental Health (116A),2495 Shreveport Highway,Pineville,Louisiana 71360,71360,"? MH SUMH ? HI OP TELE ? PSY ? AT BMT CBT CFT DBT GT IDD IPT PTM TT ? WI ? VAMC ? 
PI VAF ? SE GL VET CO TRMA TBI PED PTSD SMI ? CDM CM DEC ES FPSY HS ICM IMR IPC 
SEMP SH SPS VRS PEER ? NRT NSC STU TCC ? SMPD ? ADLT SNR YAD ? VO ? AH ? SP"
Lafourche Behavioral Health Center SCLHSA,157 Twin Oaks Drive,Raceland,Louisiana 70394,70394,"? MH SUMH ? OP TELE ? OMH ? CBT CFT GT IDD IPT PTM TT ? WI ? LMG ? CLF CMHG 
CSBG MC MD MI OSF PI SCJJ SF SI SMHA ? PA SS ? CO TRMA SMI ? CM COOT DEC FPSY 
IMR IPC SPS PEER ? NRT NSC STU TCC ? SMON ? ADLT CHLD SNR YAD ? AH"
Ochsner Saint Anne General Hospital Behavioral Health,4608 Highway 1,Raceland,Louisiana 70394,70394,"? MH SUMH ? HI ? PSY ? AT CBT DBT GT IPT PTM ? WI ? PVTN ? MC MD MI PI SF SI ? SMI ? 
ACT CM DEC FPSY ? NRT NSC STU TCC ? SMON ? ADLT SNR YAD ? AH"
Southeast Louisiana VA HCS Saint John VA Clinic,4004 West Airline Highway,Reserve,Louisiana 70084,70084,"? MH ? OP TELE ? CBT GT IPT PTM ? VAMC ? VAF ? VET PTSD ? DEC ES HS IPC SPS ? NSC 
STU ? SMPD ? ADLT SNR YAD ? VO ? AH"
Allegiance Health Center of Ruston,1401 Ezell Street,Ruston,Louisiana 71270,71270,"? MH SUMH ? HI TELE ? PSY ? AT BMT CBT DBT GT IPT PTM ? PVTP ? MC MD MI PI SF SI 
VAF ? SE VET CO TRMA ALZ PTSD ? CDM CM DEC IPC PRS SPS ? NRT STU ? SMON ? ADLT 
SNR"
Rehabilitation Services NELA LLC Ruston,305 East Mississippi Avenue Suite 1,Ruston,Louisiana 71270,71270,"? MH SUMH ? OP TELE ? OMH ? AT BMT CBT CFT DBT GT IDD IPT PTM TT ? CIT ? PVTP ? 
MD ? TAY SE GL VET ADM MF CJ CO HV TRMA TBI PTSD SED SMI ? ACT CM COOT DEC ES 
FPSY HS ICM IPC PRS SH SPS VRS PEER ? NSC STU TCC ? SMPD ? ADLT CHLD SNR YAD"
Ruston Behavioral Health Clinic,602 East Georgia Avenue,Ruston,Louisiana 71270,71270,"? MH SUMH ? OP TELE ? OMH ? CBT DBT GT IDD IPT PTM TT ? WI ? SMA ? FQHC ? CLF 
CMHG CSBG MC MD MI OSF PI SCJJ SF SI SWFS VAF ? PA SS ? SE CO SMI ? ACT COOT 
DEC FPSY IMR IPC PRS SPS PEER ? NRT TCC ? SMON ? ADLT CHLD SNR YAD ? AH"
Serenity Springs Specialty Hospital,1495 Frazier Road,Ruston,Louisiana 71270,71270,"? MH ? HI TELE ? PSY ? AT CFT GT IPT PTM ? PVTP ? MC MD MI PI SF SI ? SE SMI ? SMPD ? 
ADLT SNR YAD"
A Center for Hope and Change,543 Stoner Avenue,Shreveport,Louisiana 71101,71101,"? MH SUMH ? OP TELE ? OMH ? BMT CBT CFT DBT IPT PTM TT ? CIT ? PVTP ? MD SF ? PA 
SS ? SED SMI ? FPSY PRS SPS ? SMPD ? ADLT CHLD SNR YAD"
Brentwood Hospital Brentwood Behavioral Health Company,1006 Highland Avenue,Shreveport,Louisiana 71101,71101,"? MH SUMH ? HI OP PHDT TELE ? PSY ? AT BMT CBT CFT DBT ECT GT IDD IPT PTM TT ? WI 
? PVTP ? MC MD MI PI SCJJ SF SI SMHA SWFS VAF ? TAY SE GL VET ADM MF CO TRMA ALZ 
PTSD SED SMI ? CDM CM COOT DEC ES FPSY IMR IPC PRS SPS ? NRT STU TCC ? SMON ? 
ADLT CHLD SNR YAD ? AH"
Community Enrichment Prog LLC,842 Margaret Place,Shreveport,Louisiana 71101,71101,"? MH SUMH ? OP ? OMH ? AT BMT CBT GT IDD PTM TT ? CIT WI ? PVTP ? MD SMHA ? TAY 
SE VET CJ CO HV TRMA PTSD SED SMI ? CDM CM COOT FPSY IMR IPC PRS SPS ? STU ? 
SMPD ? ADLT CHLD SNR YAD"
Contemporary Family Services Inc,200 North Thomas Drive Suite 1,Shreveport,Louisiana 71107,71107,"? MH SUMH ? OP ? OMH ? BMT CBT GT IDD IPT PTM TT ? CIT ? PVTP ? MD ? TAY SE VET 
CO HV TRMA PTSD SED SMI ? ACT CDM CM COOT ES HS PRS SEMP SH VRS PEER ? SMPD 
? ADLT CHLD SNR YAD"
Family Services Unlimited Inc,1717 Marshall Street,Shreveport,Louisiana 71101,71101,"? MH SUMH ? OP TELE ? OMH ? BMT CBT CFT IPT PTM TT ? CIT ? PVTP ? MD ? TAY GL CJ 
CO HV TRMA PTSD SED SMI ? COOT PRS SPS ? SMPD ? ADLT CHLD YAD"
Physicians Behavioral Hospital,2025 Desoto Street,Shreveport,Louisiana 71103,71103,"? MH SUMH ? HI OP PHDT ? PSY ? AT CBT CFT GT IDD IPT PTM ? PVTP ? MC MD MI PI SF SI 
? CO SMI ? CDM CM DEC FPSY SPS ? NRT ? SMPD ? ADLT SNR YAD ? AH"
Shreveport Behavioral Health Clinic,1310 North Hearne Avenue,Shreveport,Louisiana 71107,71107,"? MH SUMH ? OP TELE ? OMH ? BMT CBT CFT DBT GT IDD IPT PTM TT ? CIT WI ? LMG ? 
CMHG MC MD MI PI SF SMHA ? PA SS ? CO TRMA SED ? ACT CM COOT DEC HS PRS SH 
PEER ? NRT NSC STU TCC ? SMON ? ADLT CHLD SNR YAD ? AH"
Rehab Services of New Orleans,118 Village Street Suite A,Slidell,Louisiana 70458,70458,"? MH SUMH ? OP ? OMH ? BMT CBT IDD IPT PTM TT ? CIT ? PVTP ? MD ? TAY SE GL CJ CO 
TRMA PTSD SED SMI ? CDM COOT FPSY PRS SPS ? SMPD ? ADLT CHLD SNR YAD"
Southeast Louisiana VA HCS Slidell VA Clinic,60491 Doss Drive,Slidell,Louisiana 70460,70460,"? MH SUMH ? OP TELE ? CBT GT IPT PTM ? VAMC ? VAF ? VET PTSD ? DEC ES HS IPC SPS 
PEER ? NSC STU ? SMPD ? ADLT SNR YAD ? VO ? AH"
Springhill Medical Center,2001 Doctors Drive,Springhill,Louisiana 71075,71075,"? MH ? HI ? PSY ? AT BMT CBT CFT DBT GT IDD IPT PTM ? CIT ? PVTN ? MC MD PI SF ? SE ? 
CM DEC FPSY IPC SPS ? NRT NSC STU TCC ? SMPD ? ADLT SNR ? AH"
Louisiana Methodist Childrens Home Family Plus Counseling,101 East Thomas Street,Sulphur,Louisiana 70663,70663,"? MH ? OP ? OMH ? CBT CFT GT IPT TT ? PVTN ? CLF CMHG CSBG ITU OSF PI SF ? SS ? 
CDM CM COOT ES FPSY ? SMON ? ADLT CHLD SNR YAD"
Cognitive Development Center,1705 Felicia Avenue,Tallulah,Louisiana 71282,71282,"? MH SUMH ? OP TELE ? OMH ? BMT CBT CFT GT IDD IPT PTM TT ? CIT ? PVTP ? MD SF ? 
TAY GL CO HV TRMA PTSD SED SMI ? CM COOT FPSY IMR PRS SPS ? SMPD ? ADLT CHLD 
SNR YAD"
Tallulah Behavioral Health Clinic NEDHSA,1012 Johnson Street,Tallulah,Louisiana 71282,71282,"? MH ? OP TELE ? OMH ? BMT CBT IPT PTM TT ? CIT ? LMG ? CMHG CSBG MC MD MI PI SF 
SI SMHA ? PA SS ? PEER ? NRT STU TCC ? SMON ? ADLT CHLD SNR YAD ? AH"
Bayou Oaks Health Services LLC,106 Hickory Street,Thibodaux,Louisiana 70301,70301,"? MH ? OP ? OMH ? AT BMT CBT CFT DBT IPT PTM TT ? CIT WI ? PVTP ? MC MD PI SF SI 
SMHA ? PA ? TAY SE GL ADM MF CJ TRMA PED PTSD SED SMI ? COOT FPSY PRS SPS VRS ? 
SMPD ? ADLT CHLD SNR YAD"
Magnolia Family Services LLC,1418 Tiger Drive,Thibodaux,Louisiana 70301,70301,"? MH ? OP ? OMH ? BMT CBT CFT IPT PTM ? CIT ? PVTP ? MD SI ? SED ? PRS ? SMPD ? 
ADLT CHLD SNR YAD"
Thibodaux Regional Medical Center,602 North Acadia Road,Thibodaux,Louisiana 70301,70301,"? MH SUMH ? HI OP PHDT ? PSY ? AT GT IPT PTM ? LMG ? MC MD MI PI SF SI SMHA VAF ? 
SMI ? CM COOT ES FPSY SPS ? NRT NSC STU TCC ? SMON ? ADLT SNR YAD ? AH"
New Way of SW Louisiana LLC,2683 Vidrine Road,Ville Platte,Louisiana 70586,70586,"? MH SUMH ? OP RES TELE ? MSNH ? AT BMT CBT CFT DBT GT IPT PTM TT ? SMA ? MD SF 
? TAY CO TRMA PED PTSD SED SMI ? ACT COOT ES HS PRS SH SPS PEER ? STU TCC ? 
SMPD ? CHLD YAD"
Ville Platte Behavioral Health Center,312 Court Street,Ville Platte,Louisiana 70586,70586,"? MH SUMH ? OP ? OMH ? BMT CBT CFT DBT GT IDD IPT PTM ? CIT WI ? PVTN ? CMHG 
CSBG MC MD OSF PI SF SI SMHA SWFS ? PA SS ? SE CO SMI ? CDM COOT ES FPSY SPS ? 
STU ? SMON ? ADLT CHLD SNR YAD"
Allegiance Behavioral Hlth Centers of West Monroe IOP,222 Bell Lane Suite 3,West Monroe,Louisiana 71291,71291,"? MH ? OP ? OMH ? AT BMT CBT CFT DBT GT IDD IPT PTM TT ? PVTP ? MC PI SF ? SE ALZ ? 
CDM CM ES ICM ? NSC ? SMPD ? ADLT SNR"
Glenwood Regional Medical Center Behavioral Health Center,128 Ridgedale Drive,West Monroe,Louisiana 71291,71291,"? MH SUMH ? HI OP ? PSY ? AT BMT CBT DBT ECT GT IPT PTM ? CIT WI ? PVTP ? MC MD MI 
PI SF SI SMHA VAF ? SE CO ALZ ? ACT CDM CM COOT DEC HS ICM IMR IPC SH SPS VRS 
PEER ? NRT NSC STU TCC ? SMON ? ADLT SNR YAD ? AH"
Franklin Medical Center Winsboro Behavioral Health IOP Prog,2106 Loop Road,Winnsboro,Louisiana 71295,71295,"? MH ? OP TELE ? OMH ? BMT CBT GT IPT PTM ? LMG ? MC MD MI PI SF SI SWFS ? SE ? 
COOT IPC ? SMON ? ADLT CHLD SNR YAD"
Rehab Service of NE LA LLC Winnsboro,2401 West Street,Winnsboro,Louisiana 71295,71295,"? MH ? OP TELE ? OMH ? BMT CBT DBT IPT PTM TT ? CIT ? PVTP ? MC MD ? TAY SE SED 
SMI ? CM COOT FPSY PRS SPS ? STU ? SMPD ? ADLT CHLD SNR YAD"
WHC Behav and Mental Health Servs,2104 Loop Road Suite A,Winnsboro,Louisiana 71295,71295,"? MH SUMH ? OP PHDT TELE ? OMH ? AT BMT CBT CFT GT IPT PTM TT ? PVTN ? CLF CMHG 
MC MD OSF PI SCJJ SF SI SMHA SWFS VAF ? CDM COOT FPSY SPS ? SMPD ? ADLT CHLD 
SNR YAD"
