Name,Address,City,State,Zip,Services
Justice Resource Institute Inc (JRI) Metro West Behavioral Health Ctr,380 Massachusetts Avenue,Acton,Massachusetts 01720,01720,"? MH SUMH ? OP ? OMH ? CBT CFT GT IPT PTM TT ? PVTN ? MD OSF PI SF SI SWFS ? 
TRMA PTSD SED ? FPSY SPS ? SMPD ? ADLT CHLD SNR YAD"
Arbour Counseling Services Allston,14 Fordham Road,Allston,Massachusetts 02134,02134,"? MH SUMH ? OP ? OMH ? BMT CBT CFT DBT GT IDD IPT PTM TT ? PVTP ? MC MD PI SF SI 
SMHA ? GL CO TRMA PTSD SMI ? FPSY ? NSC STU TCC ? SMPD ? ADLT CHLD SNR YAD ? 
AH ? SP F28 F42 F70 F174"
Achieve TMS East Amherst,6 University Drive Suite 204,Amherst,Massachusetts 01002,01002,? MH ? OP ? OMH ? PVTP ? MD MI PI SF SI VAF ? SMON ? ADLT SNR YAD ? SP F28 F36
Psychological Services Center University of Massachusetts Amherst,"135 Hicks Way, Tobin Hall 123",Amherst,Massachusetts 01003,01003,"? MH ? OP ? OMH ? BMT CBT CFT DBT GT IPT TT ? PVTN ? CLF CSBG OSF SEF SF ? SE GL 
? FPSY ? SMON ? ADLT CHLD SNR YAD"
ServiceNet OP Behavioral Center Amherst Clinic,400 Amity Street,Amherst,Massachusetts 01002,01002,"? MH ? OP ? OMH ? BMT CBT CFT GT IDD IPT TT ? PVTN ? MC MD MI PI SF SI ? TRMA TBI 
PTSD ? COOT FPSY SPS ? SMON ? ADLT CHLD SNR YAD ? AH ? F66"
Achieve TMS East Andover,2 Dundee Park Drive Suite 205-A,Andover,Massachusetts 01810,01810,? MH ? OP ? OMH ? PVTP ? MD MI PI SF SI VAF ? SMON ? ADLT SNR YAD
Wayside Youth/Fam Support Ntwk Twelve Prescott,12 Prescott Street,Arlington,Massachusetts 02474,02474,"? MH SUMH ? RES ? RTCA ? AT CBT CFT DBT GT IPT PTM TT ? PVTN ? MC MD PI SF SI 
SMHA SWFS ? TAY SMI ? CM COOT FPSY PEER ? STU ? SMON ? YAD ? AH"
Clinical and Support Options Inc,491 Main Street,Athol,Massachusetts 01331,01331,"? MH SUMH ? OP TELE ? OMH ? BMT CBT CFT GT IPT PTM TT ? CIT ? PVTN ? MC MD MI PI 
SF SI ? CO TRMA PTSD SED ? PEER ? TCC ? SMON ? ADLT CHLD SNR YAD ? F30 F66"
Community Csl of Bristol County Attleboro Clinic,5 Bank Street Suite 206,Attleboro,Massachusetts 02703,02703,"? MH SUMH ? OP ? OMH ? CBT CFT GT IPT PTM TT ? CIT ? PVTN ? MC MD PI SF ? SE CO ? 
SMON ? ADLT CHLD SNR YAD"
Justice Resource Institute Inc Atteboro Center,543 Newport Avenue,Attleboro,Massachusetts 02703,02703,"? MH SUMH ? PHDT RES ? MSNH ? AT CBT CFT GT IPT PTM TT ? PVTN ? PI SCJJ SEF SF SI 
SMHA SWFS ? TAY CJ TRMA PTSD SED ? ES FPSY PRS SPS ? SMON ? CHLD YAD"
Justice Resource Institute Inc,Southern NE Behav Health and Trauma 140 Park Street Suite 3,Attleboro,Massachusetts 02703,02703,"? MH SUMH ? OP ? OMH ? CBT CFT DBT GT IDD IPT PTM TT ? PVTN ? MC MD OSF PI SCJJ 
SF SI SMHA SWFS ? CJ CO TRMA PTSD SED SMI ? ACT COOT FPSY SPS ? STU TCC ? SMPD 
? ADLT CHLD SNR YAD"
South Bay Community Services,607 Pleasant Street Suite 115,Attleboro,Massachusetts 02703,02703,"? MH SUMH ? OP ? OMH ? BMT CBT CFT GT IDD IPT PTM TT ? PVTP ? MC MD PI SF SI 
SMHA SWFS ? CDM COOT FPSY ? TCC ? SMPD ? ADLT CHLD SNR YAD ? F96"
Nashoba Valley Medical Center GPU,200 Groton Road,Ayer,Massachusetts 01432,01432,"? MH SUMH ? HI OP TELE ? PSY ? AT BMT CBT CFT GT IPT PTM ? CIT WI ? PVTP ? MC MD 
MI PI SF SI ? PA ? SE GL VET ADM MF CO TRMA ALZ PTSD SMI ? CDM CM DEC ES FPSY IMR 
IPC SPS ? NRT NSC STU TCC ? SMON ? ADLT SNR ? AH ? SP F67 F70"
Edinburg Center Inc,205 Burlington Road,Bedford,Massachusetts 01730,01730,"? MH SUMH ? OP PHDT ? MSNH ? BMT CBT CFT GT IDD IPT PTM TT ? PVTN ? MC MD OSF 
PI SF SI SMHA SWFS ? CO SED SMI ? ACT CDM FPSY IMR IPC PRS SEMP SH VRS ? NSC 
STU TCC ? SMPD ? ADLT CHLD SNR YAD ? AH ? SP F17 F19 F25 F35 F47"
Edinburg Center Inc,20 Railroad Avenue,Bedford,Massachusetts 01730,01730,"? MH SUMH ? RES ? RTCA ? PVTN ? SMHA ? CM IMR PRS ? SMPD ? ADLT SNR YAD ? AH ? 
SP"
Edith Nourse Rogers Mem VA Hosp Mental Health Service Line (116A),200 Springs Road,Bedford,Massachusetts 01730,01730,"? MH SUMH ? HI OP PHDT RES TELE ? AT BMT CBT CFT DBT GT IDD IPT PTM TT ? CIT WI ? 
VAMC ? VAF ? SE GL VET CO TRMA TBI PTSD SMI ? ACT CDM CM COOT DEC ES FPSY HS 
ICM IMR IPC LAD PRS SEMP SH SPS TPC VRS PEER ? NRT NSC STU TCC ? SMPD ? ADLT 
SNR YAD ? VO ? AH"
Edinburg Center Inc,63 Hull Street,Belmont,Massachusetts 02478,02478,"? MH SUMH ? RES ? RTCA ? PVTN ? SMHA ? CM IMR PRS ? SMPD ? ADLT SNR YAD ? AH ? 
SP"
Edinburg Center Inc,31 Beech Street,Belmont,Massachusetts 02478,02478,"? MH SUMH ? RES ? RTCA ? PVTN ? SMHA ? CM IMR PRS ? SMPD ? ADLT SNR YAD ? AH ? 
SP"
McLean Hospital,115 Mill Street,Belmont,Massachusetts 02478,02478,"? MH ? RES ? RTCA ? AT BMT CBT CFT DBT GT IDD IPT PTM TT ? PVTN ? MC MI PI SF SI ? 
VET ADM MF CO TRMA PTSD ? DEC FPSY ? SMON ? ADLT SNR YAD"
McLean Hospital,115 Mill Street,Belmont,Massachusetts 02478,02478,"? MH SUMH ? HI OP PHDT RES ? PSY ? AT BMT CBT CFT DBT ECT GT IDD IPT PTM TT ? WI 
? PVTN ? MC MD MI PI SEF SF ? SE GL VET ADM MF CO TRMA ALZ PED PTSD SMI ? CDM 
CM ES FPSY ICM IMR SPS PEER ? NRT NSC STU TCC ? SMPD ? ADLT CHLD SNR YAD ? AH"
Lahey Health Behavioral Services Beverly Clinic,800 Cummings Center Suite 266-T,Beverly,Massachusetts 01915,01915,"? MH SUMH ? OP ? OMH ? BMT CBT CFT DBT GT IDD IPT PTM TT ? CIT ? PVTN ? MC MD MI 
OSF PI SCJJ SF SI SMHA ? SS ? GL CJ TRMA SED ? COOT SPS ? STU TCC ? SMPD ? ADLT 
CHLD SNR YAD ? AH ? SP"
North Shore Counseling Center Inc,900 Cummings Center Suite 324-S,Beverly,Massachusetts 01915,01915,"? MH SUMH ? OP ? OMH ? CBT CFT DBT GT IPT PTM TT ? PVTP ? MC MD PI SF SI ? CDM 
COOT FPSY IMR ? STU ? SMPD ? ADLT CHLD SNR YAD"
Boston Alcohol and Substance Abuse Program,25 Kingston Street Suite 3-F,Boston,Massachusetts 02111,02111,"? MH SUMH ? OP ? OMH ? AT CBT CFT DBT GT IDD IPT TT ? PVTN ? FQHC ? PI SF SI SWFS 
? SE CO SED SMI ? CM COOT DEC FPSY PRS ? SMPD ? ADLT CHLD SNR YAD"
Boston Childrens Hospital Psychiatric Division,"300 Longwood Avenue, Fegan 8",Boston,Massachusetts 02115,02115,"? MH ? OP TELE ? OMH ? BMT CBT CFT GT IPT PTM TT ? CIT ? SMA ? MC MD MI PI SCJJ 
SEF SF SI SMHA SWFS ? SED ? CDM CM DEC ES FPSY IMR IPC SPS ? STU TCC ? SMON ? 
CHLD YAD ? AH ? SP F4"
Boston Healthcare for the Homeless Inc,780 Albany Street,Boston,Massachusetts 02118,02118,"? MH SUMH ? OP ? OMH ? BMT CBT CFT GT IDD IPT PTM TT ? PVTN ? FQHC ? MC MD PI SF 
SI ? PA SS ? CDM CM DEC FPSY ICM IMR IPC PEER ? NRT NSC STU TCC ? SMPD ? ADLT 
SNR YAD ? AH ? SP F19"
Brigham and Womens Hospital Psychiatry Department,221 Longwood Avenue,Boston,Massachusetts 02115,02115,"? MH SUMH ? OP PHDT TELE ? PSY ? AT BMT CBT CFT DBT GT IDD IPT PTM TT ? CIT WI ? 
PVTN ? CLF MC MD MI OSF PI SCJJ SEF SF SI SMHA SWFS ? SE GL VET ADM MF CJ CO HV 
TRMA TBI ALZ PED PTSD SMI ? ACT CDM CM COOT ES FPSY HS IMR IPC LAD PRS SH SPS 
TPC ? STU TCC ? SMON ? ADLT SNR YAD ? AH ? SP"
Center House Day Treatment Program Bay Cove Human Services,31 Bowker Street 5th Floor,Boston,Massachusetts 02114,02114,"? MH SUMH ? PHDT ? PH ? AT CBT DBT GT IDD TT ? PVTN ? MD SF ? GL CO TRMA PED 
PTSD ? DEC IMR PRS PEER ? SMPD ? ADLT SNR YAD"
North End Waterfront Health Behavioral Health Department,332 Hanover Street,Boston,Massachusetts 02113,02113,"? MH SUMH ? OP ? OMH ? CBT CFT GT IDD IPT PTM TT ? PVTN ? FQHC ? MC MD MI PI SF 
SI ? PA SS ? CDM DEC ES FPSY IPC SPS ? NRT NSC STU TCC ? SMPD ? ADLT CHLD SNR 
YAD ? AH ? SP F42"
North Suffolk MH Association East Boston Counseling Center,14 Porter Street,Boston,Massachusetts 02128,02128,"? MH SUMH ? OP ? OMH ? CBT CFT DBT GT IDD IPT PTM TT ? PVTN ? MC MD MI PI SF SI ? 
TAY SE CO TRMA PTSD SED SMI ? CM COOT FPSY PRS SPS ? NRT NSC STU TCC ? SMPD ? 
ADLT CHLD SNR YAD ? SP F92"
South Boston Behavioral Health Prog Tufts Medical Center,58 Old Colony Avenue,Boston,Massachusetts 02127,02127,"? MH SUMH ? OP ? OMH ? CBT CFT GT IDD IPT PTM ? WI ? PVTN ? MC MD MI PI SF SI 
SMHA SWFS VAF ? TAY GL VET ADM MF CJ CO HV TRMA PTSD SMI ? COOT FPSY PRS SPS 
? SMPD ? ADLT CHLD SNR YAD"
South End Community Health Center,1601 Washington Street,Boston,Massachusetts 02118,02118,"? MH SUMH ? OP ? OMH ? AT BMT CBT CFT DBT GT IPT PTM TT ? CIT WI ? PVTN ? FQHC ? 
MC MD MI OSF PI SF SI SMHA ? SS ? SE SMI ? CM DEC FPSY HS IPC PEER ? NRT NSC STU 
TCC ? SMON ? ADLT CHLD SNR YAD ? SP F28 F30 F31"
South End Community Health Center Dr Gerald Hass Center,400 Shawmut Avenue,Boston,Massachusetts 02118,02118,"? MH ? OP ? OMH ? AT BMT CBT CFT DBT GT IPT TT ? CIT ? PVTN ? FQHC ? MC MD MI PI 
SF SMHA ? SS ? FPSY IPC SPS ? SMON ? ADLT CHLD SNR YAD ? SP F28 F30"
Tufts Medical Center Department of Psychiatry,800 Washington Street,Boston,Massachusetts 02111,02111,"? MH SUMH ? HI OP ? PSY ? BMT CBT CFT DBT ECT IDD IPT PTM TT ? CIT WI ? PVTN ? MC 
MD MI PI SF SI SMHA SWFS VAF ? TAY SE GL VET ADM MF CJ CO HV TRMA PTSD SED SMI 
? ACT CDM CM COOT DEC ES FPSY HS ICM IMR IPC PRS SPS VRS PEER ? NRT NSC STU 
TCC ? SMPD ? ADLT CHLD SNR YAD ? AH ? SP F4 F17 F43 F70"
Tufts Medical Center Hospitals,800 Washington Street/ P.O. Box 1007,Boston,Massachusetts 02111,02111,"? MH SUMH ? HI OP ? PSY ? CBT CFT ECT GT IPT PTM TT ? CIT WI ? PVTN ? MC MD MI PI 
SF SI SMHA SWFS VAF ? TAY GL PTSD SED SMI ? FPSY IPC ? NSC STU TCC ? SMPD ? ADLT 
CHLD SNR YAD ? AH ? SP F4 F17 F25 F30 F70 F20 F73"
Brighton Allston Mental Health A Prg of Italian Home for Children,"77 Warren Street , Building 2",Ground Floor Brighton,Massachusetts 02135,02135,"? MH ? OP ? CMHC ? CBT CFT DBT GT IPT PTM TT ? CIT ? PVTN ? MC MD PI SF SI ? TAY 
TRMA SMI ? CM FPSY ? SMON ? ADLT CHLD SNR YAD ? SP F31"
Saint Elizabeths Medical Center Behavioral Health Services,736 Cambridge Street,Brighton,Massachusetts 02135,02135,"? MH SUMH ? HI OP PHDT RES TELE ? PSY ? CBT CFT DBT GT IDD IPT PTM TT ? WI ? PVTP 
? ITU MC MD PI SF SI SMHA ? SE CO ALZ PTSD SMI ? CM FPSY SPS ? NRT STU TCC ? 
SMON ? ADLT SNR YAD ? AH ? SP F17 F19 F67 F70"
Brockton Neighborhood Health Center,63 Main Street,Brockton,Massachusetts 02301,02301,"? MH SUMH ? OP ? OMH ? CBT GT IDD IPT PTM TT ? PVTN ? FQHC ? MC MD PI SF SI ? SS ? 
CO HV SMI ? CDM CM DEC ICM IPC ? NSC STU TCC ? SMPD ? ADLT CHLD SNR YAD ? AH ? 
SP F19 F28 F67"
Dept of Mental Health Brockton Multi Service Center,165 Quincy Street,Brockton,Massachusetts 02302,02302,"? MH SUMH ? OP ? CMHC ? BMT CBT DBT IPT PTM TT ? WI ? SMA ? MC MD PI SMHA ? TAY 
GL CJ SMI ? CM ES IMR SH SPS ? SMON ? ADLT SNR YAD ? AH"
Gandara Mental Health Center Gandara Brockton Outpatient Clinic,142 Crescent Street,Brockton,Massachusetts 02302,02302,"? MH SUMH ? OP TELE ? OMH ? BMT CBT CFT GT IDD IPT PTM TT ? PVTN ? MD SF ? CO 
SED SMI ? COOT FPSY ? STU TCC ? SMON ? ADLT CHLD SNR YAD ? SP F67"
Old Colony Y Mental Health Clinic,891 Montello Street,Brockton,Massachusetts 02301,02301,"? MH SUMH ? OP ? OMH ? CBT CFT DBT GT IDD IPT PTM TT ? PVTN ? MC MD PI SF SI ? CO 
SED ? CM COOT FPSY ? STU ? SMPD ? ADLT CHLD SNR YAD ? SP F4 F28 F36 F9"
Signature Healthcare Brockton Hospital Behavioral Health,680 Centre Street,Brockton,Massachusetts 02302,02302,"? MH SUMH ? HI OP ? PSY ? AT CBT CFT GT IDD IPT PTM ? CIT WI ? PVTN ? MC MD PI SF 
SI SMHA ? SE CO SMI ? IMR SPS ? NRT NSC STU TCC ? SMON ? ADLT SNR YAD ? AH ? SP 
F19 F28 F36 F67"
South Bay Community Services,"103 Commercial Street, 2nd Floor",Brockton,Massachusetts 02302,02302,"? MH SUMH ? OP PHDT ? MSNH ? BMT CBT CFT DBT GT IDD IPT PTM TT ? PVTP ? FQHC ? 
CMHG CSBG MC MD MI PI SF SI SMHA SWFS VAF ? SS ? TAY SE CJ CO TRMA PED PTSD 
SED SMI ? ACT CM COOT FPSY ICM IMR IPC PRS SPS VRS PEER ? STU TCC ? SMPD ? 
ADLT CHLD SNR YAD ? SP F19 F28 F67"
South Bay Day Services,103 Commerical Street Suite 1,Brockton,Massachusetts 02302,02302,"? MH SUMH ? OP PHDT ? PH ? AT BMT CBT DBT GT IDD PTM TT ? PVTP ? MC MD PI SF SI 
SMHA ? CO SMI ? CM COOT IMR PRS VRS PEER ? STU TCC ? SMPD ? ADLT SNR YAD"
Steward Good Samaritan Medical Ctr Senior Behavioral Health,235 North Pearl Street,Brockton,Massachusetts 02301,02301,"? MH SUMH ? HI TELE ? PSY ? AT CBT GT IDD IPT PTM TT ? WI ? PVTP ? CMHG CSBG MC 
MD PI SF SI ? PA ? SE VET CO TRMA TBI ALZ PED PTSD ? CDM CM DEC FPSY IPC LAD PRS 
SPS ? NRT NSC STU TCC ? SMON ? SNR ? AH"
HRI Hospital,227 Babcock Street,Brookline,Massachusetts 02446,02446,"? MH SUMH ? HI PHDT TELE ? PSY ? AT BMT CBT CFT DBT GT IDD IPT PTM TT ? WI ? PVTP 
? MC MD PI SF SI ? GL CO TRMA PED PTSD ? CDM COOT ES FPSY IMR SPS ? NRT NSC STU 
TCC ? SMON ? ADLT YAD ? AH"
Justice Resource Institute Inc The Trauma Center,1269 Beacon Street,Brookline,Massachusetts 02446,02446,"? MH SUMH ? OP ? OMH ? CBT CFT GT IPT PTM TT ? PVTN ? MD OSF PI SF SI SWFS ? 
TRMA PTSD ? FPSY SPS ? SMPD ? ADLT CHLD SNR YAD"
Cambridge Eating Disorder Center (CEDC),3 Bow Street,Cambridge,Massachusetts 02138,02138,"? MH SUMH ? OP PHDT RES ? MSNH ? AT CBT CFT DBT GT IPT PTM ? PVTP ? PI SF SI ? GL 
PED ? ACT CM ICM SH ? SMPD ? ADLT CHLD SNR YAD"
Cambridge Health Alliance Cambridge Hospital Inpatient,1493 Cambridge Street,Cambridge,Massachusetts 02139,02139,"? MH SUMH ? HI OP PHDT TELE ? PSY ? AT BMT CBT CFT DBT GT IPT PTM TT ? CIT WI ? 
LMG ? MC MD OSF PI SF SI ? SED ? CDM CM FPSY ICM IPC ? NRT STU ? SMON ? ADLT 
CHLD SNR YAD ? AH ? SP F67"
Child and Adolescent Outpatient Servs,799 Concord Avenue,Cambridge,Massachusetts 02138,02138,"? MH ? OP TELE ? OMH ? BMT CBT CFT DBT GT IPT PTM TT ? PVTN ? MD MI PI SEF SF ? 
SED ? CM FPSY ? SMON ? CHLD YAD"
Institute for Health and Recovery Inc,349 Broadway,Cambridge,Massachusetts 02139,02139,"? MH SUMH ? OP ? OMH ? BMT CBT CFT IDD IPT TT ? PVTN ? MC MD OSF PI SF SMHA 
SWFS ? PA SS ? TAY SE TRMA SED ? CM COOT FPSY SH PEER ? STU ? SMON ? ADLT 
CHLD SNR YAD ? SP"
North Charles Mental Health Research and Training Foundation,54 Washburn Avenue,Cambridge,Massachusetts 02140,02140,"? MH SUMH ? OP ? OMH ? CBT CFT DBT GT IDD IPT PTM TT ? PVTN ? MC MD MI PI SF SI ? 
SE VET CJ CO HV TRMA PTSD SMI ? CM COOT FPSY IMR PRS ? NRT STU TCC ? SMON ? 
ADLT SNR YAD"
Riverside Outpatient Center at Cambridge and Somerville,5 Sacramento Street,Cambridge,Massachusetts 02138,02138,"? MH SUMH ? OP ? OMH ? BMT CBT CFT DBT GT IDD IPT PTM TT ? PVTN ? MC MD PI ? 
COOT FPSY ? STU ? SMON ? ADLT CHLD SNR YAD ? SP"
Gosnold Counseling Center,1185 Falmouth Road,Centerville,Massachusetts 02632,02632,"? MH SUMH ? OP PHDT TELE ? OMH ? CBT CFT DBT GT IPT PTM ? PVTN ? MC MD MI PI SF 
SI SMHA SWFS ? CO ? CM COOT FPSY ? SMPD ? ADLT CHLD SNR YAD"
Home Base Program,1 Constitution Road Suite 140,Charlestown,Massachusetts 02129,02129,"? MH ? OP PHDT TELE ? OMH ? CBT CFT DBT GT IDD IPT PTM TT ? PVTN ? MC MD MI OSF 
PI SI ? VET ADM MF CO TBI PTSD ? CM DEC ES FPSY ? NSC STU ? SMPD ? ADLT CHLD SNR 
YAD ? AH"
Achieve TMS East Chelmsford,1 Meeting House Road Unit 3,Chelmsford,Massachusetts 01824,01824,? MH ? OP ? OMH ? PVTP ? MD MI PI SF SI VAF ? SMON ? ADLT SNR YAD ? SP F36 F42
Bridgewell Counseling Services Chelmsford,7 Summer Street Suite 19,Chelmsford,Massachusetts 01824,01824,"? MH SUMH ? OP ? OMH ? BMT CBT CFT DBT GT IDD IPT PTM TT ? PVTN ? MC MD MI PI SF 
? COOT FPSY SPS ? STU ? SMON ? ADLT CHLD SNR YAD"
North Suffolk MH Association Chelsea Counseling Center,301 Broadway,Chelsea,Massachusetts 02150,02150,"? MH SUMH ? OP ? CMHC ? CBT CFT DBT GT IDD IPT PTM TT ? CIT ? PVTN ? MC MD MI PI 
SF SI ? TAY SE CO TRMA PTSD SED SMI ? CM COOT FPSY PRS SPS ? NRT NSC STU TCC ? 
SMON ? ADLT CHLD SNR YAD ? SP"
River Valley Counseling Center Chicopee Clinic,249 Exchange Street,Chicopee,Massachusetts 01013,01013,"? MH SUMH ? OP ? CMHC ? AT BMT CBT CFT DBT GT IDD IPT PTM TT ? PVTN ? CLF MC MD 
MI OSF PI SF SI SMHA ? SS ? CO SMI ? COOT FPSY SPS ? NRT NSC STU TCC ? SMON ? 
ADLT CHLD SNR YAD ? AH ? SP F66"
Clinton Hospital Geriatric Medical Psychiatry,201 Highland Street,Clinton,Massachusetts 01510,01510,"? MH SUMH ? HI ? PSY ? AT BMT CBT GT PTM ? WI ? PVTN ? MC MD MI PI SF SI SMHA 
SWFS ? SE VET MF CO ALZ PTSD ? CDM CM FPSY IPC SPS ? NRT NSC STU TCC ? SMON ? 
SNR ? AH ? SP"
Justice Resource Institute Inc Walden Street School,160 Walden Street,Concord,Massachusetts 01742,01742,"? MH ? RES ? RTCC ? AT CBT CFT DBT GT IPT PTM TT ? PVTN ? PI SEF SF SI SMHA SWFS 
? PTSD SED ? ES FPSY PRS SPS ? SMON ? CHLD"
Whitney Academy Inc,85 Dr Braley Road,East Freetown,Massachusetts 02717,02717,"? MH ? RES ? RTCC ? AT BMT CBT CFT DBT GT IPT PTM TT ? PVTN ? CLF MD OSF PI SCJJ 
SEF SF SI SMHA SWFS ? TRMA ? CM DEC ES FPSY HS PRS VRS ? SMON ? CHLD"
CHD Outpatient Behavioral Hlth Servs Easthampton Counseling,179 Northampton Street,Easthampton,Massachusetts 01027,01027,"? MH SUMH ? OP ? OMH ? AT BMT CBT CFT DBT GT IDD IPT PTM TT ? PVTN ? MC MD MI PI 
SF SI SMHA SWFS ? CO SMI ? COOT FPSY ? STU ? SMON ? ADLT CHLD SNR YAD ? SP"
Catholic Charities Family Counseling and Guidance Ctr,"152 Sylvan Street, 3rd Floor",Danvers,Massachusetts 01923,01923,"? MH SUMH ? OP ? OMH ? BMT CBT CFT DBT GT IDD IPT PTM TT ? PVTN ? MC MD MI OSF 
PI SF SI ? CO ? COOT FPSY ? SMPD ? ADLT CHLD SNR YAD ? SP F67 F44"
Achieve TMS East Dorchester,2110 Dorchester Avenue Suite 308,Dorchester Center,Massachusetts 02124,02124,? MH ? OP ? OMH ? PVTP ? MD MI PI SF SI VAF ? SMON ? ADLT SNR YAD
Codman Square Health Center Substance User Health Services,637 Washington Street,Dorchester Center,Massachusetts 02124,02124,"? MH SUMH ? OP TELE ? OMH ? CBT CFT GT IDD IPT PTM TT ? CIT WI ? PVTN ? FQHC ? 
CLF CSBG MC MD OSF PI SF SI ? SS ? CO HV ? CDM CM COOT DEC FPSY IPC ? NRT NSC 
STU TCC ? SMPD ? ADLT CHLD SNR YAD ? SP F19 F28"
Steward Carney Hospital Behavioral Health Services,2100 Dorchester Avenue,Dorchester Center,Massachusetts 02124,02124,"? MH SUMH ? HI OP PHDT ? PSY ? AT BMT CBT CFT DBT GT IDD IPT PTM TT ? CIT WI ? 
PVTP ? MC MD MI OSF PI SCJJ SF SI SMHA SWFS ? TAY SE CO TRMA ALZ SED SMI ? CDM 
CM COOT DEC ES FPSY HS ICM IMR IPC PRS SPS PEER ? NRT NSC STU TCC ? SMON ? 
ADLT CHLD SNR YAD ? AH ? SP F19 F92"
Eliot Community Human Services,173 Chelsea Street,Everett,Massachusetts 02149,02149,"? MH SUMH ? OP TELE ? CMHC ? BMT CBT CFT DBT GT IDD IPT PTM TT ? CIT ? PVTN ? 
CLF CMHG CSBG MC MD OSF PI SCJJ SEF SF SI SMHA SWFS ? PA SS ? SE TRMA PTSD 
SED ? CM COOT ES FPSY ICM PEER ? NRT NSC STU ? SMPD ? ADLT CHLD SNR YAD ? AH ? 
SP F17 F67 F92"
Everett Hospital,103 Garland Street,Everett,Massachusetts 02149,02149,"? MH SUMH ? HI OP ? PSY ? AT BMT CBT DBT ECT GT IDD IPT PTM ? WI ? LMG ? MC MD PI 
SF SI ? SE ? CDM CM DEC FPSY ICM ? NRT STU TCC ? SMON ? ADLT SNR YAD ? AH ? SP"
Arbour Counseling Services Fall River,1082 Davol Street 2nd Floor,Fall River,Massachusetts 02720,02720,"? MH SUMH ? OP PHDT ? MSNH ? AT BMT CBT CFT GT IDD IPT PTM TT ? PVTP ? MC MD PI 
SF SI ? GL CO SMI ? COOT FPSY ? STU TCC ? SMPD ? ADLT CHLD SNR YAD ? AH ? SP F19 
F28 F67"
Child and Family Services Inc Fall River,66 Troy Street,Fall River,Massachusetts 02720,02720,"? MH ? OP TELE ? OMH ? AT BMT CBT CFT GT IPT PTM TT ? PVTN ? CSBG MC MD MI OSF 
PI SF SI SWFS ? TRMA SED ? COOT ? STU ? SMPD ? ADLT CHLD SNR YAD ? SP F30 F67"
Dr John C Corrigan MH Ctr,49 Hillside Street,Fall River,Massachusetts 02720,02720,"? MH SUMH ? HI OP PHDT ? PSY ? AT BMT CBT DBT GT IPT PTM TT ? WI ? SMA ? MC MD PI 
SF SI SMHA ? PA ? TAY TRMA SMI ? CM SEMP SH PEER ? NRT NSC STU TCC ? SMON ? 
ADLT SNR YAD ? AH ? SP F19 F67 F44"
Fall River Deaconess Home School IGH/Residential School,603 Rock Street,Fall River,Massachusetts 02720,02720,"? MH SUMH ? RES ? ORES ? AT BMT CBT CFT DBT GT IDD IPT PTM TT ? CIT ? PVTN ? CLF 
CSBG OSF SCJJ SEF SMHA SWFS ? TAY GL MF CJ CO TRMA PED PTSD SED SMI ? CDM CM 
COOT DEC ES FPSY ICM IPC PRS SEMP SH SPS VRS ? SMPD ? CHLD YAD ? SP F19 F67"
Family Service Association,151 Rock Street,Fall River,Massachusetts 02720,02720,"? MH SUMH ? OP ? CMHC ? BMT CBT CFT GT IDD IPT PTM TT ? PVTN ? MC MD MI PI SF SI ? 
TAY SE GL VET ADM MF CJ CO HV TRMA ALZ PED PTSD SED SMI ? DEC FPSY PRS SPS ? 
STU TCC ? SMON ? ADLT CHLD SNR YAD ? SP F67 F44"
Institute for Health and Recovery Inc,275 Martine Street Suite 203,Fall River,Massachusetts 02723,02723,"? MH SUMH ? OP ? OMH ? BMT CBT CFT IDD IPT TT ? PVTN ? MC MD OSF PI SF SMHA 
SWFS ? PA SS ? TAY SE TRMA SED ? CM COOT FPSY SH PEER ? STU ? SMON ? ADLT 
CHLD SNR YAD"
Saint Annes Hospital Behavioral Health,795 Middle Street,Fall River,Massachusetts 02721,02721,"? MH SUMH ? HI OP ? PSY ? AT BMT CBT GT IDD PTM ? WI ? PVTP ? MC MD MI OSF PI SF 
SI SMHA VAF ? SE CO ALZ ? CDM COOT FPSY SPS ? NRT NSC STU TCC ? SMON ? ADLT 
SNR ? AH ? F67"
Steppingstone Inc Outpatient Mental Health Clinic,279 North Main Street,Fall River,Massachusetts 02720,02720,"? MH SUMH ? OP ? OMH ? BMT CBT CFT GT IDD IPT PTM TT ? PVTN ? CSBG MC MD PI SF 
SI ? STU ? SMON ? ADLT SNR YAD ? SP F67"
Gosnold Counseling Center,196 Ter Heun Drive,Falmouth,Massachusetts 02540,02540,"? MH SUMH ? OP TELE ? OMH ? CBT CFT DBT GT IPT PTM ? PVTN ? ITU MC MD MI PI SF SI 
SMHA ? CO ? CM COOT FPSY ? SMPD ? ADLT CHLD SNR YAD"
Behavioral Health Network (BHN) Agawam Counseling Center,30 Southwick Street,Feeding Hills,Massachusetts 01030,01030,"? MH SUMH ? OP ? OMH ? CBT CFT GT IDD IPT PTM TT ? CIT ? PVTN ? MC MD MI PI SF 
SMHA ? SS ? GL ? CM COOT FPSY IPC ? NSC STU ? SMPD ? ADLT CHLD SNR YAD ? AH ? 
SP"
LUK Inc,545 Westminster Street,Fitchburg,Massachusetts 01420,01420,"? MH SUMH ? OP ? OMH ? AT CBT CFT GT IPT PTM TT ? PVTN ? MC MD PI SF SMHA SWFS 
? SS ? TRMA PTSD ? CM COOT FPSY HS SH SPS TPC ? STU TCC ? SMPD ? ADLT CHLD 
SNR YAD ? AH ? SP F19 F43"
"LUK Inc ,Behavioral Health Clinic",99 Day Street,Fitchburg,Massachusetts 01420,01420,"? MH SUMH ? OP ? OMH ? AT CBT CFT IPT TT ? PVTN ? MD PI SF SMHA SWFS ? SS ? TRMA 
PTSD ? CM COOT FPSY HS SH SPS ? STU TCC ? SMPD ? ADLT CHLD SNR YAD ? AH"
VA Central Western Massachusetts Fitchburg CBOC Phillip J Philbin Federal Building,881 Main Street,Fitchburg,Massachusetts 01420,01420,"? MH SUMH ? OP TELE ? CBT CFT GT IDD IPT PTM TT ? WI ? VAMC ? VAF ? SE GL VET ADM 
MF CJ CO TRMA TBI ALZ PTSD SMI ? CDM COOT DEC FPSY HS ICM IPC SEMP SH SPS VRS 
PEER ? NRT NSC STU TCC ? SMON ? ADLT SNR YAD ? VO"
Advocates Inc Advocates Community Counseling,354 Waverly Street,Framingham,Massachusetts 01702,01702,"? MH SUMH ? OP TELE ? OMH ? CBT CFT DBT GT IPT PTM TT ? CIT WI ? PVTN ? MC MD PI 
SF SI SMHA ? TAY SE GL VET ADM MF CJ CO TRMA TBI PTSD SED SMI ? COOT DEC ES 
FPSY SPS PEER ? NSC STU TCC ? SMON ? ADLT CHLD SNR YAD ? AH ? SP F67"
Programs for People Inc Framingham Day Hospital,98 Lincoln Street,Framingham,Massachusetts 01702,01702,"? MH SUMH ? PHDT ? PH ? AT CBT CFT DBT GT IPT TT ? PVTN ? MD PI SF ? TAY SE GL VET 
CJ CO HV TRMA TBI PED PTSD SMI ? CM DEC FPSY IMR IPC PRS SEMP SPS VRS ? SMPD ? 
ADLT SNR YAD"
South Middlesex Opportunity Council (SMOC) Behavioral Healthcare,"7 Bishop Street , Building 29",Framingham,Massachusetts 01702,01702,"? MH SUMH ? OP ? OMH ? CBT CFT GT IDD IPT PTM TT ? PVTN ? CSBG MC MD MI OSF PI 
SF SI SWFS ? CO TRMA SED SMI ? CM COOT FPSY HS PEER ? STU TCC ? SMPD ? ADLT 
CHLD SNR YAD ? AH ? SP F19 F67 F70 F5"
Wayside Youth/Fam Support Ntwk,1 Frederick Abbott Way,Framingham,Massachusetts 01701,01701,"? MH ? OP PHDT RES ? RTCC ? AT BMT CBT CFT DBT GT IPT PTM TT ? PVTN ? MC MD PI 
SF SI SMHA SWFS ? CM COOT FPSY PEER ? STU ? SMON ? CHLD ? AH ? SP F67"
Wayside Youth/Fam Support Ntwk Wayside Metrowest Counseling Center,88 Lincoln Street,Framingham,Massachusetts 01702,01702,"? MH ? OP ? OMH ? AT CBT CFT GT IPT PTM TT ? CIT ? PVTN ? MC MD PI SF SI SMHA SWFS 
? GL ? CM COOT FPSY ICM PEER ? STU ? SMON ? CHLD YAD ? AH ? SP F17 F19 F67 F70"
Arbour Counseling Services Franklin,38 Pond Street Suite 101,Franklin,Massachusetts 02038,02038,"? MH SUMH ? OP ? OMH ? BMT CBT CFT GT IDD IPT PTM TT ? PVTP ? MC MD MI PI SF SI ? 
CO TRMA PTSD ? COOT DEC ES FPSY IPC PRS SPS ? NSC STU TCC ? SMPD ? ADLT CHLD 
SNR YAD"
Heywood Hospital,242 Green Street,Gardner,Massachusetts 01440,01440,"? MH ? HI PHDT ? PSY ? AT BMT CBT CFT DBT GT IPT PTM TT ? CIT WI ? PVTN ? MC MD MI 
PI SF SI SMHA ? ALZ ? CM DEC FPSY ICM SPS PEER ? NRT NSC STU TCC ? SMON ? ADLT 
CHLD SNR YAD ? AH ? SP"
JRI Gloucester Behavioral Health Center,3 Blackburn Center Suite 200,Gloucester,Massachusetts 01930,01930,"? MH SUMH ? OP ? OMH ? CBT CFT DBT GT IPT PTM TT ? PVTN ? MC MD OSF PI SF ? GL 
CO TRMA PTSD SED SMI ? COOT FPSY ? SMPD ? ADLT CHLD SNR YAD ? AH"
Lahey Health Behavioral Services Gloucester Clinic,298 Washington Street 2nd Floor,Gloucester,Massachusetts 01930,01930,"? MH SUMH ? OP ? OMH ? BMT CBT CFT GT IDD IPT PTM TT ? PVTN ? MC MD MI PI SF SI 
SMHA SWFS ? CJ CO SMI ? COOT SPS ? STU ? SMON ? ADLT CHLD SNR YAD ? AH"
Brien Center,60 Cottage Street,Great Barrington,Massachusetts 01230,01230,"? MH SUMH ? OP PHDT ? CMHC ? AT BMT CBT CFT DBT GT IDD IPT PTM TT ? CIT ? PVTN ? 
MC MD MI OSF PI SF SI SMHA ? SS ? VET CJ CO TRMA PTSD SMI ? CM COOT FPSY SPS ? 
NRT NSC STU TCC ? SMON ? ADLT CHLD SNR YAD ? AH"
Baystate Franklin Medical Center PHP,48 Sanderson Street Suite 204,Greenfield,Massachusetts 01301,01301,"? MH SUMH ? PHDT ? PH ? AT BMT CBT CFT DBT GT IDD IPT PTM TT ? CIT ? PVTN ? MC MD 
MI PI SF ? CO ? CM DEC FPSY PRS SPS ? NRT STU TCC ? SMON ? ADLT SNR YAD"
Baystate Medical Center Franklin Behav Hlth/Psychiatry,164 High Street,Greenfield,Massachusetts 01301,01301,"? MH SUMH ? HI PHDT ? PSY ? AT CBT GT IDD IPT PTM ? WI ? PVTN ? MC MD MI PI SF SI 
SMHA SWFS ? PEER ? NRT STU TCC ? SMON ? ADLT SNR YAD ? AH ? SP"
ServiceNet OP Behavioral Center Greenfield Outpatient Clinic,55 Federal Street,Greenfield,Massachusetts 01301,01301,"? MH SUMH ? OP TELE ? OMH ? BMT CBT CFT DBT GT IDD IPT TT ? PVTN ? MC MD MI PI SF 
SI ? CO TRMA TBI PTSD ? COOT FPSY SPS ? SMON ? ADLT CHLD SNR YAD ? AH"
VA Central Western Massachusetts Greenfield Outpatient Clinic,143 Munson Street,Greenfield,Massachusetts 01301,01301,"? MH SUMH ? OP TELE ? CBT CFT GT IDD IPT PTM TT ? WI ? VAMC ? VAF ? SE GL VET ADM 
MF CJ CO TRMA TBI ALZ PTSD SMI ? CDM COOT DEC FPSY HS ICM IPC SEMP SH SPS VRS 
PEER ? NRT NSC STU TCC ? SMON ? ADLT SNR YAD ? VO"
Achieve TMS East Haverhill,145 South Main Street Suite 1-C,Haverhill,Massachusetts 01835,01835,? MH ? OP ? OMH ? PVTP ? MD MI PI SF SI VAF ? SMON ? ADLT SNR YAD ? SP F36
Haverhill Pavilion Behavioral Health Adult/Geriatric Inpatient,76 Summer Street,Haverhill,Massachusetts 01830,01830,"? MH SUMH ? HI ? PSY ? AT BMT CBT DBT GT IDD PTM TT ? PVTP ? MC MD PI SF SI SMHA 
? SE CO ? CM FPSY ? SMON ? ADLT SNR YAD ? AH ? SP F4 F70"
Holy Family Hospital Haverhill Adult Behavioral Medicine,140 Lincoln Avenue,Haverhill,Massachusetts 01830,01830,"? MH SUMH ? HI OP ? PSY ? AT CBT DBT GT IDD IPT PTM TT ? CIT WI ? PVTP ? MC MD OSF 
PI SF SI ? PA SS ? SE CO SMI ? CDM CM FPSY IMR ? NRT STU TCC ? SMON ? ADLT SNR 
YAD ? AH"
NFI Ambulatory Services,76 Winter Street,Haverhill,Massachusetts 01830,01830,"? MH SUMH ? OP PHDT ? MSNH ? BMT CBT CFT DBT GT IDD IPT PTM TT ? PVTN ? CLF MC 
MD MI PI SF SI SMHA SWFS ? CM COOT FPSY ICM ? SMON ? ADLT CHLD SNR YAD"
Northeast Behavioral Health/Lahey Haverhill Clinic/Cornerstone Day Prog,200 Main Street Suite F,Haverhill,Massachusetts 01830,01830,"? MH SUMH ? PHDT ? MSNH ? BMT CBT DBT GT IDD TT ? CIT ? PVTN ? FQHC ? MD SF SI ? 
SE GL VET CO TRMA PTSD SMI ? CDM CM DEC ES FPSY PRS ? SMPD ? ADLT SNR YAD"
Behavioral Health Network (BHN) City Clinic,235 Maple Street,Holyoke,Massachusetts 01040,01040,"? MH SUMH ? OP TELE ? OMH ? BMT CBT CFT GT IDD IPT PTM TT ? CIT ? PVTN ? MC MD MI 
PI SF SI ? SS ? TAY SE CO TRMA PTSD SED SMI ? CM IPC ? NSC STU TCC ? SMPD ? ADLT 
CHLD SNR YAD ? AH ? SP"
Behavioral Health Network (BHN) Mount Tom Center,40 Bobala Road,Holyoke,Massachusetts 01040,01040,"? MH SUMH ? OP ? OMH ? CBT CFT GT IDD IPT PTM TT ? CIT ? PVTN ? MC MD MI PI SF 
SMHA ? SS ? GL ? CM COOT FPSY IPC ? NSC STU ? SMPD ? ADLT CHLD SNR YAD ? AH ? 
SP"
Brightside for Families and Children,"1233 Main Street, Providence Hospital, 6th Floor",Holyoke,Massachusetts 01040,01040,"? MH ? OP ? OMH ? CFT IPT ? PVTN ? FQHC ? MD PI ? TAY SED ? FPSY IPC PRS ? SMON ? 
ADLT CHLD SNR YAD ? SP F19 F28"
CHD CBFS,494 Appleton Street,Holyoke,Massachusetts 01040,01040,"? MH SUMH ? OP RES ? MSNH ? AT BMT CBT CFT DBT GT IDD IPT PTM TT ? OSG ? MC MD 
PI SF SI SMHA ? TAY SE CO TRMA PTSD SMI ? CDM CM COOT DEC HS IMR PRS SEMP SH 
SPS VRS PEER ? NRT NSC STU TCC ? SMPD ? ADLT SNR YAD ? SP"
Holyoke Medical Center Inc Center for Behavioral Health,575 Beech Street,Holyoke,Massachusetts 01040,01040,"? MH SUMH ? OP PHDT ? OMH ? AT BMT CBT CFT GT IDD IPT PTM TT ? PVTN ? MC MD MI 
PI SF SI SMHA ? CO SMI ? CM COOT FPSY SPS PEER ? NRT STU TCC ? SMON ? ADLT SNR 
YAD ? AH"
River Valley Counseling Center Holyoke Clinic,303 Beech Street,Holyoke,Massachusetts 01040,01040,"? MH SUMH ? OP ? CMHC ? BMT CBT CFT DBT GT IDD IPT PTM TT ? PVTN ? CSBG MC MD 
OSF PI SF SI SMHA ? SS ? SE ? ACT CDM CM COOT FPSY ICM IMR PRS SPS ? NRT NSC 
STU TCC ? SMON ? ADLT CHLD SNR YAD ? AH ? SP F66 F67"
ServiceNet OP Behavioral Center Holyoke Outpatient Clinic,98 Lower Westfield Road Suite 2,Holyoke,Massachusetts 01040,01040,"? MH ? OP TELE ? OMH ? BMT CBT CFT GT IDD IPT PTM TT ? PVTN ? MC MD MI PI SF SI ? 
TRMA TBI ? COOT FPSY SPS ? SMPD ? ADLT CHLD SNR YAD ? AH ? SP F17 F25 F66"
Cape Cod Hospital Centers for Behavioral Health,27 Park Street,Hyannis,Massachusetts 02601,02601,"? MH SUMH ? HI OP PHDT TELE ? PSY ? AT CBT CFT DBT GT IDD IPT PTM TT ? CIT WI ? 
PVTN ? MC MD MI OSF PI SF SI VAF ? TAY SE GL VET MF CJ CO HV TRMA PTSD SMI ? CM 
FPSY IPC SPS ? NRT NSC STU TCC ? SMON ? ADLT CHLD SNR YAD ? AH"
Cape Cod Human Services,460 West Main Street,Hyannis,Massachusetts 02601,02601,"? MH SUMH ? OP ? OMH ? CBT CFT DBT GT IDD IPT PTM TT ? CIT ? PVTN ? ITU MC MD PI 
SF SI ? CO PED ? CM FPSY ? NRT NSC STU TCC ? SMPD ? ADLT CHLD SNR YAD ? AH"
Child and Family Services Inc Cape Cod,"100 Independence Drive, Unit 8",Hyannis,Massachusetts 02601,02601,"? MH ? OP TELE ? OMH ? AT BMT CBT CFT DBT GT IPT TT ? PVTN ? MC MD PI SF SI ? 
TRMA SED SMI ? COOT FPSY IPC ? SMPD ? ADLT CHLD SNR YAD ? AH"
Family Continuity Hyannis Mental Health Clinic,29 Bassett Lane,Hyannis,Massachusetts 02601,02601,"? MH SUMH ? OP ? CMHC ? AT BMT CBT CFT DBT GT IDD IPT PTM TT ? PVTN ? MC MD PI 
SF SI SMHA SWFS ? TAY SE GL CO TRMA PTSD SED SMI ? CM COOT FPSY SPS ? SMPD ? 
ADLT CHLD SNR YAD"
Providence VAMC Hyannis Comm Based Outpatient Clinic,233 Stevens Street,Hyannis,Massachusetts 02601,02601,"? MH SUMH ? OP TELE ? CBT CFT GT IDD IPT PTM TT ? CIT WI ? VAMC ? PI VAF ? SE VET 
CO TRMA TBI PTSD SMI ? CDM CM DEC HS IMR IPC PRS SEMP SH SPS VRS PEER ? NRT 
NSC STU TCC ? SMON ? ADLT SNR YAD ? VO ? AH"
Arbour Counseling Services Jamaica Plain,157 Green Street,Jamaica Plain,Massachusetts 02130,02130,"? MH SUMH ? OP PHDT ? OMH ? BMT CBT CFT DBT GT IDD IPT PTM TT ? PVTP ? MC MD PI 
SCJJ SF SI SMHA SWFS ? CO PTSD ? CDM COOT IMR SPS ? STU ? SMON ? ADLT CHLD 
SNR YAD ? SP"
Arbour Hospital,49 Robinwood Avenue,Jamaica Plain,Massachusetts 02130,02130,"? MH SUMH ? HI OP PHDT ? PSY ? AT BMT CBT ECT GT IDD IPT PTM TT ? WI ? PVTP ? MC 
MD MI PI SF SI SWFS ? CO ? CDM CM DEC ES FPSY ICM IMR IPC PRS SPS ? NRT NSC STU 
TCC ? SMON ? ADLT CHLD SNR YAD ? SP"
Brigham and Womens Faulkner Hosp Department of Psychiatry,1153 Centre Street,Jamaica Plain,Massachusetts 02130,02130,"? MH SUMH ? HI OP PHDT TELE ? PSY ? BMT CBT CFT DBT ECT GT IDD IPT PTM ? WI ? 
PVTN ? MC MD MI PI SF SI SMHA ? CO SMI ? ACT CM DEC ES FPSY IPC SPS PEER ? NRT 
NSC STU TCC ? SMON ? ADLT SNR YAD ? AH"
Italian Home for Children,1125 Centre Street,Jamaica Plain,Massachusetts 02130,02130,"? MH ? OP PHDT RES ? MSNH ? BMT CBT CFT GT IPT PTM TT ? PVTN ? MD PI SEF SF 
SMHA SWFS ? TRMA PTSD SED ? ES FPSY SPS ? SMON ? ADLT CHLD SNR YAD ? AH ? SP 
F19 F67"
Lemuel Shattuck Hospital Metro Boston Mental Health Units,170 Morton Street,Jamaica Plain,Massachusetts 02130,02130,"? MH SUMH ? HI ? PSY ? AT CBT DBT ECT GT IDD IPT PTM ? SMA ? MC MD PI SF SI SMHA ? 
CJ CO ? CDM DEC FPSY IMR PRS SEMP SPS VRS PEER ? NRT NSC STU ? SMPD ? ADLT 
SNR YAD ? SP"
MSPCC/Eliot Jamaica Plain,3815 Washington Street Suite 2,Jamaica Plain,Massachusetts 02130,02130,"? MH ? OP ? OMH ? CBT CFT GT IPT PTM TT ? PVTN ? MC MD MI PI ? TRMA PTSD SED ? 
CM FPSY ? SMON ? CHLD YAD ? SP F19"
Family Continuity,360 Merrimack Street Building 9 Entry J,Lawrence,Massachusetts 01843,01843,"? MH SUMH ? OP ? OMH ? AT BMT CBT CFT DBT IPT PTM TT ? PVTN ? CLF CMHG CSBG ITU 
MC MD MI OSF PI SCJJ SEF SF SI SMHA SWFS VAF ? SS ? PTSD SED ? CM COOT FPSY ? 
SMPD ? ADLT CHLD SNR YAD ? SP"
JRI Lawrence Behavioral Health Center,15 Union Street Suite 200,Lawrence,Massachusetts 01840,01840,"? MH SUMH ? OP ? OMH ? CBT CFT DBT GT IPT TT ? PVTN ? MC MD OSF PI SF ? GL CO 
TRMA PTSD SED SMI ? COOT FPSY ? SMPD ? ADLT CHLD SNR YAD ? AH ? SP"
Lahey Health Behavioral Services Outpatient Program,12 Methuen Street 3rd Floor,Lawrence,Massachusetts 01841,01841,"? MH SUMH ? OP ? OMH ? AT CBT CFT DBT GT IDD IPT PTM TT ? CIT ? PVTN ? FQHC ? CLF 
MC MD MI OSF PI SF SI SMHA ? CJ CO SMI ? COOT FPSY SPS ? STU ? ADLT CHLD SNR YAD 
? AH ? SP"
Gunderson Residence,5 Spruce Street,Lee,Massachusetts 02138,02138,"? MH ? RES ? RTCA ? CBT CFT DBT GT IPT PTM TT ? PVTN ? SF ? TAY TRMA PED PTSD ? 
CM DEC FPSY VRS ? SMON ? ADLT YAD"
VA Central Western Massachusetts Healthcare System,421 North Main Street,Leeds,Massachusetts 01053,01053,"? MH SUMH ? HI OP RES TELE ? AT BMT CBT CFT GT IDD IPT PTM TT ? WI ? VAMC ? MI VAF 
? VET CJ CO TBI PTSD ? ACT CDM COOT DEC ES FPSY HS ICM IPC LAD PRS SEMP SH SPS 
VRS PEER ? NRT NSC STU TCC ? SMPD ? ADLT SNR YAD ? VO ? AH"
McAuley Nazareth Home for Boys Inc,77 Mulberry Street,Leicester,Massachusetts 01524,01524,"? MH ? RES ? RTCC ? AT BMT CBT CFT DBT GT IPT PTM TT ? PVTN ? CSBG OSF SEF SI 
SMHA SWFS ? TRMA PTSD SED ? CM ES FPSY PRS VRS ? STU ? SMON ? CHLD"
Achieve TMS East Leominster,50 Memorial Drive Suite 102,Leominster,Massachusetts 01453,01453,? MH ? OP ? OMH ? PVTP ? MD MI PI SF SI VAF ? SMON ? ADLT SNR YAD ? SP F28 F36
Edinburg Center Inc,282 Bedford Street,Lexington,Massachusetts 02420,02420,"? MH SUMH ? RES ? RTCA ? CBT IDD IPT ? PVTN ? MC MD PI SF SI SMHA ? PA ? ACT HS 
ICM PRS ? SMPD ? ADLT SNR YAD ? AH ? SP F19"
Justice Resource Institute Inc Pelham Academy,13 Pelham Road,Lexington,Massachusetts 02421,02421,"? MH ? RES ? RTCC ? AT CBT CFT DBT GT IPT PTM TT ? PVTN ? PI SEF SF SI SMHA SWFS ? 
PTSD SED ? ES FPSY PRS SPS ? SMON ? CHLD"
Bridgewell Counseling Services,35 Market Street,Lowell,Massachusetts 01852,01852,"? MH SUMH ? OP PHDT ? OMH ? AT BMT CBT CFT DBT GT IDD IPT PTM TT ? PVTN ? CLF 
ITU MC MD MI OSF PI SCJJ SEF SF SI SMHA SWFS VAF ? GL VET CJ CO TRMA PTSD SMI ? 
COOT FPSY PRS SPS ? NSC TCC ? SMPD ? ADLT SNR YAD ? SP F17 F30 F44"
Institute for Health and Recovery Inc,97 Central Street Suite 207,Lowell,Massachusetts 01852,01852,"? MH SUMH ? OP ? OMH ? BMT CBT CFT IDD IPT TT ? PVTN ? MC MD OSF PI SF SMHA 
SWFS ? PA SS ? TAY SE TRMA SED ? CM COOT FPSY SH PEER ? STU ? SMON ? ADLT 
CHLD SNR YAD ? SP"
Justice Resource Institute Inc GRIP Group Home,319 Wilder Street,Lowell,Massachusetts 01851,01851,"? MH ? RES ? RTCC ? AT CBT CFT GT IPT PTM TT ? PVTN ? SEF SF SI SWFS ? TRMA PTSD 
SED ? FPSY PRS SPS ? SMON ? CHLD"
Lowell Community Health Center Behavioral Health Services,161 Jackson Street,Lowell,Massachusetts 01852,01852,"? MH SUMH ? OP ? OMH ? CBT CFT GT IDD IPT PTM TT ? WI ? PVTN ? FQHC ? CLF MC MD 
MI OSF PI SCJJ SF SI SWFS ? PA SS ? CO PTSD ? CDM CM COOT FPSY HS IPC SPS ? NRT 
NSC STU TCC ? SMON ? ADLT CHLD SNR YAD ? AH ? SP F67 F44"
South Bay Community Services Lowell Mental Health Clinic,22 Old Canal Drive,Lowell,Massachusetts 01851,01851,"? MH SUMH ? OP PHDT ? MSNH ? BMT CBT CFT DBT GT IDD IPT PTM TT ? PVTP ? MC MD 
PI SCJJ SF SI SWFS ? CO ? COOT FPSY PRS SPS ? STU TCC ? SMPD ? ADLT CHLD SNR 
YAD ? F19 F47 F67 F70"
Trauma and Family Integration LLC,144 Merrimack Street Suite 302,Lowell,Massachusetts 01852,01852,"? MH SUMH ? OP ? OMH ? AT BMT CBT CFT GT IPT TT ? PVTP ? MC MD PI SF SI ? SS ? TAY 
TRMA PTSD SED SMI ? FPSY ? SMON ? ADLT CHLD YAD ? SP F67 F3"
Vinfen MHA Community and Family Counseling Services,99 Church Street,Lowell,Massachusetts 01852,01852,"? MH SUMH ? OP ? OMH ? AT CBT CFT DBT GT IDD IPT PTM TT ? PVTN ? MC MD PI SF ? SS 
? GL SED ? COOT DEC FPSY IMR SPS ? STU TCC ? SMPD ? ADLT CHLD SNR YAD ? SP F67 
F44"
Eliot Community Human Services Lynn Clinic,95 Pleasant Street,Lynn,Massachusetts 01901,01901,"? MH SUMH ? OP PHDT TELE ? MSNH ? AT BMT CBT CFT DBT GT IDD IPT PTM TT ? CIT WI 
? PVTN ? MC MD PI SF ? CO PTSD SMI ? CM COOT ICM SPS PEER ? SMPD ? ADLT CHLD 
SNR YAD ? AH ? SP F25 F30"
JRI Lynn Behavioral Health Center,112 Market Street,Lynn,Massachusetts 01901,01901,"? MH SUMH ? OP ? OMH ? CBT CFT DBT GT IPT PTM TT ? PVTN ? MC MD OSF PI SF ? GL 
CO TRMA PTSD SED SMI ? COOT FPSY ? SMPD ? ADLT CHLD SNR YAD ? AH ? SP F67"
Lynn Community Health Center Inc,"20 Central Avenue, 3rd and 6th Floors",Lynn,Massachusetts 01901,01901,"? MH SUMH ? OP ? OMH ? AT BMT CBT CFT DBT GT IDD IPT PTM TT ? CIT WI ? PVTN ? 
FQHC ? CMHG CSBG MC MD MI OSF PI SCJJ SF SI SMHA SWFS ? SS ? TAY GL CO TRMA 
PED PTSD SED SMI ? CDM CM COOT DEC ES FPSY HS ICM IMR IPC PRS SPS PEER ? NRT 
NSC STU TCC ? SMPD ? ADLT CHLD SNR YAD ? AH ? SP F4 F28 F67 F70 F44"
Lynn Community Health Center Inc,269 Union Street,Lynn,Massachusetts 01901,01901,"? MH SUMH ? OP ? OMH ? BMT CBT CFT DBT GT IDD IPT PTM TT ? CIT WI ? PVTN ? FQHC ? 
CMHG CSBG MC MD MI OSF PI SCJJ SEF SF SI SMHA SWFS ? SS ? TAY GL CJ CO HV TRMA 
PED PTSD SED SMI ? CDM CM COOT DEC ES FPSY HS ICM IMR IPC SPS ? NRT NSC STU 
TCC ? SMON ? ADLT CHLD SNR YAD ? AH ? SP F4 F25 F42 F43 F67 F70"
Lynn Community Health Center Inc,694 Western Avenue,Lynn,Massachusetts 01905,01905,"? MH ? OP ? OMH ? AT BMT CBT CFT DBT GT IDD IPT PTM TT ? PVTN ? FQHC ? CMHG 
CSBG MC MD MI PI SF SI ? SS ? TAY GL CO TRMA PED PTSD SMI ? CDM CM COOT DEC ES 
HS IMR IPC SPS ? NRT NSC STU TCC ? SMON ? ADLT CHLD SNR YAD ? AH ? SP F4 F43 F92 
F44"
Lynn Community Health Center Inc,"280 Union Street, Orange Team",Lynn,Massachusetts 01901,01901,"? MH SUMH ? OP ? OMH ? CBT CFT DBT GT IPT PTM TT ? CIT WI ? PVTN ? FQHC ? CLF 
CMHG CSBG MC MD MI OSF PI SCJJ SEF SF SI SMHA SWFS VAF ? PA SS ? CO HV TRMA 
SMI ? CDM CM COOT DEC ES ICM IPC PEER ? NRT NSC STU TCC ? SMPD ? ADLT CHLD 
SNR YAD ? SP F4 F37 F70 F44"
North Shore Medical Center Adult Outpatient Clinic,490 Lynnfield Street,Lynn,Massachusetts 01904,01904,"? MH ? OP ? OMH ? BMT CBT CFT IDD IPT PTM TT ? PVTN ? MC MD MI PI SI ? FPSY ? NSC 
STU TCC ? SMON ? ADLT SNR YAD ? AH"
Riverside Community Care Outpatient Center at Lynnfield,6 Kimball Lane Suite 310,Lynnfield,Massachusetts 01940,01940,"? MH SUMH ? OP ? OMH ? AT BMT CBT CFT DBT GT IDD IPT PTM TT ? PVTN ? CLF MC MD 
MI OSF PI SF SI SMHA ? SS ? TAY SE CO SED SMI ? CM COOT FPSY SPS ? STU TCC ? 
SMPD ? ADLT CHLD SNR YAD ? AH ? SP"
Marblehead Counseling Center Inc,66 Clifton Avenue,Marblehead,Massachusetts 01945,01945,"? MH SUMH ? OP ? OMH ? CBT CFT DBT GT IDD IPT TT ? PVTN ? CLF MC MD MI PI SF SI ? 
SE GL ? COOT FPSY ? SMPD ? ADLT CHLD SNR YAD"
Advocates Inc Advocates Community Csl Center,"340 Maple Street, 4th Floor",Marlborough,Massachusetts 01752,01752,"? MH SUMH ? OP TELE ? OMH ? AT BMT CBT CFT DBT GT IDD IPT PTM TT ? CIT WI ? PVTN 
? FQHC ? CLF CMHG CSBG MC MD MI OSF PI SCJJ SEF SF SI SMHA SWFS VAF ? SS ? TAY 
SE GL VET ADM MF CO HV TRMA PED PTSD SED SMI ? CDM CM COOT DEC FPSY ICM IMR 
IPC PRS SPS PEER ? NSC STU TCC ? SMPD ? ADLT CHLD SNR YAD ? AH ? SP F30 F43 F67 
F70"
Justice Resource Institute Inc Glenhaven Academy,56-58 Framingham Road,Marlborough,Massachusetts 01752,01752,"? MH ? RES ? RTCC ? AT CBT CFT DBT GT IPT PTM TT ? PVTN ? PI SEF SF SI SMHA SWFS 
? PTSD SED ? ES FPSY PRS SPS ? SMON ? CHLD"
South Middlesex Opportunity Council (SMOC) Behavioral Healthcare,230 Maple Street,Marlborough,Massachusetts 01752,01752,"? MH SUMH ? OP ? OMH ? CBT CFT GT IDD IPT PTM TT ? PVTN ? CSBG MC MD MI OSF PI 
SF SI SWFS ? CO TRMA SED SMI ? COOT FPSY ? STU ? SMPD ? ADLT CHLD SNR YAD ? AH 
? SP F19 F28 F36 F67 F70 F5"
Fellside,34 Grove Street,Medford,Massachusetts 02153,02153,"? MH ? RES ? RTCA ? AT CBT GT IPT ? PVTN ? PI SF ? PA SS ? SMI ? CM DEC PRS SEMP 
SH VRS ? SMPD ? ADLT SNR YAD"
Hallmark Health Systems Inc Melrose Wakefield Health Care,585 Lebanon Street,Melrose,Massachusetts 02176,02176,"? MH SUMH ? HI ? PSY ? AT GT PTM ? CIT WI ? PVTN ? MC MD PI SF SI SMHA VAF ? PA ? 
SE GL VET ADM MF CJ CO HV TRMA TBI PED PTSD SMI ? CDM CM DEC IMR IPC SPS PEER ? 
NRT NSC STU TCC ? SMON ? ADLT SNR YAD ? AH ? SP"
Steward Holy Family Hospital Center for Behavioral Medicine,70 East Street,Methuen,Massachusetts 01844,01844,"? MH SUMH ? HI ? PSY ? AT BMT CBT IDD IPT PTM TT ? CIT ? PVTP ? CLF MC MD MI OSF PI 
SF SI SMHA SWFS VAF ? CO SMI ? CDM DEC IMR SPS ? NRT NSC STU TCC ? SMON ? ADLT 
SNR YAD ? AH ? SP"
McLean Hospital SouthEast,23 Isaac Street,Middleboro,Massachusetts 02346,02346,"? MH SUMH ? HI PHDT RES ? PSY ? AT BMT CBT DBT GT IDD IPT PTM TT ? PVTN ? MC MD 
MI OSF PI SCJJ SF SI SMHA SWFS VAF ? TAY SE GL MF CO TRMA PTSD SED SMI ? CM ES 
FPSY ? NRT NSC ? SMON ? ADLT CHLD SNR YAD ? AH"
Wayside Youth/Fam Support Ntwk Wayside Community Counseling,10 Asylum Street,Milford,Massachusetts 01757,01757,"? MH ? OP ? OMH ? AT CBT CFT GT IPT PTM TT ? PVTN ? MC MD PI SF SI SMHA SWFS ? CM 
COOT FPSY PEER ? STU ? SMON ? CHLD YAD ? AH ? SP F19 F36 F67"
Gould Farm,100 Gould Road,Monterey,Massachusetts 01245,01245,"? MH SUMH ? OP RES ? RTCA ? AT CBT GT IPT PTM ? PVTN ? PI SF ? PA SS ? SMI ? CM 
DEC PRS SEMP SH VRS ? STU TCC ? SMPD ? ADLT SNR YAD"
Gosnold on Nantucket,35 Old South Road,Nantucket,Massachusetts 02554,02554,"? MH SUMH ? OP TELE ? OMH ? CBT CFT GT IPT PTM ? PVTN ? MC MD MI PI SF SI SMHA ? 
CO ? CM FPSY ? SMPD ? ADLT CHLD SNR YAD"
Brandon Residential Treatment Ctr,27 Winter Street,Natick,Massachusetts 01760,01760,"? MH ? RES ? RTCC ? AT BMT CBT CFT DBT GT IPT PTM TT ? PVTN ? MD MI PI SCJJ SEF SF 
SMHA SWFS ? SED ? CM ES PRS ? SMON ? CHLD ? SP"
MetroWest Medical Center Behavioral Health Dept,67 Union Street,Natick,Massachusetts 01760,01760,"? MH SUMH ? HI PHDT ? PSY ? BMT CBT CFT GT IDD IPT PTM TT ? CIT WI ? PVTP ? MC MD 
MI PI SF SI ? SE CO TRMA PTSD SED SMI ? CM ES FPSY PRS ? STU ? SMON ? ADLT CHLD 
SNR YAD ? AH"
Child and Family Services Inc,1061 Pleasant Street,New Bedford,Massachusetts 02740,02740,"? MH ? OP ? OMH ? BMT CBT CFT DBT GT IDD IPT TT ? PVTN ? MC MD PI SF SI ? TAY SE 
GL PTSD SED SMI ? STU TCC ? SMPD ? ADLT CHLD SNR YAD ? AH ? SP F67"
Child and Family Services Inc New Bedford,543 North Street,New Bedford,Massachusetts 02740,02740,"? MH SUMH ? OP RES ? MSNH ? CBT CFT DBT GT IDD IPT PTM TT ? CIT WI ? PVTN ? MC 
MD PI SF SI ? PA ? CM ? STU ? SMPD ? ADLT CHLD SNR YAD ? AH ? F67"
High Point Treatment Center Inc,68 North Front Street,New Bedford,Massachusetts 02740,02740,"? MH SUMH ? OP PHDT TELE ? OMH ? CBT CFT GT IDD IPT PTM TT ? WI ? PVTN ? MC MD 
MI OSF PI SF SI ? PA SS ? TAY CJ CO PTSD ? CM COOT DEC FPSY IMR SPS ? NRT NSC STU 
TCC ? SMPD ? ADLT CHLD SNR YAD ? AH"
Seven Hills Behavioral Health Inc,589 South 1st Street,New Bedford,Massachusetts 02740,02740,"? MH SUMH ? OP PHDT ? OMH ? AT BMT CBT GT IDD IPT TT ? PVTN ? MC MD PI SF SI ? CO 
TRMA SMI ? CM PRS VRS PEER ? STU ? SMPD ? ADLT SNR YAD"
Achieve TMS East Newburyport,3 Cherry Street,Newburyport,Massachusetts 01950,01950,? MH ? OP ? OMH ? PVTP ? MC MD MI PI SF SI VAF ? SMON ? ADLT SNR YAD
Anna Jaques Hospital Two North,25 Highland Avenue,Newburyport,Massachusetts 01950,01950,"? MH SUMH ? HI ? PSY ? AT CBT DBT ECT GT IDD PTM TT ? PVTN ? MC MD MI OSF PI SF SI 
SMHA SWFS ? PA ? CO SMI ? CM DEC ES IMR SPS ? NRT STU TCC ? SMON ? ADLT SNR 
YAD ? AH"
Achieve TMS East Newton,93 Union Street Suite 303-B,Newton Center,Massachusetts 02459,02459,? MH ? OP ? OMH ? PVTP ? MD MI PI SF SI VAF ? SMON ? ADLT SNR YAD
Newton-Wellesley Hospital Department of Psychiatry,"2014 Washington Street, 3 South",Newton Lower Falls,Massachusetts 02462,02462,"? MH SUMH ? HI OP ? PSY ? AT ECT GT IDD IPT PTM TT ? WI ? PVTN ? MC MD PI SF SI ? 
DEC FPSY IMR SPS ? NRT NSC STU TCC ? SMON ? ADLT SNR YAD ? AH"
Brien Center,124 American Legion Drive,North Adams,Massachusetts 01247,01247,"? MH SUMH ? OP ? CMHC ? AT BMT CBT CFT DBT GT IDD IPT PTM TT ? CIT ? PVTN ? MC 
MD MI OSF PI SF SI SMHA ? SS ? CJ CO TRMA PTSD SED SMI ? CM COOT FPSY SPS ? NRT 
NSC STU TCC ? SMON ? ADLT CHLD SNR YAD ? AH ? SP"
Achieve TMS East Northampton,47 Pleasant Street Suite 1-NW,Northampton,Massachusetts 01060,01060,? MH ? OP ? OMH ? PVTP ? MD MI PI SF SI VAF ? SMON ? ADLT SNR YAD ? SP F36 F44
Cooley Dickinson Hospital Behavioral Health Unit,30 Locust Street,Northampton,Massachusetts 01060,01060,"? MH SUMH ? HI ? PSY ? AT CBT DBT GT IDD IPT PTM TT ? PVTN ? MC MD MI PI SCJJ SF SI 
SMHA SWFS ? CM DEC ES FPSY SPS PEER ? NRT NSC STU TCC ? SMON ? ADLT SNR YAD 
? AH"
Cutchins Prog for Children/Families,78 Pomeroy Terrace,Northampton,Massachusetts 01060,01060,"? MH SUMH ? OP RES ? MSNH ? AT BMT CBT CFT DBT GT IPT PTM TT ? CIT ? PVTN ? 
FQHC ? CLF CMHG CSBG MC MD MI OSF PI SCJJ SEF SF SI SMHA SWFS ? TAY GL TRMA 
PTSD SED SMI ? CM COOT ES FPSY HS ICM SPS VRS ? SMON ? ADLT CHLD YAD ? AH"
Cutchins Prog for Children/Families The Childrens Clinic,17 Brewster Court,Northampton,Massachusetts 01060,01060,"? MH ? OP ? OMH ? CBT CFT DBT GT IPT PTM TT ? PVTN ? CLF MD MI OSF PI SCJJ SEF SF 
SI SMHA SWFS ? TRMA PTSD SED ? FPSY ? SMPD ? CHLD YAD"
ServiceNet OP Behavioral Center Outpatient Clinic,50 Pleasant Street,Northampton,Massachusetts 01060,01060,"? MH SUMH ? OP TELE ? OMH ? BMT CBT CFT DBT GT IDD IPT PTM TT ? PVTN ? MC MD MI 
PI SF SI ? CO TRMA TBI PTSD SED ? COOT FPSY SPS ? SMON ? ADLT CHLD SNR YAD ? AH 
? SP F28 F43 F47"
Gosnold Counseling Center,74 Faunce Corner Road,North Dartmouth,Massachusetts 02747,02747,"? MH SUMH ? OP TELE ? OMH ? CBT CFT GT IPT PTM ? PVTN ? MC MD MI PI SF SI SMHA ? 
CO ? CM FPSY ? SMPD ? ADLT CHLD SNR YAD"
Southcoast Behavioral Health,581 Faunce Corner Road,North Dartmouth,Massachusetts 02747,02747,"? MH SUMH ? HI ? PSY ? AT GT IDD PTM TT ? WI ? PVTP ? MC MD MI PI SF SI VAF ? SE CO 
ALZ SED ? CM ES FPSY LAD SPS ? NRT NSC STU TCC ? SMON ? ADLT CHLD SNR YAD ? AH 
? SP F67"
Arbour Senior Care,384 Washington Street,Norwell,Massachusetts 02061,02061,"? MH SUMH ? OP PHDT ? OMH ? BMT CBT CFT DBT GT IDD IPT PTM TT ? PVTP ? MC MD PI 
SF SI ? CO SMI ? ACT CM COOT ES FPSY IMR ? STU TCC ? SMPD ? ADLT CHLD SNR YAD ? 
AH ? SP F4 F19 F28 F67"
Norwood Hospital Inpatient Psychiatry,800 Washington Street,Norwood,Massachusetts 02062,02062,"? MH SUMH ? HI ? PSY ? AT CBT ECT GT IDD IPT PTM ? CIT WI ? PVTP ? ITU MC MD MI PI 
SF SI ? SE CO TRMA ALZ PTSD SMI ? CM FPSY IMR LAD SPS ? NRT NSC STU TCC ? SMON 
? ADLT CHLD SNR YAD ? AH"
Riverside Community Care Outpatient Center at Norwood,190 Lenox Street,Norwood,Massachusetts 02062,02062,"? MH SUMH ? OP ? OMH ? AT CBT CFT GT IDD IPT PTM TT ? CIT WI ? PVTN ? MC MD PI 
SCJJ SF SI SMHA SWFS ? SMI ? SPS ? STU ? SMPD ? ADLT CHLD SNR YAD ? SP F17 F47"
CHD Outpatient Behavioral Hlth Servs Orange,131 West Main Street,Orange,Massachusetts 01364,01364,"? MH SUMH ? OP ? OMH ? CBT CFT DBT GT IPT PTM TT ? PVTN ? CLF MC MD OSF PI SF SI 
SMHA SWFS ? PA SS ? CJ CO ? CM COOT DEC FPSY PEER ? NSC STU TCC ? SMPD ? ADLT 
CHLD SNR YAD"
Gosnold Counseling Center,179 Route 6-A,Orleans,Massachusetts 02653,02653,"? MH SUMH ? OP TELE ? OMH ? CBT CFT GT IPT PTM ? PVTN ? MC MD MI OSF PI SCJJ SF 
SI SMHA SWFS VAF ? CO ? CM FPSY ICM ? SMPD ? ADLT CHLD SNR YAD"
Baystate Behavioral Health Griswold Center,42 Wright Street,Palmer,Massachusetts 01069,01069,"? MH SUMH ? OP ? OMH ? BMT CBT CFT DBT GT IDD IPT PTM TT ? CIT ? PVTN ? MC MD MI 
PI SF SI ? STU TCC ? SMON ? ADLT CHLD SNR YAD ? AH ? SP F4"
Family Continuity Peabody,9 Centennial Drive Suite 202,Peabody,Massachusetts 01960,01960,"? MH ? OP ? OMH ? AT BMT CBT CFT DBT GT IPT PTM TT ? PVTN ? MC MD MI OSF PI SF SI 
SMHA SWFS ? SS ? TAY CO TRMA PTSD SED SMI ? CM COOT FPSY PRS SPS ? SMON ? 
ADLT CHLD SNR YAD ? SP"
Berkshire Medical Center Psychiatry and Behavioral Sciences,725 North Street,Pittsfield,Massachusetts 01201,01201,"? MH SUMH ? HI OP PHDT TELE ? PSY ? AT CBT CFT DBT ECT GT IDD IPT PTM ? CIT WI ? 
PVTN ? MC MD MI OSF PI SF SI SMHA ? FPSY IPC SPS ? NRT STU TCC ? SMON ? ADLT 
CHLD SNR YAD ? AH"
Brien Center Acute Care Services Division,"66 West Street, Lower Level",Pittsfield,Massachusetts 01201,01201,"? MH SUMH ? OP ? CMHC ? CIT WI ? PVTN ? CLF MC MD MI OSF PI SCJJ SEF SF SI SMHA 
SWFS VAF ? SS ? SMPD ? ADLT CHLD SNR YAD ? AH"
Brien Center Central/Child/Adolescent,251 Fenn Street,Pittsfield,Massachusetts 01201,01201,"? MH SUMH ? OP ? OMH ? AT BMT CBT CFT DBT GT IDD IPT PTM TT ? PVTN ? CLF CMHG 
CSBG MC MD OSF PI SCJJ SF SI SMHA SWFS ? SS ? TAY GL CO TRMA PED PTSD SED SMI 
? CM COOT FPSY ICM PRS ? SMON ? CHLD YAD ? AH ? SP"
Clinical and Support Options Inc,877 South Street Suite 2-W,Pittsfield,Massachusetts 01201,01201,"? MH SUMH ? OP TELE ? OMH ? BMT CBT CFT DBT GT IDD IPT PTM TT ? PVTN ? FQHC ? 
MC MD MI PI SF SI SWFS ? TAY TRMA PTSD SED ? ACT CM COOT DEC FPSY IPC PRS SPS ? 
STU ? SMON ? ADLT CHLD SNR YAD ? AH ? SP F35"
Clinical and Support Options Inc Pittsfield Outpatient Services,877 South Street Suite 2-W,Pittsfield,Massachusetts 01201,01201,"? MH SUMH ? OP TELE ? OMH ? BMT CBT CFT DBT GT IDD IPT PTM TT ? PVTN ? MC MD MI 
PI SF SI ? TAY TRMA PTSD SED ? CM COOT DEC ES FPSY IPC PRS SPS ? STU ? SMON ? 
ADLT CHLD SNR YAD ? AH ? SP F35"
ServiceNet OP Behavioral Center Pittsfield Clinic,139 North Street Suite 305,Pittsfield,Massachusetts 01201,01201,"? MH ? OP ? OMH ? BMT CBT CFT GT IDD IPT PTM TT ? PVTN ? MC MD MI PI SF SI ? CO ? 
COOT FPSY SPS ? SMPD ? ADLT CHLD SNR YAD ? AH ? F28"
VA Central Western Massachusetts Pittsfield Outpatient Clinic,73 Eagle Street,Pittsfield,Massachusetts 01201,01201,"? MH SUMH ? OP TELE ? CBT CFT GT IDD IPT PTM TT ? WI ? VAMC ? VAF ? SE GL VET ADM 
MF CJ CO TRMA TBI ALZ PTSD SMI ? CDM COOT DEC FPSY HS ICM IPC SEMP SH SPS VRS 
PEER ? NRT NSC STU TCC ? SMON ? ADLT SNR YAD ? VO"
Achieve TMS East Plymouth,225 Water Street Suite 200,Plymouth,Massachusetts 02360,02360,? MH ? OP ? OMH ? PVTP ? MD MI PI SF SI VAF ? SMON ? ADLT SNR YAD
Beth Israel Deaconess Hosp Plymouth Senior Behavioral Health Center,275 Sandwich Street,Plymouth,Massachusetts 02360,02360,"? MH SUMH ? HI ? PSY ? AT BMT CBT CFT GT IDD IPT PTM TT ? PVTN ? CMHG CSBG MC MI 
PI SF VAF ? SE CO ALZ ? CDM CM FPSY IMR ? NRT NSC STU TCC ? SMON ? SNR"
Family Continuity Plymouth Clinic,118 Long Pond Road Suite 106,Plymouth,Massachusetts 02360,02360,"? MH SUMH ? OP ? CMHC ? AT BMT CBT CFT DBT GT IDD IPT PTM TT ? PVTN ? MC MD PI 
SF SI SMHA SWFS ? TAY SE CO TRMA PTSD SED SMI ? CM COOT FPSY IPC SPS ? SMPD ? 
ADLT CHLD SNR YAD"
South Shore Mental Health Center Bayview Associates,64 Industrial Park Road,Plymouth,Massachusetts 02360,02360,"? MH ? OP ? OMH ? BMT CBT CFT DBT GT IDD IPT PTM TT ? PVTN ? MC MD MI PI SF SI 
SMHA SWFS ? SED ? CM FPSY ? SMON ? ADLT CHLD SNR YAD"
Cape Cod and Islands CMHC,830 County Road,Pocasset,Massachusetts 02559,02559,"? MH SUMH ? HI PHDT ? CMHC ? GT IPT PTM ? SMA ? FQHC ? MC MD MI PI SF SI SMHA VAF 
? PA ? SMI ? IMR SPS PEER ? NRT STU ? SMON ? ADLT YAD"
Gosnold Counseling Center,2 Mayflower Street,Provincetown,Massachusetts 02657,02657,"? MH SUMH ? OP TELE ? OMH ? CBT CFT GT IPT PTM ? PVTN ? MC MD MI PI SF SI SMHA ? 
CO ? CM FPSY ? SMPD ? ADLT CHLD SNR YAD"
Achieve TMS East Quincy,1266 Furnace Brook Parkway Suite 300,Quincy,Massachusetts 02169,02169,? MH ? OP ? OMH ? PVTP ? MD MI PI SF SI VAF ? SMON ? ADLT SNR YAD
Aspire Health Alliance,859 Willard Street Suite 430,Quincy,Massachusetts 02169,02169,"? MH SUMH ? OP ? CMHC ? BMT CBT CFT DBT GT IDD IPT PTM TT ? CIT ? PVTN ? MC MD 
MI OSF PI SF SI SMHA ? SS ? GL CO SED SMI ? COOT FPSY SPS ? STU TCC ? SMPD ? ADLT 
CHLD SNR YAD ? AH ? SP F4 F17 F25 F28 F36 F42 F65 F91"
Aspire Health Alliance Discovery Psychiatric Day Program,12 Hancock Court,Quincy,Massachusetts 02169,02169,"? MH SUMH ? PHDT ? PH ? AT CBT DBT GT IDD TT ? CIT ? PVTN ? MD SF SI ? SS ? TAY SE 
CO SMI ? DEC IMR PRS PEER ? SMPD ? ADLT SNR YAD"
Bay State Community Services Inc Outpatient Clinic,1120 Hancock Street,Quincy,Massachusetts 02169,02169,"? MH SUMH ? OP ? OMH ? CBT CFT GT IPT PTM TT ? PVTN ? CLF MC MD OSF PI SF ? PA 
SS ? TAY CO PTSD SED ? CM COOT FPSY PEER ? NSC STU TCC ? SMON ? ADLT CHLD 
SNR YAD ? AH ? SP F17 F28"
Family Center for Counseling and Education,1419 Hancock Street Suite 202,Quincy,Massachusetts 02169,02169,"? MH SUMH ? OP ? OMH ? AT BMT CBT CFT DBT GT IDD IPT PTM TT ? WI ? PVTN ? FQHC ? 
CLF MC MD OSF PI SCJJ SEF SF SI SMHA SWFS ? SS ? TAY SE GL CJ CO TRMA TBI PTSD 
SED SMI ? CDM CM COOT DEC ES FPSY HS IMR IPC PRS PEER ? SMON ? ADLT CHLD SNR 
YAD"
South Shore Mental Health Center Community Outpatient Program,"460 Quincy Avenue, 3rd Floor",Quincy,Massachusetts 02169,02169,"? MH SUMH ? OP ? OMH ? AT BMT CBT DBT GT IDD IPT PTM TT ? CIT ? PVTN ? MC MD MI 
PI SF SI SMHA ? SE GL CO TBI PTSD SMI ? PRS ? STU TCC ? SMON ? ADLT SNR YAD ? AH 
? F17 F92"
New Life Counseling and Wellness Ctr,400-402 North Main Street,Randolph,Massachusetts 02368,02368,"? MH SUMH ? OP ? OMH ? BMT CBT CFT GT IPT PTM TT ? PVTP ? MD PI SF SMHA SWFS ? 
SS ? TAY SE CO TRMA PTSD SED SMI ? CM COOT FPSY HS ICM ? SMON ? ADLT CHLD SNR 
YAD ? SP F17 F19 F28"
Home for Little Wanderers Child/Family Counseling Center,780 American Legion Highway,Roslindale,Massachusetts 02131,02131,"? MH SUMH ? OP ? OMH ? CBT CFT DBT GT IPT PTM TT ? CIT ? PVTN ? MD PI SF SI SMHA 
SWFS ? CO TRMA PTSD SED ? FPSY SPS ? SMPD ? ADLT CHLD YAD ? AH ? SP F19"
Lahey Health Behavioral Services Solstice Day School,20 Bowlery Drive,Rowley,Massachusetts 01969,01969,"? MH ? OP ? OMH ? AT BMT CBT GT IPT TT ? PVTN ? CLF SEF SF ? TRMA PTSD SED ? ES 
SEMP SPS VRS ? SMON ? CHLD"
Dimock Community Health Center Inc Outpatient Behavioral Health Services,55 Dimock Street,Roxbury,Massachusetts 02119,02119,"? MH SUMH ? OP ? OMH ? BMT CBT CFT GT IDD IPT PTM TT ? PVTN ? FQHC ? CLF MC MD 
OSF PI SF SI ? CO ? CM DEC FPSY HS ICM IPC ? NRT NSC STU TCC ? SMON ? ADLT CHLD 
SNR YAD ? SP"
Judge Baker Childrens Center Center for Effective Child Therapy,53 Parker Hill Avenue,Roxbury Crossing,Massachusetts 02120,02120,"? MH ? OP TELE ? OMH ? BMT CBT CFT GT IPT TT ? PVTN ? PI SF ? SS ? TRMA PTSD SED ? 
FPSY SPS ? SMON ? CHLD YAD"
JRI Salem Behavioral Health Center,110 Boston Street,Salem,Massachusetts 01970,01970,"? MH SUMH ? OP ? OMH ? CBT CFT DBT GT IPT PTM TT ? PVTN ? MC MD OSF PI SF SI ? 
TAY GL CO TRMA PTSD SED SMI ? COOT FPSY ? SMPD ? ADLT CHLD SNR YAD ? AH ? F31 
F47"
Cambridge Health Alliance CHA Central Street Care Center,26 Central Street,Somerville,Massachusetts 02143,02143,"? MH SUMH ? OP TELE ? OMH ? CBT CFT DBT GT IDD IPT PTM TT ? LMG ? MC MD PI SF SI 
? SE TRMA ? CM IPC ? STU ? SMON ? ADLT CHLD SNR YAD ? AH ? SP F67"
Harrington Memorial Hospital Behavioral Health Unit,100 South Street,Southbridge,Massachusetts 01550,01550,"? MH ? HI ? PSY ? GT IPT PTM ? CIT WI ? PVTN ? MC MD MI PI SF SI SMHA ? CM ? SMON ? 
ADLT SNR YAD ? AH"
South Bay Mental Health Center,541 Main Street,South Weymouth,Massachusetts 02190,02190,"? MH SUMH ? OP ? OMH ? CBT CFT GT IDD IPT PTM TT ? PVTP ? MC MD PI SCJJ SF SI ? 
COOT SPS ? STU TCC ? SMPD ? ADLT CHLD SNR YAD ? F17"
Achieve TMS East Springfield,3550 Main Street Suite 202,Springfield,Massachusetts 01107,01107,? MH ? OP ? OMH ? PVTP ? MD MI PI SF SI VAF ? SMON ? ADLT SNR YAD
Baystate Behavioral Health Adult and Child Outpatient,3300 Main Street,Springfield,Massachusetts 01199,01199,"? MH SUMH ? OP TELE ? OMH ? CBT CFT DBT GT IDD IPT PTM TT ? PVTN ? MC MD PI SF ? 
SE GL TBI ALZ PED ? FPSY ? SMON ? ADLT CHLD SNR YAD ? AH ? SP F28"
Baystate Medical Center Adult Partial Hospitalization Program,140 High Street,Springfield,Massachusetts 01199,01199,"? MH SUMH ? PHDT ? PH ? AT CBT CFT DBT GT IDD IPT PTM TT ? PVTN ? MC MD MI PI SEF 
SF ? CO SMI ? DEC FPSY ? STU TCC ? SMPD ? ADLT SNR YAD ? AH"
Baystate Medical Center Adult Psychiatric Treatment Unit,759 Chestnut Street,Springfield,Massachusetts 01199,01199,"? MH SUMH ? HI ? PSY ? AT CBT CFT DBT ECT GT IDD IPT PTM TT ? CIT WI ? PVTN ? MC 
MD PI SF SI ? TRMA PTSD SMI ? CM DEC FPSY PEER ? NRT NSC STU TCC ? SMON ? ADLT 
SNR YAD ? AH ? SP"
Behavioral Health Network (BHN) Child Guidance Clinic,110 Maple Street,Springfield,Massachusetts 01105,01105,"? MH SUMH ? OP ? OMH ? CBT CFT GT IDD IPT PTM TT ? CIT ? PVTN ? MC MD MI PI SF 
SMHA ? SS ? TRMA PTSD SED ? CM COOT FPSY IPC ? NSC STU ? SMPD ? ADLT CHLD SNR 
YAD ? AH ? SP"
Behavioral Health Network (BHN) Liberty Street Clinic,417 Liberty Street,Springfield,Massachusetts 01104,01104,"? MH SUMH ? OP PHDT ? OMH ? CBT CFT GT IDD IPT PTM TT ? CIT WI ? PVTN ? MC MD MI 
PI SCJJ SF SMHA ? SS ? GL CJ TRMA PTSD SMI ? ACT CM COOT FPSY IPC PEER ? NSC 
STU ? SMPD ? ADLT SNR YAD ? AH ? SP"
Center for Psychological and Family Services,130 Maple Street Suite 205,Springfield,Massachusetts 01103,01103,"? MH SUMH ? OP ? OMH ? AT BMT CBT CFT GT IDD IPT PTM TT ? PVTP ? MC MD SF SI ? 
SMON ? ADLT CHLD SNR YAD ? SP F66 F70"
CHD OBHS Springfield,367 Pine Street,Springfield,Massachusetts 01105,01105,"? MH SUMH ? OP ? OMH ? BMT CBT CFT DBT GT IDD IPT PTM TT ? PVTN ? CLF CMHG 
CSBG MC MD MI OSF PI SCJJ SEF SF SI SMHA SWFS VAF ? PA SS ? SPS ? STU TCC ? 
SMON ? ADLT CHLD SNR YAD ? SP F30 F92"
Community Services Institute,1695 Main Street Suite 400,Springfield,Massachusetts 01103,01103,"? MH SUMH ? OP ? CMHC ? AT BMT CBT CFT DBT IDD IPT PTM TT ? PVTP ? MC MD MI PI SF 
SI ? COOT ? NSC STU ? SMON ? ADLT CHLD SNR YAD ? SP F2"
Gandara Mental Health Center Outpatient Services Division,2155 Main Street,Springfield,Massachusetts 01104,01104,"? MH SUMH ? OP TELE ? OMH ? BMT CBT CFT DBT GT IDD IPT PTM TT ? WI ? PVTN ? MC 
MD PI SF SI ? CO SED SMI ? ACT CM COOT DEC ES FPSY ICM IMR IPC SPS PEER ? NRT 
NSC STU TCC ? SMON ? ADLT CHLD SNR YAD ? SP"
Institute for Health and Recovery Inc Springfield,155 Maple Street Suite 304,Springfield,Massachusetts 01105,01105,"? MH SUMH ? OP ? OMH ? BMT CBT CFT IDD IPT TT ? PVTN ? MC MD OSF PI SF SMHA 
SWFS ? PA SS ? TAY SE TRMA SED ? CM COOT FPSY SH PEER ? STU ? SMON ? ADLT 
CHLD SNR YAD ? SP"
River Valley Counseling Center,120 Maple Street,Springfield,Massachusetts 01103,01103,"? MH SUMH ? OP ? CMHC ? AT BMT CBT CFT DBT GT IDD IPT PTM TT ? PVTN ? CLF MC MD 
OSF PI SF SI SMHA ? SS ? CO HV TRMA PTSD ? CDM CM ES HS SH PEER ? SMON ? ADLT 
CHLD SNR YAD ? AH ? SP F66"
Three Rivers Program,26 Ridgewood Terrace,Springfield,Massachusetts 01105,01105,"? MH ? RES ? RTCC ? AT BMT CBT CFT GT IPT PTM TT ? CIT ? PVTN ? SMHA ? TRMA PTSD 
SED ? CM ES FPSY PRS SPS ? SMON ? CHLD"
VA Central Western Massachusetts Springfield CBOC,25 Bond Street,Springfield,Massachusetts 01104,01104,"? MH SUMH ? OP TELE ? CBT CFT GT IDD IPT PTM TT ? WI ? VAMC ? VAF ? SE GL VET ADM 
MF CJ CO TRMA TBI ALZ PTSD SMI ? CDM COOT DEC FPSY HS ICM IPC SEMP SH SPS VRS 
PEER ? NRT NSC STU TCC ? SMON ? ADLT SNR YAD ? VO"
Austen Riggs Center,25 Main Street,Stockbridge,Massachusetts 01262,01262,"? MH SUMH ? HI OP PHDT RES ? RTCA ? CFT GT IPT PTM ? PVTN ? PI SF ? SMI ? PRS ? 
SMPD ? ADLT SNR YAD"
Curahealth Stoughton Neurorehabilitation Unit,909 Sumner Street,Stoughton,Massachusetts 02072,02072,"? MH ? HI ? PSY ? AT BMT CBT GT IPT PTM ? PVTP ? MC MD MI PI SF SI ? TBI ? CDM CM 
DEC ES FPSY HS IMR IPC LAD PRS ? NRT STU TCC ? SMPD ? ADLT SNR YAD ? AH"
Gosnold Counseling Center,"909 Sumner Street, 2nd Floor",Stoughton,Massachusetts 02072,02072,"? MH SUMH ? OP PHDT TELE ? OMH ? CBT CFT DBT GT IPT PTM ? PVTN ? MC MD MI PI 
SCJJ SF SI SMHA ? CO ? CM COOT FPSY ? SMPD ? ADLT CHLD SNR YAD"
Justice Resource Institute Inc Meadowridge Academy,664 Stevens Road,Swansea,Massachusetts 02777,02777,"? MH ? RES ? RTCC ? AT CBT CFT DBT GT IPT PTM TT ? PVTN ? PI SEF SF SI SMHA SWFS 
? PTSD SED ? ES FPSY PRS SPS ? SMON ? CHLD"
Justice Resource Institute Inc Swansea Wood School,789 Stevens Road,Swansea,Massachusetts 02777,02777,"? MH ? RES ? RTCC ? AT CBT CFT DBT GT IPT PTM TT ? PVTN ? PI SEF SF SI SMHA SWFS 
? PTSD SED ? ES FPSY PRS SPS ? SMON ? CHLD"
Stevens Treatment Programs Residential Treatment Center,24 Main Street,Swansea,Massachusetts 02777,02777,"? MH SUMH ? RES ? RTCC ? BMT CBT CFT GT IPT PTM TT ? PVTN ? CLF SCJJ SEF SMHA 
SWFS ? SED ? CM ES ? SMON ? CHLD ? SP"
Community Counseling of Bristol County Main Office,1 Washington Street,Taunton,Massachusetts 02780,02780,"? MH SUMH ? OP PHDT ? CMHC ? CBT CFT GT IDD IPT PTM TT ? CIT ? PVTN ? CMHG MC 
MD PI SF SMHA ? SE GL VET CO HV TRMA PTSD SED SMI ? ACT CM COOT IMR SH SPS ? 
STU ? SMPD ? ADLT CHLD SNR YAD ? SP F67"
Community Csl of Bristol County Continuing Care/Partial Hospital,19 Cedar Street,Taunton,Massachusetts 02780,02780,"? MH SUMH ? OP PHDT ? PH ? AT CBT DBT GT IDD IPT PTM ? CIT WI ? PVTN ? MC MD PI SF 
? CO SMI ? FPSY IMR PRS SPS VRS ? STU ? SMPD ? ADLT SNR YAD ? SP"
Justice Resource Institute Inc Cohannet Academy,60 Hodges Avenue Taunton State Hosp-Cain 2,Taunton,Massachusetts 02780,02780,"? MH ? RES ? RTCC ? AT CBT CFT DBT GT IPT PTM TT ? PVTN ? MD PI SCJJ SEF SF SI 
SMHA SWFS ? PTSD SED ? ES FPSY PRS SPS ? SMON ? CHLD"
Justice Resource Institute Inc Southeast Behavioral Health Center,35 Summer Street Suite 202-A,Taunton,Massachusetts 02780,02780,"? MH SUMH ? OP ? OMH ? CBT CFT DBT GT IPT PTM TT ? PVTN ? MC MD PI SF SI SMHA 
SWFS ? TAY CO TRMA PTSD SED SMI ? ACT CM COOT FPSY SPS ? SMON ? ADLT CHLD 
SNR YAD"
Morton Hospital/Medical Center Elder Behavioral Health Services,88 Washington Street,Taunton,Massachusetts 02780,02780,"? MH SUMH ? HI ? PSY ? AT BMT GT IPT PTM TT ? CIT WI ? PVTP ? MC MD PI SF SI ? SE 
ALZ ? CDM CM DEC ES FPSY IMR IPC LAD PRS SPS ? NRT NSC STU TCC ? SMON ? ADLT 
SNR ? AH"
Volunteers of America Family Center for Counseling and Education,5 Post Office Square,Taunton,Massachusetts 02780,02780,"? MH SUMH ? OP ? OMH ? BMT CBT CFT DBT GT IPT PTM TT ? PVTN ? FQHC ? MC MD PI 
SF SI ? CO TRMA ? FPSY ? SMON ? ADLT CHLD SNR YAD"
Justice Resource Institute Inc Centerpoint,365 East Street,Tewksbury,Massachusetts 01876,01876,"? MH ? RES ? RTCC ? AT CBT CFT DBT GT IPT PTM TT ? PVTN ? MD PI SCJJ SEF SI SMHA 
SWFS ? PTSD SED ? ES FPSY PRS SPS ? SMON ? CHLD"
Justice Resource Institute Inc Merrimack Center,365 East Street Special Building,Tewksbury,Massachusetts 01876,01876,"? MH ? RES ? RTCC ? AT CBT CFT DBT GT IPT PTM TT ? PVTN ? MD PI SCJJ SEF SI SMHA 
SWFS ? PTSD SED ? ES FPSY PRS SPS ? SMON ? CHLD"
Riverside Community Care Outpatient Center at Upton,206 Milford Street,Upton,Massachusetts 01568,01568,"? MH SUMH ? OP TELE ? OMH ? CBT CFT DBT GT IDD IPT PTM TT ? CIT ? PVTN ? MC MD PI 
SF SI ? SE CO SED ? ACT COOT DEC FPSY SPS ? NSC STU TCC ? SMPD ? ADLT CHLD SNR 
YAD ? SP F67 F79"
Marthas Vineyard Community Servs,111 Edgartown Road,Vineyard Haven,Massachusetts 02568,02568,"? MH SUMH ? OP PHDT ? OMH ? AT BMT CBT CFT DBT GT IDD IPT PTM TT ? CIT WI ? PVTN 
? CLF CMHG CSBG ITU MC MD MI OSF PI SCJJ SEF SF SI SMHA SWFS VAF ? TAY SE GL VET 
ADM MF CO TRMA PTSD SED SMI ? CDM CM COOT DEC FPSY SEMP SPS VRS PEER ? STU 
TCC ? SMON ? ADLT CHLD SNR YAD ? SP"
Riverside Community Care Day Treatment at Wakefield,"607 North Avenue , Building 18",Wakefield,Massachusetts 01880,01880,"? MH SUMH ? PHDT ? PH ? AT CBT DBT GT IDD ? PVTN ? MD SF ? CO SMI ? DEC PRS SPS 
PEER ? SMPD ? ADLT SNR YAD"
Brook/Pavillion Annex,558 Waverly Oaks Road,Waltham,Massachusetts 02452,02452,"? MH ? RES ? RTCA ? AT BMT CBT CFT DBT GT IDD IPT PTM TT ? PVTN ? SF ? CO TRMA 
PTSD ? DEC FPSY ? SMPD ? ADLT SNR YAD"
Walden Behavioral Care LLC,9 Hope Avenue Suite 500,Waltham,Massachusetts 02453,02453,"? MH SUMH ? HI TELE ? PSY ? AT BMT CBT DBT GT IPT PTM TT ? PVTP ? MC MD MI PI SF ? 
SE GL CO TRMA PED PTSD SMI ? CM ? SMON ? ADLT CHLD SNR YAD"
Wayside Youth/Fam Support Ntwk Beaverbrook Counseling Center,431 River Street Suite 1,Waltham,Massachusetts 02453,02453,"? MH ? OP ? OMH ? AT CBT CFT GT IPT PTM TT ? CIT ? PVTN ? MC MD PI SF SI SMHA SWFS 
? CM COOT FPSY PEER ? STU ? SMON ? CHLD YAD ? AH ? SP F19"
Behavioral Health Network (BHN) Valley Human Services,96 South Street,Ware,Massachusetts 01082,01082,"? MH SUMH ? OP TELE ? OMH ? CBT CFT GT IDD IPT PTM TT ? CIT ? PVTN ? MC MD MI PI 
SF SMHA ? SS ? GL TRMA SMI ? CM COOT FPSY IPC ? NSC STU ? SMPD ? ADLT CHLD SNR 
YAD ? AH"
South Shore Mental Health Center Bayview Associates,215 Sandwich Road,Wareham,Massachusetts 02571,02571,"? MH ? OP ? OMH ? BMT CBT CFT GT IDD IPT PTM TT ? PVTN ? MC MD MI PI SF SI SMHA 
SWFS ? GL ? CM FPSY ? SMON ? ADLT CHLD SNR YAD ? SP F67"
Webster LUK Site,251 Main Street,Webster,Massachusetts 01570,01570,"? MH SUMH ? OP ? OMH ? AT CBT CFT IPT TT ? PVTN ? MD PI SF SMHA SWFS ? SS ? TRMA 
PTSD ? CM COOT FPSY HS SH SPS TPC ? STU TCC ? SMPD ? ADLT CHLD SNR YAD ? AH"
Achieve TMS East Westborough,45 Lyman Street Suite 14,Westborough,Massachusetts 01581,01581,? MH ? OP ? OMH ? PVTP ? MD MI PI SF SI VAF ? SMON ? ADLT SNR YAD ? SP F184
Behavioral Health Network (BHN) Carson Center for Adults and Families,77 Mill Street Suite 251,Westfield,Massachusetts 01085,01085,"? MH SUMH ? OP ? OMH ? CBT CFT DBT GT IDD IPT PTM TT ? CIT ? PVTN ? MC MD MI PI SF 
SMHA ? SS ? GL SMI ? CM COOT FPSY IPC ? NSC STU ? SMPD ? ADLT SNR YAD ? AH ? SP"
CHD West Springfield Outpatient Behavioral Health Clinic,246 Park Street,West Springfield,Massachusetts 01089,01089,"? MH SUMH ? OP ? OMH ? BMT CBT CFT DBT GT IDD IPT PTM TT ? PVTN ? MC MD MI PI SF 
? GL PTSD SED ? ACT COOT FPSY ? SMON ? ADLT CHLD SNR YAD ? SP F70"
Arc of South Norfolk DBA Harbor Counseling Center,789 Clapboardtree Street,Westwood,Massachusetts 02090,02090,"? MH ? OP ? OMH ? AT BMT CBT CFT GT IPT PTM ? PVTN ? MC MD PI SF ? SE TBI ALZ ? 
SMPD ? ADLT SNR YAD ? F4 F19 F35 F66"
Family Continuity Whitinsville Clinic,76 Church Street Suite 301,Whitinsville,Massachusetts 01588,01588,"? MH ? OP ? OMH ? AT BMT CBT CFT DBT GT IDD IPT PTM TT ? PVTN ? MC MD OSF PI SCJJ 
SF SI SMHA SWFS ? TAY GL CJ TRMA PTSD SED ? CM COOT FPSY IMR IPC PEER ? STU ? 
SMON ? ADLT CHLD SNR YAD ? SP F4 F19 F31 F66 F67"
Northeast Family Institute Milestone Program,82 High Street,Wilmington,Massachusetts 01887,01887,"? MH SUMH ? RES ? RTCC ? AT BMT CBT GT IPT PTM TT ? CIT ? PVTN ? MD SMHA SWFS ? 
SED ? CM FPSY PRS ? SMON ? CHLD"
Achieve TMS East Woburn,400 West Cummings Park Suite 4175,Woburn,Massachusetts 01801,01801,? MH ? OP ? OMH ? PVTP ? MD MI PI SF SI VAF ? SMON ? ADLT SNR YAD
Arbour Counseling Services Woburn,10-I Roessler Road,Woburn,Massachusetts 01801,01801,"? MH SUMH ? OP PHDT ? OMH ? AT BMT CBT CFT DBT GT IDD IPT PTM TT ? PVTP ? MC MD 
MI OSF PI SCJJ SEF SF SI SMHA SWFS VAF ? CJ CO ? CDM CM COOT DEC ES FPSY IMR 
PRS SPS VRS ? NRT NSC TCC ? SMPD ? ADLT CHLD SNR YAD ? AH ? SP"
Edinburg Center Inc,5-7 Ran Drive,Woburn,Massachusetts 01801,01801,"? MH SUMH ? RES ? RTCA ? PVTN ? SMHA ? CM IMR PRS ? SMON ? ADLT SNR YAD ? AH ? 
SP"
Achieve TMS East Worcester,19 Cedar Street,Worcester,Massachusetts 01609,01609,? MH ? OP ? OMH ? PVTP ? MD MI PI SF SI VAF ? SMON ? ADLT SNR YAD ? SP F36
Ellsworth Child/Family Csl Ctr,20 Cedar Street,Worcester,Massachusetts 01609,01609,"? MH ? OP ? OMH ? BMT CBT CFT DBT GT IPT PTM TT ? PVTN ? MC MD MI PI SF ? TAY GL 
TRMA SED ? FPSY ? SMPD ? ADLT CHLD SNR YAD ? SP F2"
Family Services of Central Massachusetts,31 Harvard Street,Worcester,Massachusetts 01609,01609,"? MH SUMH ? OP ? OMH ? BMT CBT CFT DBT GT IDD IPT TT ? PVTN ? CLF MD MI PI SF SI ? 
SS ? COOT FPSY ? SMPD ? ADLT CHLD SNR YAD ? SP F28 F31 F42"
LUK Inc Outreach Site,40 Southbridge Street 4th Floor,Worcester,Massachusetts 01608,01608,"? MH SUMH ? OP ? OMH ? AT CBT CFT GT IPT PTM TT ? PVTN ? MC MD PI SF SMHA SWFS 
? SS ? TRMA PTSD ? CM COOT FPSY HS SH SPS TPC ? STU TCC ? SMPD ? ADLT CHLD 
SNR YAD ? AH"
MSPCC Worcester Office A Division of Eliot,108 Belmont Street,Worcester,Massachusetts 01602,01602,"? MH ? OP ? OMH ? CFT IPT TT ? PVTN ? MC MD PI SF SI ? TRMA ? FPSY ? SMON ? CHLD 
YAD"
Multicultural Wellness Center Inc,"44 Front Street, 3rd Floor",Worcester,Massachusetts 01608,01608,"? MH SUMH ? OP TELE ? OMH ? AT BMT CBT CFT DBT GT IDD IPT PTM TT ? CIT WI ? PVTN 
? FQHC ? MC MD PI SF ? TAY SE GL VET ADM MF CJ CO HV TRMA PED PTSD SED SMI ? 
ACT CM COOT ES FPSY HS ICM PRS SEMP SH SPS VRS PEER ? STU TCC ? SMON ? ADLT 
CHLD SNR YAD ? AH ? SP F4 F19 F28 F47"
Open Sky Community Services Ives House Residence,154 Vernon Street,Worcester,Massachusetts 01610,01610,"? MH ? RES ? RTCC ? AT BMT CBT CFT DBT GT IDD IPT TT ? PVTN ? PI SMHA SWFS ? SED 
? DEC FPSY IMR PRS SEMP ? SMON ? CHLD"
Open Sky Community Services School House,41 Randolph Road,Worcester,Massachusetts 01606,01606,"? MH ? RES ? RTCC ? AT BMT CBT CFT GT IPT TT ? PVTN ? PI SMHA SWFS ? SED ? FPSY 
PRS ? SMON ? CHLD"
South Bay Community Services Day Services,324 Clark Street,Rear Building Suite 201 Worcester,Massachusetts 01606,01606,"? MH SUMH ? OP PHDT ? PH ? AT BMT CBT DBT GT IDD PTM ? PVTP ? MC MD PI SF SI ? CO 
SMI ? CM COOT PRS ? STU TCC ? SMPD ? ADLT SNR YAD"
VA Central Western Massachusetts Worcester CBOC,"25 Lake Avenue North, UMass MS-ACC Building, 7th Floor",Worcester,Massachusetts 01605,01605,"? MH SUMH ? OP TELE ? OMH ? CBT CFT GT IPT PTM TT ? VAMC ? MC MD MI PI SF VAF ? 
VET ADM CO TRMA TBI ALZ PED PTSD ? CM FPSY HS SEMP SPS VRS ? NRT NSC STU TCC 
? SMON ? ADLT SNR YAD ? VO"
Youth Opportunities Upheld Inc,81 Plantation Street,Worcester,Massachusetts 01604,01604,"? MH SUMH ? OP ? OMH ? CBT CFT GT IDD IPT PTM TT ? PVTN ? MC MD PI SF SI SMHA 
SWFS ? TAY GL CJ CO TRMA PTSD SED ? COOT FPSY SPS ? STU ? SMON ? ADLT CHLD 
SNR YAD ? AH ? SP F4"
