Name,Address,City,State,Zip,Services
Ascentria Community Services,"155 Center Street , Building B",Auburn,Maine 04210,04210,"? MH ? OP ? CMHC ? CFT DBT GT ? PVTN ? CLF CMHG MD OSF SCJJ SF SMHA SWFS ? 
TRMA PTSD SMI ? CM PRS ? SMPD ? ADLT SNR YAD"
Connections for Kids,155 Center Street Building E,Auburn,Maine 04210,04210,"? MH SUMH ? OP ? OMH ? BMT CBT CFT DBT GT IDD IPT TT ? PVTN ? MD PI SF SWFS ? SS 
? TAY GL CO TRMA PTSD SED SMI ? ACT CM COOT FPSY PRS ? SMPD ? ADLT CHLD YAD"
Pathways of Maine Inc Western Maine Region,155 Center Street Building F Suite 2,Auburn,Maine 04210,04210,"? MH SUMH ? OP ? OMH ? AT BMT CBT CFT DBT IPT TT ? PVTP ? MD MI PI SF SMHA SWFS ? 
TRMA PTSD SED ? CM FPSY IPC PRS SPS ? STU ? SMON ? ADLT CHLD YAD ? AH"
Anglez Behavioral Health Services PA,841 Riverside Drive,Augusta,Maine 04330,04330,"? MH SUMH ? OP TELE ? CMHC ? AT BMT CBT CFT DBT GT IDD IPT PTM TT ? PVTP ? MC MD 
OSF PI SF ? GL CO TRMA PTSD SED SMI ? CM COOT ES FPSY HS PRS SEMP ? TCC ? SMPD 
? ADLT CHLD SNR YAD ? F4"
Community Health and Csl Servs Adult Child and Family Services,24 Stone Street Suite 201,Augusta,Maine 04330,04330,"? MH ? OP ? OMH ? BMT CBT CFT IPT TT ? PVTN ? CLF MC MD MI OSF PI SCJJ SF SI SMHA 
SWFS VAF ? SS ? TRMA ? CM FPSY TPC ? SMON ? ADLT CHLD SNR YAD ? AH"
Crisis and Counseling Centers Inc,10 Caldwell Road,Augusta,Maine 04330,04330,"? MH SUMH ? OP ? OMH ? CBT CFT DBT GT IDD IPT PTM TT ? CIT WI ? PVTN ? CLF CMHG 
MC MD MI OSF PI SCJJ SF SI SMHA SWFS ? SE CO PTSD SED ? CM COOT FPSY SPS PEER 
? STU TCC ? SMPD ? ADLT CHLD SNR YAD ? AH"
Crisis and Counseling Centers Inc,8 Bangor Lane,Augusta,Maine 04330,04330,"? MH SUMH ? RES ? RTCA ? AT CBT CFT DBT GT IDD IPT TT ? CIT ? PVTN ? CLF CMHG 
CSBG MC MD MI OSF PI SCJJ SF SI SMHA SWFS ? PA SS ? DEC FPSY HS PRS SPS ? STU ? 
SMPD ? ADLT SNR YAD ? AH"
Crisis and Counseling Centers Inc,113 Halifax Street,Augusta,Maine 04330,04330,"? MH SUMH ? RES ? RTCC ? AT CBT CFT DBT GT IDD IPT TT ? CIT ? PVTN ? CLF CMHG 
CSBG MC MD MI OSF PI SCJJ SF SI SMHA SWFS VAF ? PA SS ? SED ? DEC FPSY HS PRS 
SPS ? STU ? SMPD ? CHLD ? AH"
Kennebec Behavioral Health,66 Stone Street,Augusta,Maine 04330,04330,"? MH SUMH ? OP ? OMH ? CBT CFT DBT GT IDD IPT PTM ? PVTN ? CMHG MC MD MI PI 
SCJJ SF SI SMHA SWFS ? SMI ? CM ? SMON ? ADLT CHLD SNR YAD ? AH"
MaineGeneral Counseling Comm Care,9 Green Street,Augusta,Maine 04330,04330,"? MH SUMH ? OP ? OMH ? CBT CFT DBT GT IDD IPT TT ? PVTN ? MD PI SF ? SS ? CO ? ACT 
COOT ? STU ? SMON ? ADLT CHLD SNR YAD ? AH"
NFI North Inc Sidney Riverbend,3895 West River Road,Augusta,Maine 04330,04330,"? MH SUMH ? RES ? RTCC ? AT BMT CBT CFT DBT GT IDD IPT PTM TT ? PVTN ? MD PI SCJJ 
SEF SMHA SWFS ? TRMA PTSD SED ? CM ES FPSY ? SMON ? CHLD ? AH"
Spurwink Services Chelsea Program,31 Spurwink Drive,Augusta,Maine 04330,04330,"? MH SUMH ? RES ? RTCC ? AT BMT CBT DBT GT IDD IPT PTM TT ? PVTN ? CLF MD OSF 
SCJJ SEF SF SMHA SWFS ? CO TRMA SED ? ES FPSY SEMP VRS ? STU ? SMON ? CHLD"
Acadia Hospital,268 Stillwater Avenue/ P.O. Box 422,Bangor,Maine 04402,04402,"? MH SUMH ? HI OP PHDT TELE ? PSY ? AT CBT CFT DBT ECT GT IDD IPT PTM ? WI ? PVTN 
? ITU MC MD MI OSF PI SCJJ SF SI SMHA SWFS VAF ? PA SS ? SE GL CO TRMA ALZ PED 
PTSD ? CM DEC FPSY IPC SPS PEER ? NRT STU TCC ? SMON ? ADLT CHLD SNR YAD ? AH"
Bangor Counseling Center DBA of New Life Mission,202 Exchange Street,Bangor,Maine 04401,04401,"? MH ? OP ? OMH ? BMT CBT CFT DBT IDD IPT TT ? PVTN ? MC MD MI PI SF SI SWFS ? PRS 
? STU TCC ? SMON ? ADLT CHLD SNR YAD ? AH"
Behavioral Health Center,77 Court Street,Bangor,Maine 04401,04401,"? MH SUMH ? OP ? OMH ? BMT CBT CFT DBT GT IDD IPT TT ? PVTP ? CLF CMHG CSBG ITU 
MC MD MI OSF PI SCJJ SEF SF SI SMHA SWFS VAF ? GL CJ CO TRMA PTSD SED SMI ? 
COOT DEC ES FPSY ? TCC ? SMON ? ADLT CHLD SNR YAD"
Care and Comfort,24 Springer Drive Suite 202,Bangor,Maine 04401,04401,"? MH ? OP ? OMH ? BMT CFT IPT TT ? PVTP ? CLF ITU MD MI OSF PI SCJJ SEF SF SI SMHA 
SWFS VAF ? PA SS ? VET ? ACT CM COOT FPSY PRS ? SMON ? ADLT CHLD SNR YAD ? AH"
Community Care,40 Summer Street,Bangor,Maine 04401,04401,"? MH SUMH ? OP ? OMH ? BMT CBT CFT IDD IPT TT ? PVTN ? MD OSF PI SCJJ SEF SF SI 
SMHA SWFS ? CO SED SMI ? CM FPSY ICM TPC ? STU TCC ? SMPD ? ADLT CHLD YAD ? AH"
Community Health and Csl Servs,42 Cedar Street,Bangor,Maine 04401,04401,"? MH SUMH ? OP TELE ? OMH ? BMT CBT CFT DBT GT IDD IPT PTM TT ? CIT ? PVTN ? MC 
MD PI SF ? ACT CM COOT DEC FPSY HS ICM IPC PRS SEMP SH SPS TPC VRS PEER ? STU 
TCC ? SMON ? ADLT CHLD SNR YAD ? AH"
Full Circle Wellness Center Inc,157 Park Street Suite 35,Bangor,Maine 04401,04401,"? MH SUMH ? OP ? OMH ? BMT CBT CFT DBT IDD IPT TT ? PVTP ? MC MD MI OSF PI SCJJ 
SF SI SMHA SWFS VAF ? COOT ES ? SMPD ? ADLT CHLD SNR YAD"
NFI North Inc Finson Road Program,726 Finson Road,Bangor,Maine 04401,04401,"? MH ? RES ? RTCA ? AT BMT CBT GT IPT TT ? PVTN ? MD SF ? SE GL CO PTSD ? CM HS ? 
SMPD ? SNR"
NFI North Inc Miller Terraces,60 Ohio Street,Bangor,Maine 04401,04401,"? MH SUMH ? RES ? RTCA ? BMT CBT GT IDD IPT PTM TT ? CIT ? PVTN ? MD OSF SF SMHA 
? SMI ? PRS PEER ? STU TCC ? SMON ? ADLT SNR YAD ? AH"
NFI North Inc Summit View Program,63 Summit Avenue,Bangor,Maine 04401,04401,"? MH SUMH ? RES ? RTCC ? CBT CFT DBT GT IDD IPT PTM TT ? PVTN ? MD SI SMHA ? CO 
TRMA PTSD SED ? PRS SPS PEER ? SMON ? CHLD"
Northeast Occupational Exchange Inc,68 Mount Hope Avenue Suite 2,Bangor,Maine 04401,04401,"? MH SUMH ? OP TELE ? OMH ? BMT CBT CFT DBT GT IDD IPT TT ? CIT ? PVTN ? CLF 
CMHG CSBG ITU MC MD MI OSF PI SCJJ SEF SF SI SMHA SWFS VAF ? SS ? CO ? CM COOT 
DEC FPSY HS PRS SPS PEER ? STU TCC ? SMPD ? ADLT CHLD SNR YAD ? AH"
OHI,203 Main Avenue,Bangor,Maine 04401,04401,"? MH SUMH ? OP ? OMH ? IDD ? PVTN ? MD MI OSF SCJJ SF SMHA SWFS ? SMI ? CM DEC 
HS PRS VRS PEER ? STU ? SMON ? ADLT SNR YAD ? AH"
Pathways of Maine Inc Eastern Maine Regional Office,21 Main Street Suite 301,Bangor,Maine 04401,04401,"? MH SUMH ? OP ? OMH ? AT BMT CBT CFT DBT IPT TT ? PVTP ? MD MI PI SF SMHA SWFS ? 
TRMA PTSD SED ? CM FPSY IPC PRS SPS ? STU ? SMON ? ADLT CHLD YAD ? AH"
Maine Behavioral Healthcare,15 Mid Coast Drive,Belfast,Maine 04915,04915,"? MH ? OP ? OMH ? AT BMT CBT CFT DBT GT IDD IPT PTM TT ? CIT ? PVTN ? MC MD PI SF 
SI SMHA SWFS ? SED ? CDM CM COOT DEC FPSY SEMP SH ? STU ? SMON ? ADLT CHLD 
SNR YAD ? AH"
Searsport Counseling Associates,9 Field Street Suite 106,Belfast,Maine 04915,04915,"? MH ? OP ? OMH ? BMT CBT CFT DBT IDD IPT ? PVTP ? MD MI PI SCJJ SEF SF SI SMHA 
SWFS VAF ? CM COOT ? TCC ? SMON ? ADLT CHLD SNR YAD"
Maine Behavioral Healthcare Sherry Sabo Center,2 Springbrook Drive,Biddeford,Maine 04005,04005,"? MH SUMH ? OP TELE ? OMH ? BMT CBT CFT DBT GT IDD IPT PTM TT ? CIT WI ? PVTN ? 
MC MD PI SCJJ SF SI SMHA SWFS ? CO TRMA SMI ? ACT CM COOT FPSY IPC SPS VRS 
PEER ? NSC STU TCC ? SMON ? ADLT CHLD SNR YAD ? AH"
Oceanside Community Services LLP,22 West Cole Road Suite 103,Biddeford,Maine 04005,04005,"? MH ? OP ? OMH ? BMT CBT CFT DBT GT IPT PTM TT ? PVTP ? MC MD MI PI SCJJ SF SI 
SWFS ? FPSY ? STU ? SMPD ? ADLT CHLD SNR YAD"
Southern Maine Healthcare Behav Hlth Partial Hospitalization,235 Main Street,Biddeford,Maine 04005,04005,"? MH SUMH ? PHDT ? PH ? AT BMT CBT CFT DBT GT IDD IPT PTM ? CIT ? PVTN ? CMHG 
CSBG MC MD MI PI SF SI SMHA VAF ? PA ? TAY SE CO TRMA PTSD SMI ? ACT IMR SPS ? 
STU ? SMON ? ADLT SNR YAD ? AH"
Southern Maine Healthcare Behavioral Health,1 Medical Center Drive,Biddeford,Maine 04005,04005,"? MH SUMH ? HI PHDT TELE ? PSY ? AT CBT CFT DBT ECT GT IDD IPT PTM TT ? CIT ? PVTN 
? MC MD PI SF SI SMHA ? CDM CM DEC FPSY PRS SPS ? NRT NSC STU TCC ? SMON ? 
ADLT SNR YAD ? AH"
Spurwink Services York,"40 Main Street , Building 13 Suite 210",Biddeford,Maine 04005,04005,"? MH SUMH ? OP ? OMH ? CBT CFT DBT IDD IPT TT ? PVTN ? MC MD PI SCJJ SF SMHA ? 
SED ? CM IPC ? STU ? SMON ? CHLD"
Fisher Road,336 Fisher Road,Bowdoinham,Maine 04008,04008,"? MH ? RES ? RTCA ? BMT GT IDD IPT PTM ? PVTP ? CMHG MC MD OSF PI SCJJ SF SI 
SMHA ? SE GL CJ CO TRMA TBI PTSD SMI ? CDM CM COOT ES HS PRS SPS VRS ? NRT TCC 
? SMPD ? ADLT SNR YAD"
NFI North Inc Bridge Crossing,15 Wayside Avenue,Bridgton,Maine 04009,04009,"? MH SUMH ? RES ? RTCC ? AT BMT CBT CFT DBT GT IPT PTM TT ? CIT ? PVTN ? CLF MC 
MD OSF SCJJ SEF SF SI SMHA SWFS ? TRMA PTSD SED ? DEC ES FPSY PRS SPS ? SMON 
? CHLD ? AH"
Tri County Mental Health Services,32 North High Street,Bridgton,Maine 04009,04009,"? MH SUMH ? OP TELE ? OMH ? CBT CFT DBT GT IDD IPT TT ? WI ? PVTN ? CLF CMHG 
CSBG MC MD MI OSF PI SCJJ SF SMHA SWFS VAF ? SE VET CO TRMA PTSD SED SMI ? CM 
COOT FPSY IMR PRS SPS PEER ? STU TCC ? SMON ? ADLT CHLD SNR YAD ? AH"
Maine Behavioral Healthcare,11 Medical Center Drive,Brunswick,Maine 04011,04011,"? MH SUMH ? OP ? OMH ? CBT CFT GT IPT PTM TT ? PVTN ? MC MD PI SF SI ? CM ? SMON 
? ADLT CHLD SNR YAD ? AH"
Mid Coast Hospital Behavioral Health Unit,123 Medical Center Drive,Brunswick,Maine 04011,04011,"? MH SUMH ? HI ? PSY ? CBT DBT ECT GT IPT PTM ? CIT WI ? PVTN ? MC MD MI PI SF SI 
SMHA VAF ? CM PRS SPS PEER ? NRT NSC STU TCC ? SMON ? ADLT SNR YAD ? AH"
Mid Coast Hospital Outpatient Behavioral Health,66 Baribeau Drive Suites 9-10,Brunswick,Maine 04011,04011,"? MH SUMH ? OP PHDT ? PH ? AT BMT CBT DBT GT IDD PTM ? PVTN ? CLF MC MD MI PI SF 
SWFS ? SE CJ CO SMI ? ACT CM DEC FPSY ICM PRS SPS ? STU TCC ? SMON ? ADLT SNR 
YAD ? AH"
NFI North Inc Beacon House,360 Long Plains Road,Buxton,Maine 04093,04093,"? MH SUMH ? RES ? RTCC ? BMT CBT CFT GT IPT PTM TT ? PVTN ? CLF MD OSF PI SCJJ 
SEF SF SMHA SWFS ? DEC ES FPSY IPC PRS PEER ? SMON ? CHLD"
Aroostook Mental Health Center Calais Outpatient Office,127 Palmer Street,Calais,Maine 04619,04619,"? MH SUMH ? OP TELE ? CMHC ? BMT CBT CFT GT IDD IPT PTM TT ? CIT WI ? PVTN ? CLF 
CMHG MC MD MI OSF PI SCJJ SF SMHA SWFS VAF ? SED SMI ? CM COOT FPSY HS PRS 
SPS TPC PEER ? STU ? SMPD ? ADLT CHLD SNR YAD ? AH"
Aroostook Mental Health Center,43 Hatch Drive Suite 310,Caribou,Maine 04736,04736,"? MH SUMH ? OP TELE ? CMHC ? CBT CFT DBT GT IDD IPT TT ? CIT WI ? PVTN ? CLF CMHG 
MC MD MI OSF PI SCJJ SF SMHA SWFS VAF ? SED SMI ? CM COOT FPSY HS PRS SPS TPC 
PEER ? STU TCC ? SMPD ? ADLT CHLD SNR YAD ? AH"
Community Health and Csl Servs,7 Hatch Drive Suite 120,Caribou,Maine 04736,04736,"? MH ? OP ? OMH ? BMT CBT CFT DBT GT IPT TT ? PVTN ? MC MD MI PI SF VAF ? HV ? CM 
TPC ? SMON ? ADLT CHLD SNR YAD"
Life by Design PA,27 Birdseye Avenue,Caribou,Maine 04736,04736,"? MH SUMH ? OP ? OMH ? CBT CFT IDD IPT TT ? PVTP ? CLF MC MD MI OSF PI SCJJ SEF SF 
SWFS ? CO ? CM COOT ? STU TCC ? SMON ? ADLT CHLD SNR YAD"
New Day Counseling Services LLC,20 Old Van Buren Road,Caribou,Maine 04736,04736,"? MH SUMH ? OP ? CMHC ? AT BMT CBT CFT DBT GT IDD IPT TT ? PVTP ? CLF MC MD MI 
OSF PI SCJJ SF SI SMHA SWFS ? PA SS ? CM COOT SPS ? STU TCC ? SMON ? ADLT CHLD 
SNR YAD ? AH"
Choices,263 Main Street Suite 1,Corinth,Maine 04427,04427,"? MH ? OP ? OMH ? BMT CBT IPT TT ? PVTN ? CLF MC MD OSF SCJJ SF SI SWFS ? CM DEC 
ES HS IPC PRS SPS TPC ? STU ? SMON ? ADLT CHLD SNR YAD"
Maine Behavioral Healthcare,24 Miles Center Way,Damariscotta,Maine 04543,04543,"? MH SUMH ? OP TELE ? OMH ? BMT CBT CFT GT IDD IPT PTM TT ? PVTN ? MC MD PI SCJJ 
SF SI SWFS VAF ? CDM CM COOT DEC FPSY HS ? STU ? SMON ? ADLT CHLD SNR YAD ? AH"
Care and Comfort,1073 West Main Street,Dover Foxcroft,Maine 04426,04426,"? MH ? OP ? OMH ? BMT CFT IPT TT ? PVTP ? CLF ITU MD MI OSF PI SCJJ SEF SF SI SMHA 
SWFS VAF ? PA SS ? CM COOT FPSY PRS ? SMON ? ADLT CHLD SNR YAD ? AH"
Community Health and Csl Servs Adult Child and Family Services,1093 West Main Street,Dover Foxcroft,Maine 04426,04426,"? MH SUMH ? OP ? CMHC ? BMT CBT CFT DBT IDD IPT TT ? CIT ? PVTN ? MC MD MI PI SCJJ 
SF SI SWFS ? CM COOT FPSY PRS TPC ? SMON ? ADLT CHLD SNR YAD ? AH"
Mayo Regional Hospital Psychiatry and Counseling Services,69 High Street,Dover Foxcroft,Maine 04426,04426,"? MH SUMH ? OP ? OMH ? AT BMT CBT CFT DBT GT IPT PTM TT ? PVTN ? MC MD MI PI SF SI 
SMHA SWFS VAF ? PA SS ? TAY SE VET CO TRMA TBI PED PTSD SED SMI ? COOT PRS SPS 
? STU TCC ? SMPD ? ADLT CHLD SNR YAD ? AH"
Sunrise Opportunities Eastport Residential Care Facility,4 Clark Street,Eastport,Maine 04631,04631,? MH ? RES ? RTCA ? PTM ? PVTN ? MC MD SF SMHA ? CM ? TCC ? SMPD ? ADLT SNR
Aroostook Mental Health Center,710 Bucksport Road,Ellsworth,Maine 04605,04605,"? MH SUMH ? OP TELE ? CMHC ? BMT CBT CFT GT IDD IPT TT ? CIT WI ? PVTN ? CLF 
CMHG MC MD MI OSF PI SCJJ SF SMHA SWFS VAF ? CJ ? COOT FPSY SPS ? STU ? SMPD ? 
ADLT CHLD SNR YAD ? AH"
Dirigo Counseling Clinic,270 High Street,Ellsworth,Maine 04605,04605,"? MH ? OP TELE ? OMH ? CBT CFT DBT IDD IPT TT ? PVTP ? MC MD MI PI SF SWFS VAF ? 
CM COOT HS PRS SPS ? STU ? SMPD ? ADLT CHLD SNR YAD"
KidsPeace/Graham Lake Campus,16 Kidspeace Way,Ellsworth,Maine 04605,04605,"? MH SUMH ? PHDT RES ? MSNH ? AT BMT CBT CFT DBT GT IPT PTM TT ? CIT ? PVTN ? MC 
SEF SF SI SMHA SWFS ? TAY GL TRMA PTSD SED ? ACT CM DEC ES FPSY SPS ? SMON ? 
CHLD YAD"
Catholic Charities Adult Mental Health,66 Western Avenue,Fairfield,Maine 04937,04937,"? MH ? OP ? OMH ? PVTN ? MD PI SF SMHA ? CM PRS PEER ? STU ? SMPD ? ADLT CHLD 
SNR YAD ? AH"
Pillars Community Outreach,121 Main Street,Fairfield,Maine 04937,04937,"? MH SUMH ? OP ? OMH ? AT CFT DBT GT IPT TT ? PVTP ? MD SF SMHA ? SS ? HV TRMA ? 
CM ? SMPD ? ADLT CHLD SNR YAD ? AH"
Tri County Mental Health Services Franklin County Farmington Unit,144 High Street Suite 1,Farmington,Maine 04938,04938,"? MH SUMH ? OP TELE ? OMH ? CBT CFT DBT GT IDD IPT TT ? WI ? PVTN ? CLF CMHG 
CSBG MC MD MI OSF PI SCJJ SF SMHA SWFS VAF ? SE VET CO TRMA PTSD SED SMI ? CM 
COOT FPSY IMR PRS SPS PEER ? STU TCC ? SMON ? ADLT CHLD SNR YAD ? AH"
Aroostook Mental Health Center Childrens Crisis Stabilization Unit,8 Wesleyan Street,Fort Fairfield,Maine 04742,04742,"? MH ? RES ? RTCC ? CBT GT IPT ? CIT ? PVTN ? CLF MD MI PI SF SMHA SWFS ? SS ? 
FPSY SPS ? SMON ? CHLD ? AH"
Aroostook Mental Health Center Fort Kent Outpatient Office,104 East Main Street,Fort Kent,Maine 04743,04743,"? MH SUMH ? OP TELE ? CMHC ? BMT CBT CFT DBT GT IDD IPT TT ? CIT WI ? PVTN ? CLF 
CMHG MC MD MI OSF PI SCJJ SF SMHA SWFS VAF ? SED SMI ? CM COOT FPSY HS PRS 
SPS TPC PEER ? STU ? SMPD ? ADLT CHLD SNR YAD ? AH"
Life by Design PA,31 Market Street,Fort Kent,Maine 04743,04743,"? MH SUMH ? OP ? OMH ? CBT CFT DBT IDD IPT TT ? PVTP ? CLF ITU MC MD MI OSF PI 
SCJJ SF SWFS VAF ? CO ? CM COOT ? STU TCC ? SMON ? ADLT CHLD SNR YAD"
Northern Maine Medical Center,194 East Main Street,Fort Kent,Maine 04743,04743,"? MH ? HI OP ? PSY ? AT BMT CBT GT IPT PTM ? PVTN ? MC MD MI PI SF SI VAF ? PA ? CDM 
DEC IPC SPS ? NRT NSC STU TCC ? SMON ? ADLT CHLD SNR YAD ? AH ? SP F28"
Ascentria Community Services,28 A and B Rocky Road,Hebron,Maine 04238,04238,"? MH ? RES ? RTCA ? PTM ? PVTN ? CLF CMHG MD OSF SCJJ SF SMHA ? SMI ? PRS ? 
SMPD ? ADLT SNR YAD"
Aroostook Mental Health Center Houlton Outpatient Office,11 Mill Street,Houlton,Maine 04730,04730,"? MH SUMH ? OP TELE ? OMH ? CBT CFT DBT GT IDD IPT PTM TT ? CIT WI ? PVTN ? MC MD 
MI PI SF SMHA SWFS VAF ? SS ? SE CO TRMA PTSD SMI ? CM COOT ES FPSY PRS SPS ? 
STU TCC ? SMPD ? ADLT CHLD SNR YAD ? AH"
Community Health and Csl Servs Adult Child and Family Services,"2 Water Street, Trust Building Suite 2",Houlton,Maine 04730,04730,"? MH ? OP ? OMH ? BMT CBT CFT DBT GT IPT TT ? PVTN ? MC MD MI PI SF VAF ? HV ? CM 
TPC ? SMON ? ADLT CHLD SNR YAD"
Life by Design PA,18 High Street,Houlton,Maine 04730,04730,"? MH SUMH ? OP ? OMH ? CBT CFT IDD IPT TT ? PVTP ? ITU MC MD MI PI SF SWFS VAF ? 
CO ? CM COOT ? STU TCC ? SMON ? ADLT CHLD SNR YAD"
Kennebunk Counseling Center,"65 Portland Road , Building A Suite 2",Kennebunk,Maine 04043,04043,"? MH ? OP ? OMH ? CBT CFT DBT GT IDD IPT TT ? PVTN ? MC MD PI SF SWFS ? CO ? COOT 
FPSY ? SMON ? ADLT SNR YAD ? AH"
Ascentria Community Services,30-32 Martin Drive,Lewiston,Maine 04240,04240,"? MH SUMH ? RES ? RTCA ? PTM ? PVTN ? CLF CMHG CSBG MD OSF SCJJ SF SMHA ? SMI 
? PRS ? SMPD ? ADLT"
Ascentria Community Services,470 Court Street,Lewiston,Maine 04240,04240,"? MH ? RES ? RTCA ? PTM ? PVTN ? CLF CMHG MD OSF SCJJ SF SMHA ? SMI ? PRS ? 
SMPD ? ADLT SNR YAD"
Ascentria Community Services,20 Church Street,Lewiston,Maine 04240,04240,"? MH ? RES ? RTCA ? PTM ? PVTN ? CLF CMHG MD OSF SCJJ SF SMHA ? SMI ? PRS ? 
SMPD ? ADLT SNR YAD"
Ascentria Community Services Building B,101 Elm Street,Lewiston,Maine 04240,04240,"? MH ? RES ? RTCA ? PTM ? PVTN ? CLF MC MD SF SMHA ? SMI ? PRS ? SMPD ? ADLT 
SNR YAD"
KidsPeace/FCFS Lewiston,29 Westminster Street,Lewiston,Maine 04240,04240,"? MH ? OP ? OMH ? BMT CBT CFT DBT IDD IPT TT ? PVTN ? MC SI SWFS ? TAY GL TRMA 
PTSD SED ? CM FPSY TPC ? SMON ? CHLD YAD ? AH ? F4"
Saint Marys Regional Medical Center Adult Psych Unit,93 Campus Avenue,Lewiston,Maine 04240,04240,"? MH SUMH ? HI TELE ? PSY ? AT CBT CFT DBT ECT GT IDD IPT PTM TT ? PVTN ? MC MD MI 
PI SF ? PA ? SE GL VET ADM MF CO HV TRMA TBI ALZ PED PTSD ? CDM CM DEC ES FPSY 
ICM IMR SPS PEER ? NRT NSC STU TCC ? SMON ? ADLT SNR YAD ? AH"
Saint Marys Regional Medical Center Pediatric Behavioral Unit,93 Campus Avenue,Lewiston,Maine 04240,04240,"? MH SUMH ? HI TELE ? PSY ? AT CBT CFT DBT ECT GT IDD IPT PTM TT ? PVTN ? MC MD PI 
SF ? PA ? GL CO HV TRMA PED PTSD SED ? CDM CM DEC ES FPSY ICM IMR SPS PEER ? 
STU TCC ? SMON ? CHLD ? AH"
Saint Marys Regional Medical Center Behavioral Health Services,100 Campus Avenue,Lewiston,Maine 04240,04240,"? MH SUMH ? OP ? OMH ? CBT CFT DBT GT IDD IPT PTM TT ? PVTN ? FQHC ? MC MD MI PI 
SF ? PA SS ? SE GL VET ADM MF CO HV TRMA TBI ALZ PED PTSD ? CDM DEC FPSY IMR IPC 
SPS PEER ? NRT NSC STU TCC ? SMON ? ADLT CHLD SNR YAD ? AH"
Spurwink Services,64 Lisbon Street Suite 2,Lewiston,Maine 04240,04240,"? MH SUMH ? OP ? OMH ? CBT CFT DBT IDD IPT TT ? PVTN ? MD PI SCJJ SF SWFS ? SED ? 
CM IPC ? STU ? SMON ? CHLD"
Spurwink Services Lewiston/Auburn Program,581 Sabattus Street,Lewiston,Maine 04240,04240,"? MH SUMH ? PHDT RES ? RTCC ? AT BMT CBT DBT GT IDD IPT PTM TT ? PVTN ? MD SEF 
SF SMHA SWFS ? CO TRMA SED ? ES FPSY ? STU ? SMON ? CHLD"
Tri County Mental Health Services,1155 Lisbon Street,Lewiston,Maine 04240,04240,"? MH SUMH ? OP TELE ? OMH ? CBT CFT DBT GT IDD IPT TT ? WI ? PVTN ? CLF CMHG 
CSBG MC MD MI OSF PI SCJJ SF SMHA SWFS VAF ? SE VET CO TRMA PTSD SED SMI ? ACT 
CM COOT FPSY IMR PRS SPS PEER ? STU TCC ? SMON ? ADLT CHLD SNR YAD ? AH"
Tri County Mental Health Services Group Home,306 Pine Street,Lewiston,Maine 04240,04240,"? MH ? RES ? RTCA ? CBT DBT GT IPT TT ? PVTN ? MC MD PI SF SMHA ? SE TRMA PTSD 
SMI ? HS IMR PRS SH SPS ? STU ? SMPD ? ADLT SNR YAD ? AH"
Community Health and Csl Servs Adult Child and Family Services,313 Enfield Road,Lincoln,Maine 04457,04457,"? MH ? OP ? OMH ? BMT CBT CFT DBT GT IPT TT ? PVTN ? MC MD MI PI SF VAF ? HV ? CM 
TPC ? SMON ? ADLT CHLD SNR YAD"
Full Circle Wellness Center Inc,9 Maine Street Suite 217,Lincoln,Maine 04457,04457,"? MH SUMH ? OP ? OMH ? BMT CBT CFT DBT GT IDD IPT TT ? PVTP ? CLF ITU MC MD MI 
OSF PI SCJJ SEF SF SI SMHA SWFS VAF ? COOT ES FPSY ? STU TCC ? SMPD ? ADLT CHLD 
SNR YAD"
Northeast Occupational Exchange Inc,9 Main Street,Lincoln,Maine 04457,04457,"? MH SUMH ? OP TELE ? OMH ? BMT CBT CFT DBT GT IDD IPT TT ? CIT ? PVTN ? CLF 
CMHG CSBG ITU MC MD MI OSF PI SCJJ SEF SF SI SMHA SWFS VAF ? SS ? CO ? CM COOT 
DEC FPSY HS PRS SPS PEER ? STU TCC ? SMPD ? ADLT CHLD SNR YAD ? AH"
Farwell Associates,22 Farwell Street,Lisbon,Maine 04250,04250,"? MH ? OP ? CMHC ? BMT CBT CFT GT IDD IPT TT ? CIT ? PVTP ? MC MD MI PI SCJJ SF SI 
SMHA SWFS VAF ? COOT FPSY PRS VRS ? STU ? SMPD ? ADLT CHLD SNR YAD ? AH"
Tri County Mental Health Services Supported Living,15 Village Street,Lisbon,Maine 04250,04250,"? MH ? RES ? RTCA ? CBT DBT GT IPT TT ? PVTN ? MC MD PI SF SMHA ? SE TRMA PTSD 
SMI ? HS IMR PRS SH SPS ? STU ? SMPD ? ADLT SNR YAD ? AH"
Aroostook Mental Health Center,14 Steves Lane,Machias,Maine 04654,04654,"? MH SUMH ? OP TELE ? CMHC ? BMT CBT CFT GT IDD IPT TT ? CIT WI ? PVTN ? CLF 
CMHG MC MD MI OSF PI SCJJ SF SMHA SWFS VAF ? CJ SED SMI ? CM COOT FPSY HS PRS 
SPS PEER ? STU ? SMPD ? ADLT CHLD SNR YAD ? AH"
Sunrise Opportunities,232 Court Street,Machias,Maine 04654,04654,"? MH SUMH ? OP ? OMH ? BMT CBT CFT IPT TT ? PVTN ? CLF CMHG CSBG MC MD MI OSF 
PI SCJJ SEF SF SI SMHA SWFS VAF ? CM ICM SEMP VRS ? STU ? SMON ? ADLT CHLD SNR 
YAD"
Aroostook Mental Health Center,88 Fox Street Suite 101,Madawaska,Maine 04756,04756,"? MH SUMH ? OP TELE ? CMHC ? AT BMT CBT CFT DBT GT IDD IPT TT ? CIT WI ? PVTN ? 
CLF CMHG MC MD MI OSF PI SCJJ SF SMHA SWFS VAF ? SED SMI ? CM COOT FPSY HS PRS 
SPS PEER ? STU ? SMPD ? ADLT CHLD SNR YAD ? AH"
Ascentria Community Services,3 Recreation Drive Suite 1,Mexico,Maine 04257,04257,"? MH ? OP ? OMH ? CBT CFT DBT GT TT ? PVTN ? CMHG MD SCJJ SF SMHA SWFS VAF ? 
TRMA PTSD SMI ? CM ? SMPD ? ADLT SNR YAD"
Sunrise Opportunities Milbridge Residence,4 Harbor Lane,Milbridge,Maine 04658,04658,"? MH SUMH ? RES ? RTCA ? AT BMT CBT DBT IDD IPT PTM ? CIT ? PVTN ? CLF CMHG CSBG 
ITU MC MD OSF PI SF SI SMHA SWFS VAF ? SE CO TRMA ALZ PED PTSD SMI ? DEC FPSY 
IMR IPC PRS SEMP PEER ? NRT NSC TCC ? SMPD ? ADLT SNR YAD"
Northeast Occupational Exchange Inc,442 Moosehead Trail,Newport,Maine 04953,04953,"? MH SUMH ? OP TELE ? OMH ? AT BMT CBT CFT DBT GT IDD IPT TT ? CIT ? PVTN ? CLF 
CMHG CSBG ITU MC MD MI OSF PI SCJJ SEF SF SI SMHA SWFS VAF ? SS ? CO ? CM COOT 
DEC FPSY HS PRS SPS PEER ? STU TCC ? SMPD ? ADLT CHLD SNR YAD ? AH"
Tri County Mental Health Services Oxford Hills Clinic,143 Pottle Road,Oxford,Maine 04270,04270,"? MH SUMH ? OP TELE ? OMH ? CBT CFT DBT GT IDD IPT TT ? WI ? PVTN ? CLF CMHG 
CSBG MC MD MI OSF PI SCJJ SF SMHA SWFS VAF ? SE VET CO TRMA PTSD SED SMI ? CM 
COOT FPSY IMR PRS SPS PEER ? STU TCC ? SMON ? ADLT CHLD SNR YAD ? AH"
Behavioral Health Resources of Maine,"48 Free Street, Mezzanine Level",Portland,Maine 04101,04101,"? MH SUMH ? OP ? OMH ? BMT CBT GT IDD IPT PTM TT ? PVTP ? MC MD PI SF SMHA VAF ? 
COOT ? NRT NSC STU ? SMON ? ADLT SNR YAD"
Catholic Charities Support and Recovery Services,66 State Street,Portland,Maine 04104,04104,"? MH SUMH ? OP ? OMH ? BMT GT IDD IPT PTM ? CIT ? PVTN ? MD SI SMHA SWFS ? TAY 
CO SMI ? ACT CM DEC PEER ? STU TCC ? SMON ? ADLT SNR YAD"
Day One Teen Center,343 Cumberland Avenue,Portland,Maine 04101,04101,"? MH SUMH ? OP ? OMH ? CBT CFT DBT GT IDD IPT TT ? PVTN ? MD OSF PI SCJJ SF SMHA 
SWFS ? PA SS ? TAY GL CJ CO HV TRMA PED PTSD ? CM COOT ? STU ? SMON ? CHLD YAD"
Greater Portland Health,180 Park Avenue,Portland,Maine 04102,04102,"? MH ? OP ? OMH ? BMT CBT CFT GT IDD IPT PTM TT ? PVTN ? FQHC ? CLF CMHG CSBG 
ITU MC MD MI OSF PI SCJJ SEF SF SI SMHA SWFS VAF ? PA SS ? GL CO HV TRMA PTSD ? 
CDM CM COOT DEC FPSY IPC PEER ? NRT STU TCC ? SMON ? ADLT CHLD SNR YAD ? AH ? 
SP F4 F104"
Maine Behavioral Healthcare,165 Lancaster Street,Portland,Maine 04101,04101,"? MH SUMH ? OP TELE ? OMH ? BMT CBT CFT GT IPT PTM TT ? PVTN ? CLF CSBG MC MD 
MI OSF PI SCJJ SEF SF SI SMHA SWFS VAF ? SE CO TRMA SED ? CM PEER ? STU ? SMON ? 
ADLT CHLD SNR YAD ? AH"
Maine Behavioral Healthcare,576 Saint John Street,Portland,Maine 04102,04102,"? MH SUMH ? OP ? OMH ? AT BMT CBT CFT DBT GT IDD IPT PTM TT ? CIT ? PVTN ? MD 
SMHA ? PA ? CO TRMA PTSD SMI ? ACT COOT FPSY HS VRS ? NRT NSC STU TCC ? SMON ? 
ADLT SNR YAD ? AH"
Maine Medical Center,66 Bramhall Street,Portland,Maine 04102,04102,"? MH SUMH ? OP ? OMH ? BMT CBT CFT DBT ECT GT IPT PTM TT ? PVTN ? MC MD MI PI 
SCJJ SF SI VAF ? TAY SE GL TRMA ALZ PTSD SED SMI ? FPSY SPS ? SMON ? CHLD SNR 
YAD ? AH"
Maine Medical Center Mental Health Inpatient Program P6 Dept of Psychiatry P6,22 Bramhall Street,Portland,Maine 04102,04102,"? MH SUMH ? HI ? PSY ? AT CBT CFT DBT ECT IPT PTM ? WI ? PVTN ? MC MD MI PI SF SI 
SMHA SWFS ? PA ? SE ALZ SMI ? FPSY ? NRT NSC STU TCC ? SMON ? ADLT SNR YAD ? AH"
Maine Medical Center Outpt Psychiatry McGeachey Hall,216 Vaughan Street,Portland,Maine 04102,04102,"? MH SUMH ? OP PHDT ? OMH ? AT CBT CFT DBT GT IDD IPT PTM TT ? PVTN ? MC MD MI 
OSF PI SF SI SMHA SWFS ? CO SMI ? DEC FPSY IMR VRS ? STU TCC ? SMON ? ADLT SNR 
YAD ? AH"
Shalom House Inc,130 Park Street,Portland,Maine 04112,04112,"? MH ? RES ? RTCA ? AT BMT ? PVTN ? MD SF SMHA ? SMI ? CDM CM DEC ES HS IMR LAD 
PRS SPS ? NSC STU ? SMON ? ADLT SNR YAD"
Spurwink Services Glickman Academy,587 Ocean Avenue,Portland,Maine 04103,04103,"? MH SUMH ? PHDT ? PH ? AT BMT CBT DBT GT IDD IPT PTM TT ? PVTN ? MD SEF ? CO 
TRMA SED ? ES FPSY VRS ? STU ? SMON ? CHLD"
Spurwink Services Outpatient and Community Services,901 Washington Avenue Suite 100,Portland,Maine 04103,04103,"? MH SUMH ? OP ? OMH ? CBT CFT DBT IDD IPT PTM TT ? PVTN ? CLF MC MD MI OSF PI 
SCJJ SF SMHA SWFS ? SED ? CM IPC TPC ? STU ? SMON ? CHLD"
Spurwink Services Spurwink Adult Behavioral Health,62 Elm Street,Portland,Maine 04101,04101,"? MH SUMH ? OP ? OMH ? GT IDD IPT PTM ? PVTN ? CLF CSBG MC MD MI OSF PI SF SI 
SMHA ? CO SMI ? ACT CDM CM IMR PRS VRS ? STU ? SMON ? ADLT YAD"
Wall Street,25 Wall Street,Portland,Maine 04103,04103,? MH ? RES ? RTCA ? AT BMT PTM ? PVTN ? MD ? SMI ? PRS SH ? SMPD ? ADLT SNR YAD
Aroostook Mental Health Center Adult Crisis Stabilization Unit,162 Main Street,Presque Isle,Maine 04769,04769,"? MH SUMH ? RES ? RTCA ? CBT GT IPT ? CIT ? PVTN ? CLF MD MI PI SF SMHA ? SS ? 
FPSY SPS ? SMPD ? ADLT SNR YAD ? AH"
Aroostook Mental Health Center Presque Isle Outpatient Office,1 Edgemont Drive,Presque Isle,Maine 04769,04769,"? MH SUMH ? OP TELE ? CMHC ? BMT CBT CFT DBT GT IDD IPT PTM TT ? CIT WI ? PVTN ? 
CLF CMHG MC MD MI OSF PI SCJJ SF SMHA SWFS VAF ? PTSD SED SMI ? CM COOT FPSY 
HS PRS SPS TPC PEER ? STU ? SMPD ? ADLT CHLD SNR YAD ? AH"
County Behavioral Medicine,541 Main Street Suite B,Presque Isle,Maine 04769,04769,"? MH SUMH ? OP TELE ? OMH ? AT BMT CBT CFT DBT GT IDD IPT TT ? PVTN ? CMHG MD MI 
PI SCJJ SF SI SMHA SWFS VAF ? SS ? CO TRMA PTSD SED ? CDM COOT DEC FPSY IMR ? 
STU TCC ? SMON ? ADLT CHLD SNR YAD ? AH"
Life by Design PA,147 Academy Street,Presque Isle,Maine 04769,04769,"? MH SUMH ? OP ? OMH ? CBT CFT IDD IPT TT ? PVTP ? CLF ITU MC MD MI OSF PI SCJJ 
SEF SF SWFS ? CO ? CM COOT ? STU TCC ? SMON ? ADLT CHLD SNR YAD"
Spurwink Services Outpatient and Community Services,9 Hillcrest Avenue,Randolph,Maine 04346,04346,"? MH SUMH ? OP ? OMH ? CBT CFT DBT IDD IPT TT ? PVTN ? MC MD OSF PI SCJJ SF SMHA 
SWFS ? SED ? CM IPC ? STU ? SMON ? CHLD"
Home Counselors Inc,375 Main Street,Rockland,Maine 04841,04841,"? MH ? OP ? OMH ? CBT CFT IDD IPT ? PVTN ? MD PI SF SWFS ? TAY CO SED ? CM FPSY ? 
SMPD ? CHLD YAD ? AH"
Maine Behavioral Healthcare,12 Union Street,Rockland,Maine 04841,04841,"? MH SUMH ? OP TELE ? CMHC ? AT BMT CBT CFT DBT GT IDD IPT PTM TT ? CIT ? PVTN ? 
MC MD PI SF SI SMHA SWFS ? CO ? CDM CM COOT DEC SEMP PEER ? STU TCC ? SMON ? 
ADLT CHLD SNR YAD ? AH"
Pen Bay Medical Center Behavioral Health/PARC Unit,6 Glen Cove Drive,Rockport,Maine 04856,04856,"? MH SUMH ? HI OP TELE ? PSY ? AT CBT CFT DBT GT IDD IPT PTM ? CIT ? PVTN ? MC MD 
MI PI SF SI SWFS ? SS ? SE CO TRMA PTSD SMI ? ES FPSY IPC SPS ? NRT NSC STU ? 
SMON ? ADLT SNR YAD ? AH"
Oxford County Mental Health Services (OCMHS),150 Congress Street,Rumford,Maine 04276,04276,"? MH SUMH ? OP RES TELE ? MSNH ? BMT CBT CFT DBT GT IPT TT ? CIT ? PVTN ? CLF 
CMHG CSBG MC MD MI OSF PI SCJJ SF SI SMHA SWFS ? TAY CO SED SMI ? CM COOT FPSY 
PRS SH SPS PEER ? NRT NSC STU TCC ? SMON ? ADLT CHLD SNR YAD ? AH"
Tri County Mental Health Services Franklin Street Group Home,125 Franklin Street,Rumford,Maine 04276,04276,"? MH ? RES ? RTCA ? CBT DBT GT IPT TT ? PVTN ? MC MD PI SF SMHA ? SE TRMA PTSD 
SMI ? HS IMR PRS SH SPS ? STU ? SMPD ? ADLT SNR YAD ? AH"
Tri County Mental Health Services Northern Oxford Cnty Rumford Unit,49 Congress Street,Rumford,Maine 04276,04276,"? MH SUMH ? OP TELE ? OMH ? CBT CFT DBT GT IDD IPT TT ? WI ? PVTN ? CLF CMHG 
CSBG MC MD MI OSF PI SCJJ SF SMHA SWFS VAF ? SE VET CO TRMA PTSD SED SMI ? CM 
COOT FPSY IMR PRS SPS PEER ? STU TCC ? SMON ? ADLT CHLD SNR YAD ? AH"
Tri County Mental Health Services Kelley Drive Home,46 Kelly Drive,Sabattus,Maine 04280,04280,"? MH ? RES ? RTCA ? CBT DBT IPT TT ? PVTN ? MC MD PI SF SMHA ? SE TRMA PTSD SMI ? 
HS IMR PRS SH SPS ? STU ? SMPD ? ADLT SNR YAD ? AH"
Waban Projects Inc,5 Dunaway Drive,Sanford,Maine 04073,04073,"? MH ? OP ? OMH ? CBT GT IPT TT ? PVTN ? MD ? CM ES FPSY ? STU ? SMON ? ADLT CHLD 
SNR YAD"
Crossroads for Women Inc,71 U.S. Route 1 Suite E,Scarborough,Maine 04074,04074,"? MH ? OP ? OMH ? CBT CFT DBT GT IDD IPT TT ? PVTN ? MC MD PI SF SWFS ? CO ? COOT 
FPSY ? SMON ? ADLT SNR YAD ? AH"
Pathways of Maine Inc Southern Maine Regional Office,71 U.S. Route 1 Suite H,Scarborough,Maine 04074,04074,"? MH SUMH ? OP ? OMH ? AT BMT CBT CFT DBT IPT TT ? PVTP ? MD MI PI SF SMHA SWFS ? 
TRMA PTSD SED ? CM FPSY IPC PRS SPS ? STU ? SMON ? ADLT CHLD YAD ? AH"
Community Health and Csl Servs,30 High Street,Skowhegan,Maine 04976,04976,"? MH ? OP ? CMHC ? BMT CBT CFT DBT IPT TT ? PVTN ? CLF CMHG CSBG MC MD OSF PI 
SF SWFS ? SS ? CM COOT FPSY TPC ? SMON ? ADLT CHLD SNR YAD"
Kennebec Behavioral Health,5 Commerce Drive,Skowhegan,Maine 04976,04976,"? MH SUMH ? OP ? OMH ? CBT CFT DBT GT IDD IPT PTM ? PVTN ? CMHG MC MD MI PI SCJJ 
SEF SF SWFS VAF ? CO SMI ? CM ? SMON ? ADLT CHLD SNR YAD ? AH"
Spurwink Services Cornville Program,32 Spurwink Lane,Skowhegan,Maine 04976,04976,"? MH SUMH ? RES ? RTCC ? AT BMT CBT DBT GT IDD IPT PTM TT ? PVTN ? MD SCJJ SEF 
SF SMHA SWFS ? CO TRMA SED ? ES FPSY VRS ? STU ? SMON ? CHLD"
Oxford County Mental Health Services (OCMHS),17 Gary Street,South Paris,Maine 04281,04281,"? MH SUMH ? OP TELE ? OMH ? AT CBT CFT DBT GT IPT TT ? CIT ? PVTN ? CLF CMHG 
CSBG MC MD MI OSF PI SCJJ SF SI SMHA SWFS ? CO ? CM COOT FPSY SPS ? NRT NSC 
STU TCC ? SMON ? ADLT CHLD SNR YAD ? AH"
Connections for Kids,100 Gannett Drive Suite A,South Portland,Maine 04106,04106,"? MH SUMH ? OP ? OMH ? BMT CBT CFT DBT IPT TT ? OSG ? MD PI SF SWFS ? TAY TRMA 
PTSD SED ? ACT FPSY PRS ? SMON ? ADLT CHLD SNR YAD"
Day One,525 Main Street,South Portland,Maine 04106,04106,"? MH SUMH ? OP ? OMH ? CBT CFT DBT IPT TT ? PVTN ? CLF CSBG MD MI PI SCJJ SEF SF 
SI SMHA SWFS VAF ? PA SS ? TAY GL CO TRMA TBI PTSD ? CM COOT SPS ? STU TCC ? 
SMON ? ADLT CHLD SNR YAD ? AH ? SP"
Port Resources,280 Gannett Drive Suite B,South Portland,Maine 04106,04106,"? MH SUMH ? OP ? OMH ? AT BMT CBT CFT GT IDD IPT PTM TT ? PVTN ? MC MD PI SF 
SMHA SWFS ? SS ? TAY SE ALZ ? FPSY PRS ? SMPD ? ADLT CHLD SNR YAD ? AH"
Maine Behavioral Healthcare Springvale,474 Main Street,Springvale,Maine 04083,04083,"? MH SUMH ? OP TELE ? OMH ? BMT CBT CFT DBT GT IDD IPT PTM TT ? CIT WI ? PVTN ? 
MC MD PI SCJJ SF SI SMHA SWFS ? CO TRMA SMI ? ACT CM COOT FPSY IPC SPS VRS 
PEER ? NSC STU TCC ? SMON ? ADLT CHLD SNR YAD ? AH"
Pathways of Maine Inc Southwestern Regional Office,469 Main Street Suite 201,Springvale,Maine 04083,04083,"? MH SUMH ? OP ? OMH ? AT BMT CBT CFT DBT IPT TT ? PVTP ? MD MI PI SF SMHA SWFS ? 
TRMA PTSD SED ? CM FPSY IPC PRS SPS ? STU ? SMON ? ADLT CHLD YAD ? AH"
NFI North Inc Stetson Ranch,160 Lapoint Road,Stetson,Maine 04488,04488,"? MH ? RES ? RTCC ? AT BMT CBT CFT DBT GT IPT PTM TT ? CIT ? PVTN ? MC MD PI SCJJ 
SEF SMHA SWFS ? GL CJ TRMA PTSD SED ? ES FPSY ? SMON ? CHLD ? AH"
Ascentria Community Services,179 Main Street Suite 413,Waterville,Maine 04901,04901,"? MH ? OP ? CMHC ? DBT ? PVTN ? CLF CMHG MD OSF SCJJ SF SMHA SWFS ? TRMA PTSD 
SMI ? CM ? SMPD ? ADLT SNR YAD"
Assistance Plus,1604 Benton Avenue,Waterville,Maine 04901,04901,"? MH ? OP ? OMH ? AT BMT CBT CFT DBT GT IDD IPT TT ? PVTP ? CMHG MC MD OSF PI SF 
SI SMHA SWFS ? SMI ? CM COOT FPSY ? SMON ? ADLT CHLD SNR YAD"
Care and Comfort,180 Main Street,Waterville,Maine 04901,04901,"? MH ? OP ? OMH ? BMT CFT GT IPT TT ? PVTP ? CLF ITU MD MI OSF PI SCJJ SEF SF SI 
SMHA SWFS VAF ? PA SS ? COOT FPSY PRS ? SMON ? ADLT CHLD SNR YAD ? AH"
Kennebec Behavioral Health,67 Eustis Parkway,Waterville,Maine 04901,04901,"? MH SUMH ? OP ? OMH ? CBT CFT DBT GT IDD IPT PTM ? PVTN ? CLF CMHG CSBG MC MD 
MI PI SCJJ SEF SF SI SMHA SWFS VAF ? CO SMI ? CM HS ? SMON ? ADLT CHLD SNR YAD ? 
AH"
MaineGeneral Counseling Center,149 North Street Suite 3200,Waterville,Maine 04901,04901,"? MH SUMH ? OP ? OMH ? CBT CFT DBT GT IDD IPT TT ? PVTN ? MC MD MI PI SF SWFS ? 
CO TRMA PTSD ? STU ? SMON ? ADLT CHLD SNR YAD ? AH"
MaineGeneral Medical Center Seton Campus,24 Chase Avenue,Waterville,Maine 04901,04901,"? MH SUMH ? OP PHDT ? OMH ? CBT CFT DBT GT IDD IPT PTM TT ? PVTN ? MC MD MI OSF 
PI SCJJ SF SMHA SWFS ? PA ? COOT ES FPSY IMR SPS ? STU ? SMPD ? ADLT SNR YAD ? 
AH"
ME Child Home for Little Wanderers Harland A Turner Counseling Center 3,93 Silver Street,Waterville,Maine 04901,04901,"? MH SUMH ? OP ? OMH ? BMT CBT CFT DBT IPT TT ? PVTN ? MC MD PI SF ? SMON ? ADLT 
CHLD SNR YAD"
Brook Street,401 Brook Street,Westbrook,Maine 04092,04092,"? MH SUMH ? RES ? RTCC ? AT BMT CBT DBT GT IDD IPT PTM TT ? PVTN ? MD OSF PI SCJJ 
SF SMHA SWFS ? CO TRMA SED ? FPSY ? STU ? SMON ? CHLD"
Community Health and Csl Servs,201 Main Street Suite 6,Westbrook,Maine 04092,04092,"? MH ? OP ? OMH ? BMT CBT CFT IPT TT ? PVTN ? MC MD MI PI SCJJ SF SMHA SWFS VAF ? 
SS ? TRMA ? CM FPSY TPC ? SMON ? ADLT CHLD SNR YAD ? AH"
Peregrine,2 Chesley Street,Westbrook,Maine 04092,04092,"? MH ? RES ? RTCA ? AT BMT PTM ? PVTN ? MC MD SMHA ? SMI ? PRS SH ? SMPD ? ADLT 
SNR"
Care and Comfort,284 Main Street Suite 390,Wilton,Maine 04294,04294,"? MH ? OP ? OMH ? BMT CFT GT IPT TT ? PVTP ? CLF ITU MD MI OSF PI SCJJ SEF SF SI 
SMHA SWFS VAF ? PA SS ? VET ? CM COOT FPSY PRS ? SMON ? ADLT CHLD SNR YAD ? AH"
South Belfast,31 South Belfast Avenue,Windsor,Maine 04363,04363,"? MH ? RES ? RTCA ? BMT IPT ? PVTP ? CMHG CSBG MC MD OSF PI SCJJ SF SI SMHA ? GL 
CJ CO TRMA TBI PTSD SMI ? CM COOT HS PRS SEMP ? SMPD ? ADLT SNR YAD"
Kennebec Behavioral Health,736 Old Lewiston Road,Winthrop,Maine 04364,04364,"? MH SUMH ? OP ? OMH ? CFT GT IDD IPT PTM ? PVTN ? CLF CMHG CSBG MC MD MI OSF 
PI SCJJ SEF SF SWFS VAF ? CO SMI ? CM ? SMON ? ADLT CHLD SNR YAD ? AH"
SequelCare of Maine Yarmouth,70 Bayview Street,Yarmouth,Maine 04096,04096,"? MH SUMH ? OP TELE ? MSNH ? BMT CBT CFT GT IPT TT ? WI ? PVTP ? CLF CSBG MD OSF 
PI SCJJ SEF SF SI SMHA SWFS VAF ? CJ CO TRMA PTSD ? CM COOT FPSY ICM PRS SPS 
PEER ? NSC STU ? ADLT CHLD SNR YAD"
